station,valid,tmpf, dwpf, relh, drct, sknt, p01i, alti, mslp, vsby, gust, skyc1, skyc2, skyc3, skyc4, skyl1, skyl2, skyl3, skyl4, presentwx, metar
DCA,2013-11-01 00:52,62.96,57.92,83.60,190.00,7.00,0.00,29.89,1012.10,10.00,M,FEW,OVC,None,None,11000.00,14000.00,M,M,-RA,KDCA 010052Z 19007KT 10SM -RA FEW110 OVC140 17/14 A2989 RMK AO2 RAE10B33 SLP121 P0000 T01720144 $,
DCA,2013-11-01 01:52,64.04,57.92,80.49,190.00,9.00,0.00,29.87,1011.30,10.00,M,OVC,None,None,None,15000.00,M,M,M,M,KDCA 010152Z 19009KT 10SM OVC150 18/14 A2987 RMK AO2 RAE04 SLP113 P0000 T01780144,
DCA,2013-11-01 02:52,66.92,57.92,72.81,190.00,12.00,0.00,29.85,1010.70,10.00,M,FEW,OVC,None,None,5000.00,15000.00,M,M,M,KDCA 010252Z 19012KT 10SM FEW050 OVC150 19/14 A2985 RMK AO2 SLP107 60000 T01940144 56022,
DCA,2013-11-01 03:52,64.94,55.94,72.62,190.00,13.00,0.00,29.80,1008.90,10.00,M,OVC,None,None,None,20000.00,M,M,M,M,KDCA 010352Z 19013KT 10SM OVC200 18/13 A2980 RMK AO2 SLP089 T01830133,
DCA,2013-11-01 04:52,64.94,55.94,72.62,190.00,13.00,0.00,29.77,1007.90,10.00,M,FEW,OVC,None,None,6000.00,20000.00,M,M,M,KDCA 010452Z 19013KT 10SM FEW060 OVC200 18/13 A2977 RMK AO2 SLP079 T01830133 402000133,
DCA,2013-11-01 05:52,64.94,57.02,75.51,180.00,12.00,0.00,29.73,1006.60,10.00,M,OVC,None,None,None,18000.00,M,M,M,M,KDCA 010552Z 18012KT 10SM OVC180 18/14 A2973 RMK AO2 PRESFR SLP066 60000 T01830139 10194 20172 56041,
DCA,2013-11-01 06:52,66.92,59.00,75.69,190.00,14.00,0.00,29.69,1005.40,10.00,M,BKN,OVC,None,None,3400.00,18000.00,M,M,M,KDCA 010652Z 19014KT 10SM BKN034 OVC180 19/15 A2969 RMK AO2 SLP054 T01940150,
DCA,2013-11-01 07:52,71.96,60.08,66.20,200.00,18.00,0.00,29.67,1004.70,10.00,29.00,SCT,OVC,None,None,3400.00,14000.00,M,M,M,KDCA 010752Z 20018G29KT 10SM SCT034 OVC140 22/16 A2967 RMK AO2 PK WND 21029/0743 SLP047 T02220156,
DCA,2013-11-01 08:52,71.96,62.06,71.01,200.00,16.00,0.00,29.65,1003.90,10.00,27.00,FEW,BKN,OVC,None,3400.00,4400.00,15000.00,M,M,KDCA 010852Z 20016G27KT 10SM FEW034 BKN044 OVC150 22/17 A2965 RMK AO2 PK WND 19027/0847 RAB0756E09 SLP039 P0000 60000 T02220167 56027,
DCA,2013-11-01 09:52,69.08,60.98,75.40,190.00,17.00,0.00,29.62,1003.00,10.00,M,SCT,OVC,None,None,3500.00,17000.00,M,M,M,KDCA 010952Z 19017KT 10SM SCT035 OVC170 21/16 A2962 RMK AO2 PK WND 20026/0901 SLP030 T02060161,
DCA,2013-11-01 10:52,71.96,62.06,71.01,190.00,18.00,0.00,29.62,1002.80,10.00,26.00,SCT,OVC,None,None,3500.00,4400.00,M,M,M,KDCA 011052Z 19018G26KT 10SM SCT035 OVC044 22/17 A2962 RMK AO2 PK WND 20027/1040 SLP028 T02220167,
DCA,2013-11-01 11:52,71.06,62.06,73.22,200.00,17.00,0.00,29.62,1002.90,10.00,24.00,FEW,BKN,OVC,None,2500.00,3500.00,7000.00,M,M,KDCA 011152Z 20017G24KT 10SM FEW025 BKN035 OVC070 22/17 A2962 RMK AO2 PK WND 20030/1053 RAB18E50 SLP029 P0000 60000 T02170167 10228 20183 55010,
DCA,2013-11-01 12:52,71.96,62.06,71.01,210.00,12.00,0.00,29.65,1004.00,10.00,M,FEW,BKN,OVC,None,2500.00,3800.00,6500.00,M,M,KDCA 011252Z 21012KT 10SM FEW025 BKN038 OVC065 22/17 A2965 RMK AO2 SLP040 T02220167,
DCA,2013-11-01 13:13,71.60,62.60,73.27,210.00,13.00,0.00,29.66,M,10.00,20.00,FEW,BKN,OVC,None,1700.00,2800.00,4000.00,M,M,KDCA 011313Z 21013G20KT 10SM FEW017 BKN028 OVC040 22/17 A2966 RMK AO2 VCSH SW-NE,
DCA,2013-11-01 13:23,71.60,62.60,73.27,280.00,7.00,0.00,29.68,M,10.00,M,FEW,BKN,OVC,None,1700.00,2800.00,4000.00,M,M,KDCA 011323Z 28007KT 10SM FEW017 BKN028 OVC040 22/17 A2968 RMK AO2 PRESRR VIS W-N 2 VCSH SW-NE,
DCA,2013-11-01 13:26,69.80,60.80,73.09,290.00,19.00,0.00,29.69,M,2.00,30.00,FEW,BKN,OVC,None,1700.00,2500.00,4000.00,M,+RA,KDCA 011326Z 29019G30KT 2SM +RA FEW017 BKN025 OVC040 21/16 A2969 RMK AO2 PK WND 27030/1324 RAB26 PRESRR VIS HIER E-S P0000,
DCA,2013-11-01 13:28,68.00,59.00,72.92,290.00,19.00,0.00,29.69,M,1.50,30.00,FEW,BKN,OVC,None,1700.00,2500.00,4000.00,M,+RA,KDCA 011328Z 29019G30KT 1 1/2SM +RA FEW017 BKN025 OVC040 20/15 A2969 RMK AO2 PK WND 27030/1324 RAB26 PRESRR VIS HIER E-S P0000,
DCA,2013-11-01 13:32,64.40,57.20,77.45,280.00,14.00,0.04,29.69,M,2.50,30.00,FEW,BKN,OVC,None,1700.00,2500.00,4000.00,M,+RA,KDCA 011332Z 28014G30KT 2 1/2SM R01/5500VP6000FT +RA FEW017 BKN025 OVC040 18/14 A2969 RMK AO2 PK WND 27030/1324 RAB26 P0004,
DCA,2013-11-01 13:35,64.40,59.00,82.62,270.00,13.00,0.08,29.69,M,3.00,24.00,FEW,SCT,OVC,None,1700.00,2500.00,4000.00,M,+RA,KDCA 011335Z 27013G24KT 3SM R01/5500VP6000FT +RA FEW017 SCT025 OVC040 18/15 A2969 RMK AO2 PK WND 27030/1324 RAB26 VIS E-S 2 P0008,
DCA,2013-11-01 13:41,64.40,59.00,82.62,270.00,10.00,0.12,29.69,M,5.00,M,SCT,BKN,OVC,None,2500.00,3400.00,4400.00,M,-RA,KDCA 011341Z 27010KT 5SM -RA SCT025 BKN034 OVC044 18/15 A2969 RMK AO2 PK WND 27030/1324 RAB26 VIS SE-S 2 1/2 P0012,
DCA,2013-11-01 13:52,64.04,59.00,83.66,280.00,8.00,0.13,29.69,1005.20,6.00,15.00,SCT,BKN,OVC,None,2700.00,3800.00,5000.00,M,-RA,KDCA 011352Z 28008G15KT 6SM -RA SCT027 BKN038 OVC050 18/15 A2969 RMK AO2 PK WND 27030/1324 RAB26 SLP052 VIS SE-S 2 1/2 P0013 T01780150,
DCA,2013-11-01 14:39,64.40,59.00,82.62,M,4.00,0.01,29.68,M,10.00,M,SCT,OVC,None,None,3800.00,6000.00,M,M,M,KDCA 011439Z VRB04KT 10SM SCT038 OVC060 18/15 A2968 RMK AO2 RAE29 VCSH E-S P0001,
DCA,2013-11-01 14:52,66.02,59.00,78.08,180.00,6.00,0.01,29.68,1005.00,10.00,M,SCT,OVC,None,None,4000.00,7000.00,M,M,M,KDCA 011452Z 18006KT 10SM SCT040 OVC070 19/15 A2968 RMK AO2 RAE29 SLP050 VCSH SE-S P0001 60014 T01890150 50021,
DCA,2013-11-01 15:52,62.96,59.00,86.90,170.00,5.00,0.00,29.66,1004.40,10.00,M,SCT,OVC,None,None,6500.00,8000.00,M,M,M,KDCA 011552Z 17005KT 10SM SCT065 OVC080 17/15 A2966 RMK AO2 SLP044 BINOVC W-N VIRGA N AND E-S T01720150,
DCA,2013-11-01 16:52,66.02,60.98,83.79,190.00,5.00,0.00,29.66,1004.40,10.00,M,SCT,OVC,None,None,7000.00,9500.00,M,M,M,KDCA 011652Z 19005KT 10SM SCT070 OVC095 19/16 A2966 RMK AO2 SLP044 BINOVC W-NE T01890161,
DCA,2013-11-01 17:52,68.00,60.98,78.25,180.00,7.00,0.00,29.66,1004.30,10.00,M,FEW,BKN,BKN,None,5500.00,8500.00,11000.00,M,M,KDCA 011752Z 18007KT 10SM FEW055 BKN085 BKN110 20/16 A2966 RMK AO2 SLP043 60014 T02000161 10222 20172 56007,
DCA,2013-11-01 18:52,69.98,60.08,70.81,190.00,4.00,0.00,29.62,1003.00,10.00,M,FEW,SCT,SCT,BKN,5000.00,8500.00,14000.00,23000.00,M,KDCA 011852Z 19004KT 10SM FEW050 SCT085 SCT140 BKN230 21/16 A2962 RMK AO2 SLP030 VIRGA E T02110156,
DCA,2013-11-01 19:52,71.06,60.08,68.25,170.00,8.00,0.00,29.63,1003.20,10.00,M,FEW,SCT,SCT,SCT,4000.00,9000.00,14000.00,24000.00,M,KDCA 011952Z 17008KT 10SM FEW040 SCT090 SCT140 SCT240 22/16 A2963 RMK AO2 SLP032 T02170156,
DCA,2013-11-01 20:52,69.08,60.08,73.02,180.00,10.00,0.00,29.64,1003.50,10.00,M,FEW,SCT,SCT,None,4000.00,14000.00,24000.00,M,M,KDCA 012052Z 18010KT 10SM FEW040 SCT140 SCT240 21/16 A2964 RMK AO2 SLP035 T02060156 55008,
DCA,2013-11-01 21:52,68.00,57.92,70.15,180.00,7.00,0.00,29.63,1003.40,10.00,M,CLR,None,None,None,M,M,M,M,M,KDCA 012152Z 18007KT 10SM CLR 20/14 A2963 RMK AO2 SLP034 T02000144,
DCA,2013-11-01 22:52,66.02,57.92,75.12,180.00,6.00,0.00,29.64,1003.50,10.00,M,SCT,None,None,None,13000.00,M,M,M,M,KDCA 012252Z 18006KT 10SM SCT130 19/14 A2964 RMK AO2 SLP035 T01890144,
DCA,2013-11-01 23:52,64.04,57.02,77.92,190.00,6.00,0.00,29.65,1003.90,10.00,M,CLR,None,None,None,M,M,M,M,M,KDCA 012352Z 19006KT 10SM CLR 18/14 A2965 RMK AO2 SLP039 T01780139 10228 20178 53004,
DCA,2013-11-02 00:52,62.96,57.02,80.93,190.00,8.00,0.00,29.67,1004.50,10.00,M,CLR,None,None,None,M,M,M,M,M,KDCA 020052Z 19008KT 10SM CLR 17/14 A2967 RMK AO2 SLP045 T01720139,
DCA,2013-11-02 01:52,62.96,57.92,83.60,190.00,5.00,0.00,29.67,1004.50,10.00,M,SCT,None,None,None,14000.00,M,M,M,M,KDCA 020152Z 19005KT 10SM SCT140 17/14 A2967 RMK AO2 SLP045 T01720144,
DCA,2013-11-02 02:52,62.06,57.92,86.29,340.00,4.00,0.00,29.67,1004.50,10.00,M,FEW,None,None,None,1600.00,M,M,M,M,KDCA 020252Z 34004KT 10SM FEW016 17/14 A2967 RMK AO2 SLP045 T01670144 51005,
DCA,2013-11-02 03:11,62.60,57.20,82.50,0.00,0.00,0.00,29.67,M,10.00,M,BKN,None,None,None,1600.00,M,M,M,M,KDCA 020311Z 00000KT 10SM BKN016 17/14 A2967 RMK AO2,
DCA,2013-11-02 03:45,62.60,57.20,82.50,180.00,5.00,0.00,29.67,M,10.00,M,SCT,SCT,None,None,1600.00,3400.00,M,M,M,KDCA 020345Z 18005KT 10SM SCT016 SCT034 17/14 A2967 RMK AO2,
DCA,2013-11-02 03:52,62.06,57.92,86.29,200.00,6.00,0.00,29.67,1004.50,10.00,M,FEW,SCT,SCT,None,1600.00,3400.00,25000.00,M,M,KDCA 020352Z 20006KT 10SM FEW016 SCT034 SCT250 17/14 A2967 RMK AO2 SLP045 T01670144,
DCA,2013-11-02 04:52,62.06,57.92,86.29,0.00,0.00,0.00,29.67,1004.60,10.00,M,FEW,BKN,None,None,1500.00,8000.00,M,M,M,KDCA 020452Z 00000KT 10SM FEW015 BKN080 17/14 A2967 RMK AO2 SLP046 T01670144 402280156,
DCA,2013-11-02 05:52,62.06,55.04,77.75,0.00,0.00,0.00,29.67,1004.60,10.00,M,BKN,BKN,None,None,6000.00,7000.00,M,M,M,KDCA 020552Z 00000KT 10SM BKN060 BKN070 17/13 A2967 RMK AO2 SLP046 T01670128 10178 20150 53001,
DCA,2013-11-02 06:52,59.00,48.92,69.17,350.00,5.00,0.00,29.67,1004.50,10.00,M,FEW,None,None,None,6500.00,M,M,M,M,KDCA 020652Z 35005KT 10SM FEW065 15/09 A2967 RMK AO2 SLP045 T01500094,
DCA,2013-11-02 07:52,57.92,48.02,69.52,340.00,4.00,0.00,29.67,1004.60,10.00,M,BKN,None,None,None,6500.00,M,M,M,M,KDCA 020752Z 34004KT 10SM BKN065 14/09 A2967 RMK AO2 SLP046 T01440089,
DCA,2013-11-02 08:52,60.08,46.94,61.79,340.00,4.00,0.00,29.68,1005.00,10.00,M,OVC,None,None,None,7000.00,M,M,M,M,KDCA 020852Z 34004KT 10SM OVC070 16/08 A2968 RMK AO2 SLP050 BINOVC T01560083 53004,
DCA,2013-11-02 09:52,57.02,51.08,80.49,10.00,3.00,0.00,29.69,1005.40,10.00,M,BKN,None,None,None,8000.00,M,M,M,M,KDCA 020952Z 01003KT 10SM BKN080 14/11 A2969 RMK AO2 SLP054 T01390106,
DCA,2013-11-02 10:52,57.02,48.92,74.27,0.00,0.00,0.00,29.70,1005.50,10.00,M,BKN,None,None,None,8000.00,M,M,M,M,KDCA 021052Z 00000KT 10SM BKN080 14/09 A2970 RMK AO2 SLP055 T01390094,
DCA,2013-11-02 11:52,55.94,50.00,80.40,0.00,0.00,0.00,29.70,1005.70,10.00,M,FEW,BKN,None,None,8000.00,10000.00,M,M,M,KDCA 021152Z 00000KT 10SM FEW080 BKN100 13/10 A2970 RMK AO2 SLP057 70014 T01330100 10167 20133 51007,
DCA,2013-11-02 12:52,57.92,51.98,80.55,0.00,0.00,0.00,29.72,1006.30,10.00,M,BKN,None,None,None,10000.00,M,M,M,M,KDCA 021252Z 00000KT 10SM BKN100 14/11 A2972 RMK AO2 SLP063 T01440111,
DCA,2013-11-02 13:52,60.08,53.06,77.59,150.00,3.00,0.00,29.72,1006.40,10.00,M,SCT,None,None,None,9500.00,M,M,M,M,KDCA 021352Z 15003KT 10SM SCT095 16/12 A2972 RMK AO2 SLP064 T01560117,
DCA,2013-11-02 14:52,64.04,48.02,55.95,170.00,3.00,0.00,29.71,1006.10,10.00,M,FEW,None,None,None,9500.00,M,M,M,M,KDCA 021452Z 17003KT 10SM FEW095 18/09 A2971 RMK AO2 SLP061 T01780089 50003,
DCA,2013-11-02 15:52,69.98,46.94,43.75,280.00,7.00,0.00,29.71,1005.90,10.00,M,BKN,BKN,None,None,6000.00,10000.00,M,M,M,KDCA 021552Z 28007KT 260V350 10SM BKN060 BKN100 21/08 A2971 RMK AO2 SLP059 T02110083,
DCA,2013-11-02 16:52,66.92,44.96,45.09,330.00,12.00,0.00,29.70,1005.80,10.00,M,BKN,BKN,None,None,6000.00,11000.00,M,M,M,KDCA 021652Z 33012KT 10SM BKN060 BKN110 19/07 A2970 RMK AO2 SLP058 T01940072,
DCA,2013-11-02 17:52,68.00,44.06,41.98,340.00,8.00,0.00,29.69,1005.40,10.00,M,SCT,BKN,None,None,6000.00,8500.00,M,M,M,KDCA 021752Z 34008KT 300V360 10SM SCT060 BKN085 20/07 A2969 RMK AO2 SLP054 T02000067 10222 20133 58007,
DCA,2013-11-02 18:52,66.02,42.98,43.13,350.00,8.00,0.00,29.69,1005.20,10.00,M,OVC,None,None,None,6000.00,M,M,M,M,KDCA 021852Z 35008KT 10SM OVC060 19/06 A2969 RMK AO2 SLP052 T01890061,
DCA,2013-11-02 19:52,66.02,42.08,41.67,330.00,12.00,0.00,29.69,1005.40,10.00,M,BKN,BKN,OVC,None,7000.00,9500.00,11000.00,M,M,KDCA 021952Z 33012KT 10SM BKN070 BKN095 OVC110 19/06 A2969 RMK AO2 SLP054 T01890056,
DCA,2013-11-02 20:52,62.96,41.00,44.47,330.00,13.00,0.00,29.73,1006.80,10.00,22.00,FEW,BKN,None,None,5500.00,7500.00,M,M,M,KDCA 022052Z 33013G22KT 10SM FEW055 BKN075 17/05 A2973 RMK AO2 RAB12E39 SLP068 P0000 60000 T01720050 53014,
DCA,2013-11-02 21:52,60.98,39.02,44.16,320.00,11.00,0.00,29.75,1007.60,10.00,M,BKN,None,None,None,7500.00,M,M,M,-RA,KDCA 022152Z 32011KT 10SM -RA BKN075 16/04 A2975 RMK AO2 PK WND 34026/2106 RAB31 SLP076 P0000 T01610039,
DCA,2013-11-02 22:52,60.98,35.96,39.15,290.00,9.00,0.00,29.80,1009.30,10.00,M,SCT,BKN,BKN,None,6500.00,8000.00,25000.00,M,M,KDCA 022252Z 29009KT 10SM SCT065 BKN080 BKN250 16/02 A2980 RMK AO2 RAE2156 SLP093 P0000 T01610022,
DCA,2013-11-02 23:52,59.00,35.96,42.02,330.00,7.00,0.00,29.83,1010.20,10.00,M,BKN,None,None,None,11000.00,M,M,M,M,KDCA 022352Z 33007KT 10SM BKN110 15/02 A2983 RMK AO2 RAB2258E16 SLP102 P0000 60000 T01500022 10211 20150 53033,
DCA,2013-11-03 05:52,51.98,37.04,56.58,300.00,7.00,0.00,29.92,1013.10,10.00,M,CLR,None,None,None,M,M,M,M,M,KDCA 030552Z 30007KT 10SM CLR 11/03 A2992 RMK AO2 SLP131 T01110028 10150 20106 51013,
DCA,2013-11-03 06:52,51.08,37.04,58.49,0.00,0.00,0.00,29.94,1013.80,10.00,M,CLR,None,None,None,M,M,M,M,M,KDCA 030652Z 00000KT 10SM CLR 11/03 A2994 RMK AO2 SLP138 T01060028,
DCA,2013-11-03 07:52,50.00,37.04,60.89,290.00,4.00,0.00,29.96,1014.40,10.00,M,FEW,None,None,None,6000.00,M,M,M,M,KDCA 030752Z 29004KT 10SM FEW060 10/03 A2996 RMK AO2 SLP144 T01000028,
DCA,2013-11-03 08:52,50.00,37.04,60.89,280.00,6.00,0.00,29.97,1014.90,10.00,M,FEW,None,None,None,5500.00,M,M,M,M,KDCA 030852Z 28006KT 10SM FEW055 10/03 A2997 RMK AO2 SLP149 T01000028 51017,
DCA,2013-11-03 09:52,50.00,37.04,60.89,0.00,0.00,0.00,30.00,1015.80,10.00,M,BKN,None,None,None,5000.00,M,M,M,M,KDCA 030952Z 00000KT 10SM BKN050 10/03 A3000 RMK AO2 SLP158 T01000028,
DCA,2013-11-03 10:52,50.00,37.94,63.08,330.00,8.00,0.00,30.03,1016.90,10.00,M,BKN,None,None,None,5500.00,M,M,M,M,KDCA 031052Z 33008KT 10SM BKN055 10/03 A3003 RMK AO2 SLP169 T01000033,
DCA,2013-11-03 11:52,50.00,39.92,68.15,360.00,12.00,0.00,30.07,1018.40,10.00,M,BKN,None,None,None,5000.00,M,M,M,M,KDCA 031152Z 36012KT 10SM BKN050 10/04 A3007 RMK AO2 PRESRR SLP184 T01000044 10111 20089 53035,
DCA,2013-11-03 12:52,51.08,39.92,65.48,10.00,13.00,0.00,30.12,1020.00,10.00,M,SCT,BKN,None,None,3000.00,4500.00,M,M,M,KDCA 031252Z 01013KT 10SM SCT030 BKN045 11/04 A3012 RMK AO2 SLP200 T01060044,
DCA,2013-11-03 13:52,51.98,39.02,61.15,340.00,14.00,0.00,30.16,1021.10,10.00,19.00,FEW,BKN,None,None,3000.00,4500.00,M,M,M,KDCA 031352Z 34014G19KT 10SM FEW030 BKN045 11/04 A3016 RMK AO2 SLP211 T01110039,
DCA,2013-11-03 14:52,51.98,35.06,52.32,340.00,16.00,0.00,30.18,1022.00,10.00,M,BKN,None,None,None,3500.00,M,M,M,M,KDCA 031452Z 34016KT 10SM BKN035 11/02 A3018 RMK AO2 SLP220 T01110017 51036,
DCA,2013-11-03 15:52,55.94,33.98,43.36,350.00,14.00,0.00,30.21,1023.00,10.00,24.00,SCT,None,None,None,3500.00,M,M,M,M,KDCA 031552Z 35014G24KT 10SM SCT035 13/01 A3021 RMK AO2 SLP230 T01330011,
DCA,2013-11-03 16:52,57.02,33.98,41.70,10.00,17.00,0.00,30.20,1022.80,10.00,22.00,SCT,None,None,None,3500.00,M,M,M,M,KDCA 031652Z 01017G22KT 10SM SCT035 14/01 A3020 RMK AO2 SLP228 T01390011,
DCA,2013-11-03 17:52,57.92,30.02,34.41,360.00,12.00,0.00,30.21,1022.90,10.00,M,FEW,None,None,None,3500.00,M,M,M,M,KDCA 031752Z 36012KT 10SM FEW035 14/M01 A3021 RMK AO2 SLP229 T01441011 10150 20100 51010,
DCA,2013-11-03 18:52,57.92,26.96,30.36,340.00,14.00,0.00,30.22,1023.30,10.00,19.00,FEW,None,None,None,3500.00,M,M,M,M,KDCA 031852Z 34014G19KT 10SM FEW035 14/M03 A3022 RMK AO2 SLP233 T01441028,
DCA,2013-11-03 19:52,57.92,28.04,31.74,20.00,12.00,0.00,30.23,1023.80,10.00,M,FEW,SCT,None,None,3500.00,7000.00,M,M,M,KDCA 031952Z 02012KT 10SM FEW035 SCT070 14/M02 A3023 RMK AO2 SLP238 T01441022,
DCA,2013-11-03 20:52,57.02,24.98,28.89,10.00,9.00,0.00,30.25,1024.40,10.00,M,FEW,None,None,None,7000.00,M,M,M,M,KDCA 032052Z 01009KT 10SM FEW070 14/M04 A3025 RMK AO2 SLP244 T01391039 53015,
DCA,2013-11-03 21:52,53.96,21.02,27.33,360.00,9.00,0.00,30.27,1025.20,10.00,M,FEW,None,None,None,8000.00,M,M,M,M,KDCA 032152Z 36009KT 10SM FEW080 12/M06 A3027 RMK AO2 SLP252 T01221061,
DCA,2013-11-03 22:52,51.98,21.92,30.53,360.00,9.00,0.00,30.30,1026.00,10.00,M,CLR,None,None,None,M,M,M,M,M,KDCA 032252Z 36009KT 10SM CLR 11/M06 A3030 RMK AO2 SLP260 T01111056,
DCA,2013-11-03 23:52,50.00,24.08,35.98,360.00,9.00,0.00,30.32,1026.60,10.00,M,CLR,None,None,None,M,M,M,M,M,KDCA 032352Z 36009KT 10SM CLR 10/M04 A3032 RMK AO2 SLP266 T01001044 10150 20100 51022,
DCA,2013-11-04 00:52,50.00,24.08,35.98,340.00,7.00,0.00,30.35,1027.60,10.00,M,CLR,None,None,None,M,M,M,M,M,KDCA 040052Z 34007KT 10SM CLR 10/M04 A3035 RMK AO2 SLP276 T01001044,
DCA,2013-11-04 01:52,48.92,24.98,38.89,30.00,8.00,0.00,30.39,1029.00,10.00,M,CLR,None,None,None,M,M,M,M,M,KDCA 040152Z 03008KT 10SM CLR 09/M04 A3039 RMK AO2 SLP290 T00941039,
DCA,2013-11-04 02:52,46.94,24.08,40.35,30.00,10.00,0.00,30.42,1030.20,10.00,M,CLR,None,None,None,M,M,M,M,M,KDCA 040252Z 03010KT 10SM CLR 08/M04 A3042 RMK AO2 SLP302 T00831044 53036,
DCA,2013-11-04 03:52,44.96,24.08,43.49,30.00,10.00,0.00,30.45,1031.00,10.00,M,CLR,None,None,None,M,M,M,M,M,KDCA 040352Z 03010KT 10SM CLR 07/M04 A3045 RMK AO2 SLP310 T00721044,
DCA,2013-11-04 04:52,44.06,24.08,45.01,20.00,10.00,0.00,30.47,1031.80,10.00,M,CLR,None,None,None,M,M,M,M,M,KDCA 040452Z 02010KT 10SM CLR 07/M04 A3047 RMK AO2 SLP318 T00671044 401500067,
DCA,2013-11-04 05:52,42.08,24.08,48.56,30.00,11.00,0.00,30.48,1032.20,10.00,M,CLR,None,None,None,M,M,M,M,M,KDCA 040552Z 03011KT 10SM CLR 06/M04 A3048 RMK AO2 SLP322 T00561044 10106 20056 51020,
DCA,2013-11-04 06:52,39.92,23.00,50.46,30.00,13.00,0.00,30.51,1033.10,10.00,M,CLR,None,None,None,M,M,M,M,M,KDCA 040652Z 03013KT 10SM CLR 04/M05 A3051 RMK AO2 SLP331 T00441050,
DCA,2013-11-04 07:52,39.02,23.00,52.26,30.00,11.00,0.00,30.54,1034.10,10.00,M,CLR,None,None,None,M,M,M,M,M,KDCA 040752Z 03011KT 10SM CLR 04/M05 A3054 RMK AO2 SLP341 T00391050,
DCA,2013-11-04 08:52,37.94,21.02,50.14,10.00,11.00,0.00,30.56,1034.80,10.00,M,CLR,None,None,None,M,M,M,M,M,KDCA 040852Z 01011KT 10SM CLR 03/M06 A3056 RMK AO2 SLP348 T00331061 51027,
DCA,2013-11-04 09:52,37.04,21.02,51.95,20.00,8.00,0.00,30.57,1035.20,10.00,M,CLR,None,None,None,M,M,M,M,M,KDCA 040952Z 02008KT 10SM CLR 03/M06 A3057 RMK AO2 SLP352 T00281061,
DCA,2013-11-04 10:52,35.96,21.02,54.21,20.00,10.00,0.00,30.58,1035.50,10.00,M,CLR,None,None,None,M,M,M,M,M,KDCA 041052Z 02010KT 10SM CLR 02/M06 A3058 RMK AO2 SLP355 T00221061,
DCA,2013-11-04 11:52,35.96,19.94,51.78,20.00,11.00,0.00,30.62,1036.60,10.00,M,FEW,None,None,None,20000.00,M,M,M,M,KDCA 041152Z 02011KT 10SM FEW200 02/M07 A3062 RMK AO2 SLP366 T00221067 10056 20022 53018,
DCA,2013-11-04 12:52,37.94,21.92,52.09,30.00,10.00,0.00,30.62,1036.70,10.00,M,BKN,None,None,None,25000.00,M,M,M,M,KDCA 041252Z 03010KT 10SM BKN250 03/M06 A3062 RMK AO2 SLP367 T00331056,
DCA,2013-11-04 13:52,39.92,21.02,46.41,30.00,11.00,0.00,30.63,1037.20,10.00,M,BKN,None,None,None,25000.00,M,M,M,M,KDCA 041352Z 03011KT 10SM BKN250 04/M06 A3063 RMK AO2 SLP372 T00441061,
DCA,2013-11-04 14:52,42.98,19.94,39.38,20.00,6.00,0.00,30.65,1038.00,10.00,M,BKN,None,None,None,25000.00,M,M,M,M,KDCA 041452Z 02006KT 10SM BKN250 06/M07 A3065 RMK AO2 SLP380 T00611067 53013,
DCA,2013-11-04 16:52,44.96,21.02,38.23,60.00,4.00,0.00,30.63,1037.20,10.00,M,FEW,OVC,None,None,16000.00,25000.00,M,M,M,KDCA 041652Z 06004KT 10SM FEW160 OVC250 07/M06 A3063 RMK AO2 SLP372 T00721061,
DCA,2013-11-04 17:52,46.04,21.02,36.70,80.00,3.00,0.00,30.62,1036.80,10.00,M,FEW,OVC,None,None,16000.00,23000.00,M,M,M,KDCA 041752Z 08003KT 10SM FEW160 OVC230 08/M06 A3062 RMK AO2 SLP368 T00781061 10083 20022 58012,
DCA,2013-11-04 18:52,46.94,19.94,33.88,0.00,0.00,0.00,30.60,1036.10,10.00,M,SCT,OVC,None,None,17000.00,24000.00,M,M,M,KDCA 041852Z 00000KT 10SM SCT170 OVC240 08/M07 A3060 RMK AO2 SLP361 T00831067,
DCA,2013-11-04 19:52,48.92,23.00,35.80,60.00,5.00,0.00,30.61,1036.40,10.00,M,FEW,OVC,None,None,17000.00,24000.00,M,M,M,KDCA 041952Z 06005KT 10SM FEW170 OVC240 09/M05 A3061 RMK AO2 SLP364 T00941050,
DCA,2013-11-04 20:52,46.94,23.00,38.56,70.00,8.00,0.00,30.59,1035.80,10.00,M,BKN,None,None,None,22000.00,M,M,M,M,KDCA 042052Z 07008KT 10SM BKN220 08/M05 A3059 RMK AO2 SLP358 T00831050 56010,
DCA,2013-11-04 21:52,44.96,19.04,35.14,70.00,5.00,0.00,30.60,1036.20,10.00,M,FEW,BKN,None,None,22000.00,24000.00,M,M,M,KDCA 042152Z 07005KT 10SM FEW220 BKN240 07/M07 A3060 RMK AO2 SLP362 T00721072,
DCA,2013-11-04 22:52,44.96,19.94,36.52,100.00,5.00,0.00,30.60,1036.30,10.00,M,BKN,None,None,None,22000.00,M,M,M,M,KDCA 042252Z 10005KT 10SM BKN220 07/M07 A3060 RMK AO2 SLP363 T00721067,
DCA,2013-11-04 23:52,44.06,21.02,39.57,90.00,4.00,0.00,30.61,1036.40,10.00,M,BKN,None,None,None,22000.00,M,M,M,M,KDCA 042352Z 09004KT 10SM BKN220 07/M06 A3061 RMK AO2 SLP364 T00671061 10094 20067 51006,
DCA,2013-11-05 00:52,44.06,21.02,39.57,0.00,0.00,0.00,30.63,1037.10,10.00,M,BKN,None,None,None,22000.00,M,M,M,M,KDCA 050052Z 00000KT 10SM BKN220 07/M06 A3063 RMK AO2 SLP371 T00671061,
DCA,2013-11-05 01:52,44.06,24.08,45.01,50.00,3.00,0.00,30.63,1037.00,10.00,M,BKN,None,None,None,22000.00,M,M,M,M,KDCA 050152Z 05003KT 10SM BKN220 07/M04 A3063 RMK AO2 SLP370 T00671044,
DCA,2013-11-05 02:52,44.06,24.08,45.01,50.00,4.00,0.00,30.64,1037.70,10.00,M,CLR,None,None,None,M,M,M,M,M,KDCA 050252Z 05004KT 10SM CLR 07/M04 A3064 RMK AO2 SLP377 T00671044 52013,
DCA,2013-11-05 03:52,42.98,26.96,52.87,50.00,5.00,0.00,30.64,1037.30,10.00,M,BKN,None,None,None,20000.00,M,M,M,M,KDCA 050352Z 05005KT 10SM BKN200 06/M03 A3064 RMK AO2 SLP373 T00611028,
DCA,2013-11-05 04:52,42.98,26.96,52.87,60.00,6.00,0.00,30.62,1036.70,10.00,M,BKN,None,None,None,20000.00,M,M,M,M,KDCA 050452Z 06006KT 10SM BKN200 06/M03 A3062 RMK AO2 SLP367 T00611028 400940022,
DCA,2013-11-05 05:52,42.98,28.04,55.27,50.00,3.00,0.00,30.61,1036.30,10.00,M,BKN,BKN,OVC,None,3200.00,14000.00,20000.00,M,M,KDCA 050552Z 05003KT 10SM BKN032 BKN140 OVC200 06/M02 A3061 RMK AO2 SLP363 T00611022 10067 20056 58013,
DCA,2013-11-05 06:52,42.08,30.02,62.04,0.00,0.00,0.00,30.61,1036.50,10.00,M,BKN,BKN,OVC,None,3000.00,14000.00,20000.00,M,M,KDCA 050652Z 00000KT 10SM BKN030 BKN140 OVC200 06/M01 A3061 RMK AO2 SLP365 T00561011,
DCA,2013-11-05 07:04,42.80,30.20,60.79,350.00,4.00,0.00,30.62,M,10.00,M,BKN,BKN,None,None,2800.00,20000.00,M,M,M,KDCA 050704Z 35004KT 10SM BKN028 BKN200 06/M01 A3062 RMK AO2,
DCA,2013-11-05 07:50,42.80,30.20,60.79,0.00,0.00,0.00,30.59,M,10.00,M,FEW,BKN,None,None,2700.00,20000.00,M,M,M,KDCA 050750Z 00000KT 10SM FEW027 BKN200 06/M01 A3059 RMK AO2,
DCA,2013-11-05 07:52,42.08,30.02,62.04,0.00,0.00,0.00,30.59,1035.80,10.00,M,FEW,BKN,None,None,2700.00,20000.00,M,M,M,KDCA 050752Z 00000KT 10SM FEW027 BKN200 06/M01 A3059 RMK AO2 SLP358 T00561011,
DCA,2013-11-05 08:52,39.92,30.02,67.45,340.00,3.00,0.00,30.60,1036.00,10.00,M,FEW,BKN,None,None,2700.00,20000.00,M,M,M,KDCA 050852Z 34003KT 10SM FEW027 BKN200 04/M01 A3060 RMK AO2 SLP360 T00441011 55004,
DCA,2013-11-05 09:52,41.00,30.02,64.68,350.00,4.00,0.00,30.60,1036.20,10.00,M,SCT,BKN,None,None,3800.00,20000.00,M,M,M,KDCA 050952Z 35004KT 10SM SCT038 BKN200 05/M01 A3060 RMK AO2 SLP362 T00501011,
DCA,2013-11-05 10:52,42.08,32.00,67.22,350.00,7.00,0.00,30.60,1036.20,10.00,M,SCT,BKN,BKN,None,2900.00,3800.00,20000.00,M,M,KDCA 051052Z 35007KT 10SM SCT029 BKN038 BKN200 06/00 A3060 RMK AO2 SLP362 T00560000,
DCA,2013-11-05 11:52,42.98,32.00,64.93,340.00,5.00,0.00,30.62,1036.70,10.00,M,BKN,BKN,BKN,None,3000.00,3800.00,20000.00,M,M,KDCA 051152Z 34005KT 10SM BKN030 BKN038 BKN200 06/00 A3062 RMK AO2 SLP367 T00610000 10067 20044 53007,
DCA,2013-11-05 12:52,44.06,32.00,62.30,340.00,7.00,0.00,30.63,1037.00,10.00,M,BKN,BKN,OVC,None,4000.00,17000.00,25000.00,M,M,KDCA 051252Z 34007KT 10SM BKN040 BKN170 OVC250 07/00 A3063 RMK AO2 SLP370 T00670000,
DCA,2013-11-05 13:52,48.02,33.98,58.07,40.00,4.00,0.00,30.62,1036.90,10.00,M,FEW,SCT,BKN,None,4000.00,17000.00,25000.00,M,M,KDCA 051352Z 04004KT 10SM FEW040 SCT170 BKN250 09/01 A3062 RMK AO2 SLP369 T00890011,
DCA,2013-11-05 14:52,48.92,35.96,60.74,0.00,0.00,0.00,30.62,1037.00,10.00,M,BKN,OVC,None,None,4000.00,25000.00,M,M,M,KDCA 051452Z 00000KT 10SM BKN040 OVC250 09/02 A3062 RMK AO2 SLP370 T00940022 51003,
DCA,2013-11-05 15:52,50.00,37.04,60.89,70.00,3.00,0.00,30.62,1036.80,10.00,M,BKN,BKN,OVC,None,3800.00,11000.00,24000.00,M,M,KDCA 051552Z 07003KT 10SM BKN038 BKN110 OVC240 10/03 A3062 RMK AO2 SLP368 T01000028,
DCA,2013-11-05 16:52,53.06,37.94,56.34,0.00,0.00,0.00,30.59,1035.70,10.00,M,BKN,BKN,OVC,None,3600.00,11000.00,24000.00,M,M,KDCA 051652Z 00000KT 10SM BKN036 BKN110 OVC240 12/03 A3059 RMK AO2 SLP357 T01170033,
DCA,2013-11-05 17:52,55.94,39.02,52.91,350.00,3.00,0.00,30.56,1034.90,10.00,M,SCT,SCT,OVC,None,4000.00,12000.00,22000.00,M,M,KDCA 051752Z 35003KT 10SM SCT040 SCT120 OVC220 13/04 A3056 RMK AO2 SLP349 SCT040 V BKN T01330039 10133 20061 58020,
DCA,2013-11-05 18:52,57.02,41.00,54.95,0.00,0.00,0.00,30.54,1034.20,10.00,M,BKN,BKN,OVC,None,4200.00,16000.00,23000.00,M,M,KDCA 051852Z 00000KT 10SM BKN042 BKN160 OVC230 14/05 A3054 RMK AO2 SLP342 T01390050,
DCA,2013-11-05 19:52,59.00,42.08,53.36,0.00,0.00,0.00,30.54,1034.20,10.00,M,BKN,OVC,None,None,4500.00,17000.00,M,M,M,KDCA 051952Z 00000KT 10SM BKN045 OVC170 15/06 A3054 RMK AO2 SLP342 T01500056,
DCA,2013-11-05 20:52,59.00,42.98,55.24,0.00,0.00,0.00,30.53,1033.80,10.00,M,OVC,None,None,None,4700.00,M,M,M,M,KDCA 052052Z 00000KT 10SM OVC047 15/06 A3053 RMK AO2 SLP338 BINOVC T01500061 56012,
DCA,2013-11-05 21:52,57.92,46.04,64.52,0.00,0.00,0.00,30.51,1033.30,10.00,M,OVC,None,None,None,4700.00,M,M,M,M,KDCA 052152Z 00000KT 10SM OVC047 14/08 A3051 RMK AO2 SLP333 BINOVC T01440078,
DCA,2013-11-05 22:52,57.02,44.96,63.97,0.00,0.00,0.00,30.52,1033.40,10.00,M,OVC,None,None,None,4500.00,M,M,M,M,KDCA 052252Z 00000KT 10SM OVC045 14/07 A3052 RMK AO2 SLP334 T01390072,
DCA,2013-11-05 23:52,57.02,46.04,66.65,0.00,0.00,0.00,30.51,1033.20,10.00,M,OVC,None,None,None,4000.00,M,M,M,M,KDCA 052352Z 00000KT 10SM OVC040 14/08 A3051 RMK AO2 SLP332 T01390078 10150 20128 56006,
DCA,2013-11-06 00:52,57.02,44.96,63.97,0.00,0.00,0.00,30.52,1033.40,10.00,M,BKN,OVC,None,None,4100.00,5000.00,M,M,M,KDCA 060052Z 00000KT 10SM BKN041 OVC050 14/07 A3052 RMK AO2 SLP334 T01390072,
DCA,2013-11-06 01:52,55.94,46.04,69.30,0.00,0.00,0.00,30.50,1032.90,10.00,M,SCT,OVC,None,None,4100.00,5000.00,M,M,M,KDCA 060152Z 00000KT 10SM SCT041 OVC050 13/08 A3050 RMK AO2 SLP329 T01330078,
DCA,2013-11-06 02:52,55.94,46.04,69.30,0.00,0.00,0.00,30.50,1032.80,10.00,M,BKN,OVC,None,None,3000.00,3500.00,M,M,M,KDCA 060252Z 00000KT 10SM BKN030 OVC035 13/08 A3050 RMK AO2 SLP328 T01330078 58004,
DCA,2013-11-06 03:52,55.94,46.94,71.70,0.00,0.00,0.00,30.50,1032.80,10.00,M,OVC,None,None,None,3000.00,M,M,M,M,KDCA 060352Z 00000KT 10SM OVC030 13/08 A3050 RMK AO2 SLP328 T01330083,
DCA,2013-11-06 04:28,55.40,46.40,71.64,150.00,3.00,0.00,30.48,M,10.00,M,BKN,OVC,None,None,2800.00,4700.00,M,M,M,KDCA 060428Z 15003KT 10SM BKN028 OVC047 13/08 A3048 RMK AO2,
DCA,2013-11-06 04:52,55.04,46.94,74.08,170.00,3.00,0.00,30.48,1032.20,10.00,M,BKN,OVC,None,None,2600.00,4700.00,M,M,M,KDCA 060452Z 17003KT 10SM BKN026 OVC047 13/08 A3048 RMK AO2 SLP322 T01280083 401500044,
DCA,2013-11-06 05:15,55.40,46.40,71.64,190.00,4.00,0.00,30.48,M,10.00,M,SCT,OVC,None,None,3200.00,4900.00,M,M,M,KDCA 060515Z 19004KT 10SM SCT032 OVC049 13/08 A3048 RMK AO2,
DCA,2013-11-06 05:52,55.04,46.94,74.08,220.00,4.00,0.00,30.48,1032.00,10.00,M,FEW,OVC,None,None,3200.00,4700.00,M,M,M,KDCA 060552Z 22004KT 10SM FEW032 OVC047 13/08 A3048 RMK AO2 SLP320 T01280083 10139 20128 58008,
DCA,2013-11-06 06:52,53.96,46.94,77.06,210.00,3.00,0.00,30.46,1031.50,10.00,M,OVC,None,None,None,4700.00,M,M,M,M,KDCA 060652Z 21003KT 10SM OVC047 12/08 A3046 RMK AO2 SLP315 T01220083,
DCA,2013-11-06 07:52,53.96,46.04,74.48,190.00,4.00,0.00,30.45,1031.10,10.00,M,OVC,None,None,None,4900.00,M,M,M,M,KDCA 060752Z 19004KT 10SM OVC049 12/08 A3045 RMK AO2 SLP311 T01220078,
DCA,2013-11-06 08:52,53.96,46.94,77.06,170.00,3.00,0.00,30.43,1030.40,10.00,M,OVC,None,None,None,4900.00,M,M,M,M,KDCA 060852Z 17003KT 10SM OVC049 12/08 A3043 RMK AO2 SLP304 T01220083 58016,
DCA,2013-11-06 09:52,53.06,46.94,79.64,0.00,0.00,0.00,30.42,1030.20,10.00,M,OVC,None,None,None,4900.00,M,M,M,M,KDCA 060952Z 00000KT 10SM OVC049 12/08 A3042 RMK AO2 SLP302 T01170083,
DCA,2013-11-06 10:52,53.06,46.94,79.64,220.00,3.00,0.00,30.41,1029.80,10.00,M,BKN,None,None,None,4900.00,M,M,M,M,KDCA 061052Z 22003KT 10SM BKN049 12/08 A3041 RMK AO2 SLP298 T01170083,
DCA,2013-11-06 11:52,53.96,46.94,77.06,240.00,4.00,0.00,30.41,1029.70,10.00,M,BKN,BKN,None,None,4900.00,7000.00,M,M,M,KDCA 061152Z 24004KT 10SM BKN049 BKN070 12/08 A3041 RMK AO2 SLP297 T01220083 10128 20117 56007,
DCA,2013-11-06 12:52,55.04,46.94,74.08,210.00,4.00,0.00,30.40,1029.50,10.00,M,BKN,None,None,None,4900.00,M,M,M,M,KDCA 061252Z 21004KT 10SM BKN049 13/08 A3040 RMK AO2 SLP295 T01280083,
DCA,2013-11-06 13:52,55.94,48.92,77.23,170.00,7.00,0.00,30.39,1029.10,10.00,M,BKN,None,None,None,5000.00,M,M,M,M,KDCA 061352Z 17007KT 10SM BKN050 13/09 A3039 RMK AO2 SLP291 T01330094,
DCA,2013-11-06 14:52,60.08,50.00,69.29,190.00,7.00,0.00,30.37,1028.50,10.00,M,BKN,None,None,None,5000.00,M,M,M,M,KDCA 061452Z 19007KT 10SM BKN050 16/10 A3037 RMK AO2 SLP285 T01560100 58012,
DCA,2013-11-06 15:52,64.04,50.00,60.25,190.00,8.00,0.00,30.35,1027.70,10.00,M,BKN,BKN,None,None,5000.00,9000.00,M,M,M,KDCA 061552Z 19008KT 10SM BKN050 BKN090 18/10 A3035 RMK AO2 SLP277 T01780100,
DCA,2013-11-06 16:32,64.40,50.00,59.50,190.00,8.00,0.00,30.33,M,10.00,M,FEW,SCT,SCT,None,5000.00,15000.00,25000.00,M,M,KDCA 061632Z 19008KT 10SM FEW050 SCT150 SCT250 18/10 A3033 RMK AO2,
DCA,2013-11-06 16:52,64.94,48.92,56.08,190.00,9.00,0.00,30.32,1026.60,10.00,M,FEW,SCT,SCT,None,5000.00,17000.00,25000.00,M,M,KDCA 061652Z 19009KT 10SM FEW050 SCT170 SCT250 18/09 A3032 RMK AO2 SLP266 T01830094,
DCA,2013-11-06 17:52,68.00,50.00,52.51,180.00,10.00,0.00,30.28,1025.30,10.00,M,FEW,SCT,BKN,None,5000.00,17000.00,25000.00,M,M,KDCA 061752Z 18010KT 10SM FEW050 SCT170 BKN250 20/10 A3028 RMK AO2 SLP253 T02000100 10200 20122 58031,
DCA,2013-11-06 18:52,68.00,51.08,54.66,180.00,12.00,0.00,30.25,1024.30,10.00,M,FEW,BKN,BKN,None,5500.00,20000.00,25000.00,M,M,KDCA 061852Z 18012KT 10SM FEW055 BKN200 BKN250 20/11 A3025 RMK AO2 SLP243 T02000106,
DCA,2013-11-06 19:52,66.92,51.98,58.65,170.00,9.00,0.00,30.23,1023.70,10.00,M,FEW,SCT,BKN,None,6000.00,20000.00,25000.00,M,M,KDCA 061952Z 17009KT 10SM FEW060 SCT200 BKN250 19/11 A3023 RMK AO2 SLP237 T01940111,
DCA,2013-11-06 20:52,64.04,51.98,64.84,190.00,9.00,0.00,30.22,1023.30,10.00,M,FEW,SCT,BKN,None,5000.00,19000.00,25000.00,M,M,KDCA 062052Z 19009KT 10SM FEW050 SCT190 BKN250 18/11 A3022 RMK AO2 SLP233 T01780111 56021,
DCA,2013-11-06 21:52,64.04,51.98,64.84,180.00,7.00,0.00,30.20,1022.60,10.00,M,CLR,None,None,None,M,M,M,M,M,KDCA 062152Z 18007KT 10SM CLR 18/11 A3020 RMK AO2 SLP226 T01780111,
DCA,2013-11-06 22:52,62.96,51.98,67.34,190.00,9.00,0.00,30.18,1022.10,10.00,M,BKN,None,None,None,23000.00,M,M,M,M,KDCA 062252Z 19009KT 10SM BKN230 17/11 A3018 RMK AO2 SLP221 T01720111,
DCA,2013-11-06 23:52,62.06,51.98,69.51,180.00,6.00,0.00,30.18,1022.10,10.00,M,FEW,BKN,None,None,24000.00,25000.00,M,M,M,KDCA 062352Z 18006KT 10SM FEW240 BKN250 17/11 A3018 RMK AO2 SLP221 T01670111 10200 20167 56013,
DCA,2013-11-07 00:52,59.00,51.98,77.49,190.00,8.00,0.00,30.17,1021.60,10.00,M,SCT,None,None,None,24000.00,M,M,M,M,KDCA 070052Z 19008KT 10SM SCT240 15/11 A3017 RMK AO2 SLP216 T01500111,
DCA,2013-11-07 01:52,57.92,51.08,77.92,200.00,6.00,0.00,30.15,1021.00,10.00,M,SCT,None,None,None,25000.00,M,M,M,M,KDCA 070152Z 20006KT 10SM SCT250 14/11 A3015 RMK AO2 SLP210 T01440106,
DCA,2013-11-07 02:52,57.92,51.08,77.92,190.00,7.00,0.00,30.14,1020.50,10.00,M,FEW,SCT,None,None,24000.00,25000.00,M,M,M,KDCA 070252Z 19007KT 10SM FEW240 SCT250 14/11 A3014 RMK AO2 SLP205 T01440106 56016,
DCA,2013-11-07 03:52,57.02,51.08,80.49,200.00,6.00,0.00,30.11,1019.50,10.00,M,FEW,None,None,None,25000.00,M,M,M,M,KDCA 070352Z 20006KT 10SM FEW250 14/11 A3011 RMK AO2 SLP195 T01390106,
DCA,2013-11-07 04:52,55.94,50.00,80.40,200.00,7.00,0.00,30.09,1018.70,10.00,M,FEW,None,None,None,25000.00,M,M,M,M,KDCA 070452Z 20007KT 10SM FEW250 13/10 A3009 RMK AO2 SLP187 T01330100 402000117,
DCA,2013-11-07 05:52,55.94,51.08,83.69,200.00,9.00,0.00,30.06,1017.70,10.00,M,CLR,None,None,None,M,M,M,M,M,KDCA 070552Z 20009KT 10SM CLR 13/11 A3006 RMK AO2 SLP177 T01330106 10161 20133 58026,
DCA,2013-11-07 06:52,55.94,51.08,83.69,190.00,9.00,0.00,30.04,1017.00,10.00,M,FEW,None,None,None,8000.00,M,M,M,M,KDCA 070652Z 19009KT 10SM FEW080 13/11 A3004 RMK AO2 SLP170 T01330106,
DCA,2013-11-07 07:52,55.94,51.98,86.52,200.00,9.00,0.00,30.01,1016.20,10.00,M,FEW,SCT,None,None,2000.00,8000.00,M,M,M,KDCA 070752Z 20009KT 10SM FEW020 SCT080 13/11 A3001 RMK AO2 SLP162 T01330111,
DCA,2013-11-07 08:52,55.94,51.98,86.52,190.00,11.00,0.00,29.98,1015.20,10.00,M,FEW,SCT,None,None,2000.00,8000.00,M,M,M,KDCA 070852Z 19011KT 10SM FEW020 SCT080 13/11 A2998 RMK AO2 SLP152 T01330111 58026,
DCA,2013-11-07 09:45,55.40,51.80,87.65,190.00,9.00,0.00,29.97,M,10.00,M,SCT,None,None,None,800.00,M,M,M,M,KDCA 070945Z 19009KT 10SM SCT008 13/11 A2997 RMK AO2,
DCA,2013-11-07 09:52,55.94,51.98,86.52,190.00,9.00,0.00,29.97,1014.70,10.00,M,SCT,None,None,None,800.00,M,M,M,M,KDCA 070952Z 19009KT 10SM SCT008 13/11 A2997 RMK AO2 SLP147 T01330111,
DCA,2013-11-07 10:40,55.40,53.60,93.65,180.00,10.00,0.00,29.94,M,10.00,M,BKN,None,None,None,800.00,M,M,M,M,KDCA 071040Z 18010KT 10SM BKN008 13/12 A2994 RMK AO2,
DCA,2013-11-07 10:46,55.40,53.60,93.65,190.00,9.00,0.00,29.94,M,10.00,M,OVC,None,None,None,600.00,M,M,M,M,KDCA 071046Z 19009KT 10SM OVC006 13/12 A2994 RMK AO2,
DCA,2013-11-07 10:52,55.94,53.06,90.03,190.00,10.00,0.00,29.94,1013.60,10.00,M,OVC,None,None,None,600.00,M,M,M,M,KDCA 071052Z 19010KT 10SM OVC006 13/12 A2994 RMK AO2 SLP136 BINOVC T01330117,
DCA,2013-11-07 11:24,55.40,53.60,93.65,200.00,7.00,0.00,29.93,M,10.00,M,BKN,BKN,None,None,600.00,8000.00,M,M,M,KDCA 071124Z 20007KT 10SM BKN006 BKN080 13/12 A2993 RMK AO2,
DCA,2013-11-07 11:28,55.40,53.60,93.65,200.00,7.00,0.00,29.92,M,10.00,M,SCT,SCT,None,None,600.00,8000.00,M,M,M,KDCA 071128Z 20007KT 10SM SCT006 SCT080 13/12 A2992 RMK AO2,
DCA,2013-11-07 11:52,57.02,53.96,89.48,180.00,11.00,0.00,29.91,1012.70,9.00,M,FEW,SCT,SCT,BKN,500.00,4000.00,8000.00,18000.00,M,KDCA 071152Z 18011KT 9SM FEW005 SCT040 SCT080 BKN180 14/12 A2991 RMK AO2 SLP127 T01390122 10139 20128 56020,
DCA,2013-11-07 12:11,57.20,53.60,87.74,200.00,10.00,0.00,29.92,M,8.00,M,BKN,BKN,OVC,None,500.00,8000.00,20000.00,M,M,KDCA 071211Z 20010KT 8SM BKN005 BKN080 OVC200 14/12 A2992 RMK AO2,
DCA,2013-11-07 12:29,57.20,55.40,93.69,210.00,10.00,0.00,29.92,M,9.00,M,BKN,BKN,OVC,None,700.00,7500.00,16000.00,M,M,KDCA 071229Z 21010KT 9SM BKN007 BKN075 OVC160 14/13 A2992 RMK AO2 BINOVC,
DCA,2013-11-07 12:52,59.00,55.94,89.57,200.00,9.00,0.00,29.92,1013.10,9.00,M,BKN,BKN,OVC,None,800.00,7000.00,16000.00,M,M,KDCA 071252Z 20009KT 9SM BKN008 BKN070 OVC160 15/13 A2992 RMK AO2 SLP131 CIG 006V009 BINOVC T01500133,
DCA,2013-11-07 13:21,60.80,55.40,82.37,210.00,9.00,0.00,29.92,M,10.00,M,SCT,OVC,None,None,900.00,7500.00,M,M,M,KDCA 071321Z 21009KT 10SM SCT009 OVC075 16/13 A2992 RMK AO2,
DCA,2013-11-07 13:52,60.98,55.94,83.47,200.00,9.00,0.00,29.91,1012.80,10.00,M,BKN,OVC,None,None,1100.00,7000.00,M,M,M,KDCA 071352Z 20009KT 10SM BKN011 OVC070 16/13 A2991 RMK AO2 SLP128 CIG LWR NE-SE T01610133,
DCA,2013-11-07 13:57,60.80,55.40,82.37,210.00,10.00,0.00,29.91,M,10.00,M,SCT,OVC,None,None,1100.00,7500.00,M,M,M,KDCA 071357Z 21010KT 10SM SCT011 OVC075 16/13 A2991 RMK AO2,
DCA,2013-11-07 14:52,62.06,55.04,77.75,220.00,8.00,0.00,29.90,1012.50,10.00,M,SCT,OVC,None,None,5000.00,8000.00,M,M,M,KDCA 071452Z 22008KT 10SM SCT050 OVC080 17/13 A2990 RMK AO2 SLP125 T01670128 58002,
DCA,2013-11-07 15:52,62.96,55.04,75.33,220.00,5.00,0.00,29.90,1012.50,10.00,M,SCT,OVC,None,None,5000.00,9000.00,M,M,M,KDCA 071552Z 22005KT 10SM SCT050 OVC090 17/13 A2990 RMK AO2 SLP125 T01720128,
DCA,2013-11-07 16:33,64.40,53.60,67.95,300.00,10.00,0.00,29.91,M,10.00,14.00,FEW,BKN,OVC,None,3500.00,5000.00,8000.00,M,-RA,KDCA 071633Z 30010G14KT 10SM -RA FEW035 BKN050 OVC080 18/12 A2991 RMK AO2 RAB33 P0000,
DCA,2013-11-07 16:52,62.06,53.96,74.75,310.00,16.00,0.00,29.91,1012.70,7.00,22.00,FEW,BKN,OVC,None,2000.00,3500.00,6500.00,M,-RA,KDCA 071652Z 31016G22KT 7SM -RA FEW020 BKN035 OVC065 17/12 A2991 RMK AO2 RAB33 SLP127 P0000 T01670122,
DCA,2013-11-07 16:59,60.80,53.60,77.14,310.00,15.00,0.01,29.91,M,7.00,22.00,FEW,BKN,OVC,None,1500.00,2300.00,4500.00,M,-RA,KDCA 071659Z 31015G22KT 7SM -RA FEW015 BKN023 OVC045 16/12 A2991 RMK AO2 P0001,
DCA,2013-11-07 17:22,59.00,51.80,76.98,320.00,11.00,0.01,29.91,M,7.00,20.00,SCT,BKN,OVC,None,1700.00,2800.00,4500.00,M,-RA,KDCA 071722Z 32011G20KT 7SM -RA SCT017 BKN028 OVC045 15/11 A2991 RMK AO2 P0001,
DCA,2013-11-07 17:44,57.20,51.80,82.12,350.00,9.00,0.01,29.91,M,10.00,M,FEW,SCT,OVC,None,1500.00,3000.00,5000.00,M,-RA,KDCA 071744Z 35009KT 10SM -RA FEW015 SCT030 OVC050 14/11 A2991 RMK AO2 P0001,
DCA,2013-11-07 17:52,57.02,51.08,80.49,340.00,13.00,0.01,29.92,1013.10,10.00,17.00,FEW,SCT,OVC,None,1500.00,3000.00,5000.00,M,M,KDCA 071752Z 34013G17KT 10SM FEW015 SCT030 OVC050 14/11 A2992 RMK AO2 RAE49 SLP131 P0001 60001 T01390106 10183 20139 53005,
DCA,2013-11-07 18:52,57.92,48.92,71.90,330.00,16.00,0.00,29.92,1013.30,10.00,23.00,SCT,BKN,OVC,None,2700.00,7500.00,10000.00,M,M,KDCA 071852Z 33016G23KT 10SM SCT027 BKN075 OVC100 14/09 A2992 RMK AO2 SLP133 BINOVC NW-N T01440094,
DCA,2013-11-07 19:52,57.92,44.06,59.84,330.00,18.00,0.00,29.93,1013.50,10.00,28.00,BKN,BKN,OVC,None,3200.00,6000.00,11000.00,M,M,KDCA 071952Z 33018G28KT 10SM BKN032 BKN060 OVC110 14/07 A2993 RMK AO2 PK WND 34028/1948 SLP135 BINOVC W-NE T01440067,
DCA,2013-11-07 20:14,57.20,42.80,58.52,330.00,20.00,0.00,29.94,M,10.00,26.00,SCT,SCT,SCT,SCT,3500.00,6500.00,12000.00,23000.00,M,KDCA 072014Z 33020G26KT 10SM SCT035 SCT065 SCT120 SCT230 14/06 A2994 RMK AO2 PK WND 33027/1959,
DCA,2013-11-07 20:52,57.02,37.04,47.08,330.00,20.00,0.00,29.95,1014.30,10.00,27.00,FEW,SCT,SCT,SCT,3500.00,9000.00,13000.00,23000.00,M,KDCA 072052Z 33020G27KT 10SM FEW035 SCT090 SCT130 SCT230 14/03 A2995 RMK AO2 PK WND 32031/2036 SLP143 T01390028 53012,
DCA,2013-11-07 21:52,53.96,35.96,50.42,340.00,13.00,0.00,29.97,1015.00,10.00,M,FEW,SCT,None,None,4000.00,23000.00,M,M,M,KDCA 072152Z 34013KT 10SM FEW040 SCT230 12/02 A2997 RMK AO2 PK WND 34026/2053 SLP150 T01220022,
DCA,2013-11-07 22:52,53.96,33.98,46.60,330.00,8.00,0.00,30.00,1015.90,10.00,M,FEW,SCT,None,None,4000.00,23000.00,M,M,M,KDCA 072252Z 33008KT 10SM FEW040 SCT230 12/01 A3000 RMK AO2 SLP159 T01220011,
DCA,2013-11-07 23:52,51.98,35.06,52.32,260.00,6.00,0.00,30.03,1016.70,10.00,M,FEW,None,None,None,5000.00,M,M,M,M,KDCA 072352Z 26006KT 10SM FEW050 11/02 A3003 RMK AO2 SLP167 T01110017 10150 20111 53024,
DCA,2013-11-08 00:52,51.98,30.02,42.72,310.00,7.00,0.00,30.05,1017.40,10.00,15.00,SCT,None,None,None,5000.00,M,M,M,M,KDCA 080052Z 31007G15KT 10SM SCT050 11/M01 A3005 RMK AO2 SLP174 T01111011,
DCA,2013-11-08 01:52,51.98,30.02,42.72,300.00,14.00,0.00,30.06,1017.70,10.00,20.00,BKN,None,None,None,5500.00,M,M,M,M,KDCA 080152Z 30014G20KT 10SM BKN055 11/M01 A3006 RMK AO2 PK WND 32026/0059 SLP177 T01111011,
DCA,2013-11-08 02:52,51.08,28.94,42.26,300.00,7.00,0.00,30.06,1017.90,10.00,17.00,BKN,None,None,None,5500.00,M,M,M,M,KDCA 080252Z 30007G17KT 10SM BKN055 11/M02 A3006 RMK AO2 SLP179 T01061017 51012,
DCA,2013-11-08 03:52,48.02,21.92,35.38,320.00,24.00,0.00,30.08,1018.60,10.00,33.00,SCT,None,None,None,5500.00,M,M,M,M,KDCA 080352Z 32024G33KT 10SM SCT055 09/M06 A3008 RMK AO2 PK WND 34033/0350 SLP186 T00891056,
DCA,2013-11-08 04:52,46.04,21.02,36.70,340.00,10.00,0.00,30.11,1019.40,10.00,M,FEW,None,None,None,5500.00,M,M,M,M,KDCA 080452Z 34010KT 10SM FEW055 08/M06 A3011 RMK AO2 PK WND 33028/0404 SLP194 T00781061 401830078,
DCA,2013-11-08 05:52,44.96,21.02,38.23,320.00,4.00,0.00,30.12,1019.70,10.00,M,FEW,None,None,None,5000.00,M,M,M,M,KDCA 080552Z 32004KT 10SM FEW050 07/M06 A3012 RMK AO2 SLP197 T00721061 10117 20067 51018,
DCA,2013-11-08 06:52,42.08,21.92,44.34,260.00,4.00,0.00,30.11,1019.70,10.00,M,FEW,None,None,None,5000.00,M,M,M,M,KDCA 080652Z 26004KT 10SM FEW050 06/M06 A3011 RMK AO2 SLP197 T00561056,
DCA,2013-11-08 07:52,42.98,21.92,42.84,260.00,3.00,0.00,30.12,1019.80,10.00,M,FEW,None,None,None,5000.00,M,M,M,M,KDCA 080752Z 26003KT 10SM FEW050 06/M06 A3012 RMK AO2 SLP198 T00611056,
DCA,2013-11-08 08:52,41.00,24.98,52.56,230.00,3.00,0.00,30.12,1019.80,10.00,M,CLR,None,None,None,M,M,M,M,M,KDCA 080852Z 23003KT 10SM CLR 05/M04 A3012 RMK AO2 SLP198 T00501039 53001,
DCA,2013-11-08 09:52,41.00,26.06,54.97,240.00,3.00,0.00,30.13,1020.40,10.00,M,CLR,None,None,None,M,M,M,M,M,KDCA 080952Z 24003KT 10SM CLR 05/M03 A3013 RMK AO2 SLP204 T00501033,
DCA,2013-11-08 10:52,37.04,26.96,66.60,200.00,5.00,0.00,30.14,1020.50,10.00,M,CLR,None,None,None,M,M,M,M,M,KDCA 081052Z 20005KT 10SM CLR 03/M03 A3014 RMK AO2 SLP205 T00281028,
DCA,2013-11-08 11:52,39.92,24.98,54.81,260.00,4.00,0.00,30.16,1021.30,10.00,M,FEW,None,None,None,4000.00,M,M,M,M,KDCA 081152Z 26004KT 10SM FEW040 04/M04 A3016 RMK AO2 SLP213 70001 T00441039 10072 20022 53015,
DCA,2013-11-08 12:37,44.60,26.60,48.96,250.00,5.00,0.00,30.18,M,9.00,M,CLR,None,None,None,M,M,M,M,M,KDCA 081237Z 25005KT 9SM CLR 07/M03 A3018 RMK AO2,
DCA,2013-11-08 12:52,44.96,26.06,47.23,280.00,5.00,0.00,30.19,1022.20,10.00,M,FEW,None,None,None,4500.00,M,M,M,M,KDCA 081252Z 28005KT 10SM FEW045 07/M03 A3019 RMK AO2 SLP222 T00721033,
DCA,2013-11-08 13:52,48.02,26.96,43.67,290.00,8.00,0.00,30.20,1022.50,10.00,14.00,FEW,None,None,None,4500.00,M,M,M,M,KDCA 081352Z 29008G14KT 10SM FEW045 09/M03 A3020 RMK AO2 SLP225 T00891028,
DCA,2013-11-08 14:52,51.08,26.96,38.96,310.00,15.00,0.00,30.20,1022.80,10.00,24.00,SCT,None,None,None,4500.00,M,M,M,M,KDCA 081452Z 31015G24KT 10SM SCT045 11/M03 A3020 RMK AO2 SLP228 T01061028 51015,
DCA,2013-11-08 15:52,51.98,24.08,33.44,320.00,18.00,0.00,30.21,1022.80,10.00,29.00,BKN,None,None,None,5500.00,M,M,M,M,KDCA 081552Z 32018G29KT 10SM BKN055 11/M04 A3021 RMK AO2 PK WND 33029/1545 SLP228 T01111044,
DCA,2013-11-08 16:52,51.08,24.08,34.57,320.00,16.00,0.00,30.21,1022.90,10.00,26.00,BKN,None,None,None,5500.00,M,M,M,M,KDCA 081652Z 32016G26KT 10SM BKN055 11/M04 A3021 RMK AO2 PK WND 34028/1605 SLP229 T01061044,
DCA,2013-11-08 17:52,53.06,23.00,30.71,320.00,19.00,0.00,30.21,1022.80,10.00,23.00,BKN,BKN,None,None,5500.00,7000.00,M,M,M,KDCA 081752Z 32019G23KT 10SM BKN055 BKN070 12/M05 A3021 RMK AO2 SLP228 T01171050 10122 20044 50000,
DCA,2013-11-08 18:24,50.00,24.80,37.08,340.00,17.00,0.00,30.21,M,10.00,23.00,BKN,BKN,None,None,5500.00,7000.00,M,M,M,KDCA 081824Z 34017G23KT 10SM BKN055 BKN070 10/M04 A3021 RMK AO2 PK WND 29027/1806 WSHFT 1804,
DCA,2013-11-08 18:52,51.98,24.08,33.44,320.00,13.00,0.00,30.21,1023.10,10.00,18.00,BKN,BKN,None,None,5500.00,7000.00,M,M,M,KDCA 081852Z 32013G18KT 10SM BKN055 BKN070 11/M04 A3021 RMK AO2 PK WND 29027/1806 WSHFT 1804 SLP231 T01111044,
DCA,2013-11-08 19:52,51.98,21.02,29.39,340.00,18.00,0.00,30.22,1023.20,10.00,25.00,BKN,BKN,None,None,5500.00,7000.00,M,M,M,KDCA 081952Z 34018G25KT 10SM BKN055 BKN070 11/M06 A3022 RMK AO2 SLP232 T01111061,
DCA,2013-11-08 20:52,51.08,19.94,29.02,320.00,9.00,0.00,30.23,1023.70,10.00,17.00,SCT,None,None,None,6000.00,M,M,M,M,KDCA 082052Z 32009G17KT 10SM SCT060 11/M07 A3023 RMK AO2 SLP237 T01061067 53008,
DCA,2013-11-08 21:52,50.00,19.94,30.21,320.00,12.00,0.00,30.25,1024.30,10.00,20.00,FEW,None,None,None,6000.00,M,M,M,M,KDCA 082152Z 32012G20KT 10SM FEW060 10/M07 A3025 RMK AO2 SLP243 T01001067,
DCA,2013-11-08 22:52,48.02,21.02,34.06,330.00,7.00,0.00,30.27,1024.90,10.00,M,FEW,None,None,None,6000.00,M,M,M,M,KDCA 082252Z 33007KT 10SM FEW060 09/M06 A3027 RMK AO2 SLP249 T00891061,
DCA,2013-11-08 23:52,46.94,21.02,35.47,340.00,8.00,0.00,30.29,1025.70,10.00,M,CLR,None,None,None,M,M,M,M,M,KDCA 082352Z 34008KT 10SM CLR 08/M06 A3029 RMK AO2 SLP257 T00831061 10117 20078 53020,
DCA,2013-11-09 00:52,46.04,21.92,38.12,330.00,10.00,0.00,30.30,1026.00,10.00,M,CLR,None,None,None,M,M,M,M,M,KDCA 090052Z 33010KT 10SM CLR 08/M06 A3030 RMK AO2 SLP260 T00781056,
DCA,2013-11-09 01:52,44.96,21.92,39.72,320.00,8.00,0.00,30.32,1026.50,10.00,M,CLR,None,None,None,M,M,M,M,M,KDCA 090152Z 32008KT 10SM CLR 07/M06 A3032 RMK AO2 SLP265 T00721056,
DCA,2013-11-09 02:52,44.96,21.92,39.72,330.00,5.00,0.00,30.33,1027.00,10.00,M,CLR,None,None,None,M,M,M,M,M,KDCA 090252Z 33005KT 10SM CLR 07/M06 A3033 RMK AO2 SLP270 T00721056 53013,
DCA,2013-11-09 03:52,41.00,23.00,48.39,0.00,0.00,0.00,30.33,1027.00,10.00,M,CLR,None,None,None,M,M,M,M,M,KDCA 090352Z 00000KT 10SM CLR 05/M05 A3033 RMK AO2 SLP270 T00501050,
DCA,2013-11-09 04:52,39.92,26.96,59.50,240.00,3.00,0.00,30.34,1027.30,10.00,M,CLR,None,None,None,M,M,M,M,M,KDCA 090452Z 24003KT 10SM CLR 04/M03 A3034 RMK AO2 SLP273 T00441028 401220022,
DCA,2013-11-09 05:52,37.94,26.96,64.29,240.00,4.00,0.00,30.34,1027.40,10.00,M,CLR,None,None,None,M,M,M,M,M,KDCA 090552Z 24004KT 10SM CLR 03/M03 A3034 RMK AO2 SLP274 T00331028 10083 20033 53004,
DCA,2013-11-09 06:52,37.94,28.94,69.73,280.00,3.00,0.00,30.34,1027.50,10.00,M,CLR,None,None,None,M,M,M,M,M,KDCA 090652Z 28003KT 10SM CLR 03/M02 A3034 RMK AO2 SLP275 T00331017,
DCA,2013-11-09 07:52,37.04,26.96,66.60,0.00,0.00,0.00,30.35,1027.50,10.00,M,CLR,None,None,None,M,M,M,M,M,KDCA 090752Z 00000KT 10SM CLR 03/M03 A3035 RMK AO2 SLP275 T00281028,
DCA,2013-11-09 08:52,35.96,28.04,72.66,240.00,3.00,0.00,30.34,1027.40,10.00,M,CLR,None,None,None,M,M,M,M,M,KDCA 090852Z 24003KT 10SM CLR 02/M02 A3034 RMK AO2 SLP274 T00221022 50000,
DCA,2013-11-09 09:52,35.96,28.94,75.39,0.00,0.00,0.00,30.35,1027.80,10.00,M,SCT,None,None,None,25000.00,M,M,M,M,KDCA 090952Z 00000KT 10SM SCT250 02/M02 A3035 RMK AO2 SLP278 T00221017,
DCA,2013-11-09 10:52,35.96,26.06,66.97,180.00,3.00,0.00,30.34,1027.40,10.00,M,FEW,None,None,None,25000.00,M,M,M,M,KDCA 091052Z 18003KT 10SM FEW250 02/M03 A3034 RMK AO2 SLP274 T00221033,
DCA,2013-11-09 11:52,33.98,26.96,75.20,250.00,4.00,0.00,30.36,1028.10,10.00,M,FEW,SCT,None,None,15000.00,20000.00,M,M,M,KDCA 091152Z 25004KT 10SM FEW150 SCT200 01/M03 A3036 RMK AO2 SLP281 T00111028 10039 20011 53006,
DCA,2013-11-09 12:52,37.94,28.94,69.73,180.00,3.00,0.00,30.37,1028.50,10.00,M,FEW,SCT,None,None,15000.00,25000.00,M,M,M,KDCA 091252Z 18003KT 10SM FEW150 SCT250 03/M02 A3037 RMK AO2 SLP285 T00331017,
DCA,2013-11-09 13:52,42.08,26.96,54.73,200.00,5.00,0.00,30.37,1028.50,10.00,M,FEW,BKN,None,None,15000.00,25000.00,M,M,M,KDCA 091352Z 20005KT 10SM FEW150 BKN250 06/M03 A3037 RMK AO2 SLP285 T00561028,
DCA,2013-11-09 14:52,46.04,30.02,53.33,170.00,5.00,0.00,30.36,1027.90,10.00,M,FEW,BKN,None,None,15000.00,25000.00,M,M,M,KDCA 091452Z 17005KT 10SM FEW150 BKN250 08/M01 A3036 RMK AO2 SLP279 T00781011 58002,
DCA,2013-11-09 15:52,50.00,30.92,47.68,180.00,11.00,0.00,30.33,1027.00,10.00,M,BKN,None,None,None,25000.00,M,M,M,M,KDCA 091552Z 18011KT 10SM BKN250 10/M01 A3033 RMK AO2 SLP270 T01001006,
DCA,2013-11-09 16:52,51.98,28.04,39.40,190.00,10.00,0.00,30.28,1025.50,10.00,17.00,FEW,BKN,None,None,20000.00,25000.00,M,M,M,KDCA 091652Z 19010G17KT 10SM FEW200 BKN250 11/M02 A3028 RMK AO2 SLP255 T01111022,
DCA,2013-11-09 17:52,53.06,26.06,34.89,220.00,14.00,0.00,30.24,1024.20,10.00,19.00,FEW,SCT,None,None,20000.00,25000.00,M,M,M,KDCA 091752Z 22014G19KT 10SM FEW200 SCT250 12/M03 A3024 RMK AO2 SLP242 T01171033 10122 20011 58037,
DCA,2013-11-09 18:52,55.04,26.06,32.46,200.00,13.00,0.00,30.20,1022.60,10.00,M,FEW,SCT,None,None,20000.00,25000.00,M,M,M,KDCA 091852Z 20013KT 10SM FEW200 SCT250 13/M03 A3020 RMK AO2 SLP226 T01281033,
DCA,2013-11-09 19:52,55.94,26.96,32.61,200.00,13.00,0.00,30.17,1021.70,10.00,M,FEW,SCT,None,None,20000.00,25000.00,M,M,M,KDCA 091952Z 20013KT 10SM FEW200 SCT250 13/M03 A3017 RMK AO2 SLP217 T01331028,
DCA,2013-11-09 20:52,55.04,26.06,32.46,190.00,14.00,0.00,30.16,1021.30,10.00,M,FEW,SCT,None,None,19000.00,25000.00,M,M,M,KDCA 092052Z 19014KT 10SM FEW190 SCT250 13/M03 A3016 RMK AO2 SLP213 T01281033 56028,
DCA,2013-11-09 21:52,53.96,26.96,35.04,200.00,11.00,0.00,30.15,1020.80,10.00,M,BKN,BKN,BKN,None,13000.00,16000.00,25000.00,M,M,KDCA 092152Z 20011KT 10SM BKN130 BKN160 BKN250 12/M03 A3015 RMK AO2 SLP208 T01221028,
DCA,2013-11-09 22:52,51.98,28.04,39.40,200.00,9.00,0.00,30.15,1020.80,10.00,M,BKN,None,None,None,12000.00,M,M,M,M,KDCA 092252Z 20009KT 10SM BKN120 11/M02 A3015 RMK AO2 SLP208 T01111022,
DCA,2013-11-09 23:52,51.08,28.94,42.26,190.00,10.00,0.00,30.12,1020.00,10.00,M,FEW,None,None,None,11000.00,M,M,M,M,KDCA 092352Z 19010KT 10SM FEW110 11/M02 A3012 RMK AO2 SLP200 T01061017 10133 20106 58013,
DCA,2013-11-10 00:52,51.98,28.94,40.88,200.00,16.00,0.00,30.10,1019.20,10.00,20.00,SCT,None,None,None,20000.00,M,M,M,M,KDCA 100052Z 20016G20KT 10SM SCT200 11/M02 A3010 RMK AO2 SLP192 T01111017,
DCA,2013-11-10 01:52,51.08,28.94,42.26,210.00,10.00,0.00,30.09,1018.90,10.00,18.00,FEW,SCT,None,None,20000.00,25000.00,M,M,M,KDCA 100152Z 21010G18KT 10SM FEW200 SCT250 11/M02 A3009 RMK AO2 SLP189 T01061017,
DCA,2013-11-10 02:52,50.00,30.02,45.97,200.00,8.00,0.00,30.08,1018.50,10.00,M,CLR,None,None,None,M,M,M,M,M,KDCA 100252Z 20008KT 10SM CLR 10/M01 A3008 RMK AO2 SLP185 T01001011 56015,
DCA,2013-11-10 03:52,48.02,30.92,51.34,200.00,7.00,0.00,30.07,1018.10,10.00,M,CLR,None,None,None,M,M,M,M,M,KDCA 100352Z 20007KT 10SM CLR 09/M01 A3007 RMK AO2 SLP181 T00891006,
DCA,2013-11-10 04:52,46.94,33.08,58.33,200.00,7.00,0.00,30.06,1017.80,10.00,M,CLR,None,None,None,M,M,M,M,M,KDCA 100452Z 20007KT 10SM CLR 08/01 A3006 RMK AO2 SLP178 T00830006 401330011,
DCA,2013-11-10 05:52,44.96,32.00,60.20,210.00,5.00,0.00,30.05,1017.40,10.00,M,FEW,None,None,None,25000.00,M,M,M,M,KDCA 100552Z 21005KT 10SM FEW250 07/00 A3005 RMK AO2 SLP174 T00720000 10111 20072 56011,
DCA,2013-11-10 06:52,42.98,32.00,64.93,210.00,6.00,0.00,30.04,1017.30,10.00,M,CLR,None,None,None,M,M,M,M,M,KDCA 100652Z 21006KT 10SM CLR 06/00 A3004 RMK AO2 SLP173 T00610000,
DCA,2013-11-10 07:52,42.98,30.92,62.16,200.00,6.00,0.00,30.04,1017.10,10.00,M,CLR,None,None,None,M,M,M,M,M,KDCA 100752Z 20006KT 10SM CLR 06/M01 A3004 RMK AO2 SLP171 T00611006,
DCA,2013-11-10 08:52,42.98,30.02,59.93,210.00,6.00,0.00,30.03,1016.80,10.00,M,CLR,None,None,None,M,M,M,M,M,KDCA 100852Z 21006KT 10SM CLR 06/M01 A3003 RMK AO2 SLP168 T00611011 58006,
DCA,2013-11-10 09:52,42.08,30.02,62.04,220.00,5.00,0.00,30.03,1016.80,10.00,M,CLR,None,None,None,M,M,M,M,M,KDCA 100952Z 22005KT 10SM CLR 06/M01 A3003 RMK AO2 SLP168 T00561011,
DCA,2013-11-10 10:52,42.98,28.94,57.35,200.00,6.00,0.00,30.03,1016.90,10.00,M,CLR,None,None,None,M,M,M,M,M,KDCA 101052Z 20006KT 10SM CLR 06/M02 A3003 RMK AO2 SLP169 T00611017,
DCA,2013-11-10 11:52,42.98,30.92,62.16,230.00,5.00,0.00,30.04,1017.20,10.00,M,FEW,None,None,None,25000.00,M,M,M,M,KDCA 101152Z 23005KT 10SM FEW250 06/M01 A3004 RMK AO2 SLP172 T00611006 10072 20050 53003,
DCA,2013-11-10 12:52,46.04,32.00,57.78,200.00,5.00,0.00,30.05,1017.40,10.00,M,FEW,None,None,None,25000.00,M,M,M,M,KDCA 101252Z 20005KT 10SM FEW250 08/00 A3005 RMK AO2 SLP174 T00780000,
DCA,2013-11-10 13:52,51.98,33.08,48.34,200.00,6.00,0.00,30.04,1017.10,10.00,M,CLR,None,None,None,M,M,M,M,M,KDCA 101352Z 20006KT 10SM CLR 11/01 A3004 RMK AO2 SLP171 T01110006,
DCA,2013-11-10 14:52,59.00,33.98,38.83,210.00,9.00,0.00,30.01,1016.10,10.00,M,CLR,None,None,None,M,M,M,M,M,KDCA 101452Z 21009KT 10SM CLR 15/01 A3001 RMK AO2 SLP161 T01500011 58011,
DCA,2013-11-10 15:52,64.04,33.98,32.49,240.00,10.00,0.00,29.99,1015.60,10.00,M,FEW,SCT,None,None,4500.00,25000.00,M,M,M,KDCA 101552Z 24010KT 10SM FEW045 SCT250 18/01 A2999 RMK AO2 SLP156 T01780011,
DCA,2013-11-10 16:52,64.94,30.02,26.84,290.00,13.00,0.00,29.98,1015.20,10.00,27.00,SCT,SCT,None,None,4500.00,25000.00,M,M,M,KDCA 101652Z 29013G27KT 10SM SCT045 SCT250 18/M01 A2998 RMK AO2 PK WND 27027/1649 SLP152 T01831011,
DCA,2013-11-10 17:52,66.02,28.04,23.84,320.00,10.00,0.00,29.97,1014.80,10.00,21.00,SCT,SCT,None,None,4500.00,25000.00,M,M,M,KDCA 101752Z 32010G21KT 10SM SCT045 SCT250 19/M02 A2997 RMK AO2 SLP148 T01891022 10189 20061 56013,
DCA,2013-11-10 18:52,64.04,30.02,27.70,290.00,14.00,0.00,29.99,1015.40,10.00,25.00,FEW,None,None,None,4500.00,M,M,M,M,KDCA 101852Z 29014G25KT 10SM FEW045 18/M01 A2999 RMK AO2 PK WND 33027/1832 SLP154 T01781011,
DCA,2013-11-10 19:52,62.06,28.94,28.41,320.00,21.00,0.00,30.01,1016.30,10.00,27.00,FEW,None,None,None,4500.00,M,M,M,M,KDCA 101952Z 32021G27KT 10SM FEW045 17/M02 A3001 RMK AO2 PK WND 34030/1913 SLP163 T01671017,
DCA,2013-11-10 20:52,60.08,26.96,28.10,320.00,17.00,0.00,30.06,1017.80,10.00,25.00,FEW,None,None,None,5500.00,M,M,M,M,KDCA 102052Z 32017G25KT 10SM FEW055 16/M03 A3006 RMK AO2 PK WND 32034/2025 SLP178 T01561028 53029,
DCA,2013-11-10 21:52,55.94,24.98,30.04,320.00,16.00,0.00,30.11,1019.50,10.00,25.00,FEW,None,None,None,6500.00,M,M,M,M,KDCA 102152Z 32016G25KT 10SM FEW065 13/M04 A3011 RMK AO2 PK WND 32027/2057 SLP195 T01331039,
DCA,2013-11-10 22:52,53.06,24.98,33.36,310.00,11.00,0.00,30.15,1021.10,10.00,23.00,FEW,None,None,None,7500.00,M,M,M,M,KDCA 102252Z 31011G23KT 10SM FEW075 12/M04 A3015 RMK AO2 PK WND 33029/2201 SLP211 T01171039,
DCA,2013-11-10 23:52,51.08,24.98,35.89,310.00,15.00,0.00,30.20,1022.50,10.00,20.00,FEW,None,None,None,8000.00,M,M,M,M,KDCA 102352Z 31015G20KT 10SM FEW080 11/M04 A3020 RMK AO2 SLP225 T01061039 10189 20106 51047,
DCA,2013-11-11 00:52,50.00,24.98,37.36,300.00,6.00,0.00,30.22,1023.40,10.00,M,BKN,None,None,None,6500.00,M,M,M,M,KDCA 110052Z 30006KT 10SM BKN065 10/M04 A3022 RMK AO2 SLP234 T01001039,
DCA,2013-11-11 01:52,50.00,24.98,37.36,300.00,7.00,0.00,30.24,1023.90,10.00,M,BKN,None,None,None,6500.00,M,M,M,M,KDCA 110152Z 30007KT 10SM BKN065 10/M04 A3024 RMK AO2 SLP239 T01001039,
DCA,2013-11-11 02:52,46.94,24.98,41.89,200.00,4.00,0.00,30.25,1024.20,10.00,M,SCT,None,None,None,6000.00,M,M,M,M,KDCA 110252Z 20004KT 10SM SCT060 08/M04 A3025 RMK AO2 SLP242 T00831039 51017,
DCA,2013-11-11 03:52,46.94,24.98,41.89,280.00,8.00,0.00,30.24,1024.10,10.00,M,FEW,None,None,None,6000.00,M,M,M,M,KDCA 110352Z 28008KT 10SM FEW060 08/M04 A3024 RMK AO2 SLP241 T00831039,
DCA,2013-11-11 04:52,46.94,24.98,41.89,290.00,8.00,0.00,30.25,1024.30,10.00,M,FEW,None,None,None,6000.00,M,M,M,M,KDCA 110452Z 29008KT 10SM FEW060 08/M04 A3025 RMK AO2 SLP243 T00831039 401890050,
DCA,2013-11-11 05:52,46.04,24.98,43.34,300.00,7.00,0.00,30.26,1024.60,10.00,M,CLR,None,None,None,M,M,M,M,M,KDCA 110552Z 30007KT 10SM CLR 08/M04 A3026 RMK AO2 SLP246 T00781039 10106 20078 53004,
DCA,2013-11-11 06:52,46.04,24.98,43.34,270.00,6.00,0.00,30.27,1024.80,10.00,M,CLR,None,None,None,M,M,M,M,M,KDCA 110652Z 27006KT 10SM CLR 08/M04 A3027 RMK AO2 SLP248 T00781039,
DCA,2013-11-11 07:52,44.96,26.06,47.23,300.00,6.00,0.00,30.26,1024.80,10.00,M,CLR,None,None,None,M,M,M,M,M,KDCA 110752Z 30006KT 10SM CLR 07/M03 A3026 RMK AO2 SLP248 T00721033,
DCA,2013-11-11 08:52,44.06,26.06,48.87,300.00,3.00,0.00,30.27,1025.00,10.00,M,CLR,None,None,None,M,M,M,M,M,KDCA 110852Z 30003KT 10SM CLR 07/M03 A3027 RMK AO2 SLP250 T00671033 52004,
DCA,2013-11-11 09:52,42.98,26.06,50.94,0.00,0.00,0.00,30.27,1024.90,10.00,M,CLR,None,None,None,M,M,M,M,M,KDCA 110952Z 00000KT 10SM CLR 06/M03 A3027 RMK AO2 SLP249 T00611033,
DCA,2013-11-11 10:52,42.98,26.96,52.87,260.00,3.00,0.00,30.29,1025.60,10.00,M,CLR,None,None,None,M,M,M,M,M,KDCA 111052Z 26003KT 10SM CLR 06/M03 A3029 RMK AO2 SLP256 T00611028,
DCA,2013-11-11 11:52,41.00,30.02,64.68,230.00,5.00,0.00,30.31,1026.30,10.00,M,BKN,None,None,None,20000.00,M,M,M,M,KDCA 111152Z 23005KT 10SM BKN200 05/M01 A3031 RMK AO2 SLP263 T00501011 10078 20039 53013,
DCA,2013-11-11 12:52,44.96,28.94,53.17,240.00,4.00,0.00,30.33,1027.10,10.00,M,SCT,BKN,None,None,20000.00,25000.00,M,M,M,KDCA 111252Z 24004KT 10SM SCT200 BKN250 07/M02 A3033 RMK AO2 SLP271 T00721017,
DCA,2013-11-11 13:52,46.94,28.94,49.33,170.00,3.00,0.00,30.33,1026.90,10.00,M,FEW,OVC,None,None,14000.00,25000.00,M,M,M,KDCA 111352Z 17003KT 10SM FEW140 OVC250 08/M02 A3033 RMK AO2 SLP269 T00831017,
DCA,2013-11-11 14:52,48.92,30.92,49.64,170.00,6.00,0.00,30.32,1026.50,10.00,M,FEW,OVC,None,None,13000.00,25000.00,M,M,M,KDCA 111452Z 17006KT 10SM FEW130 OVC250 09/M01 A3032 RMK AO2 SLP265 T00941006 50003,
DCA,2013-11-11 15:52,51.08,30.92,45.81,160.00,5.00,0.00,30.30,1026.10,10.00,M,FEW,SCT,None,None,14000.00,25000.00,M,M,M,KDCA 111552Z 16005KT 10SM FEW140 SCT250 11/M01 A3030 RMK AO2 SLP261 T01061006,
DCA,2013-11-11 16:52,53.96,32.00,43.04,190.00,9.00,0.00,30.26,1024.80,10.00,M,FEW,SCT,BKN,None,7000.00,13000.00,25000.00,M,M,KDCA 111652Z 19009KT 10SM FEW070 SCT130 BKN250 12/00 A3026 RMK AO2 SLP248 T01220000,
DCA,2013-11-11 17:52,55.94,32.00,40.05,190.00,14.00,0.00,30.21,1023.00,10.00,M,SCT,BKN,None,None,13000.00,25000.00,M,M,M,KDCA 111752Z 19014KT 10SM SCT130 BKN250 13/00 A3021 RMK AO2 SLP230 T01330000 10133 20039 58035,
DCA,2013-11-11 18:52,55.94,28.04,34.09,210.00,10.00,0.00,30.19,1022.40,10.00,M,BKN,BKN,None,None,13000.00,25000.00,M,M,M,KDCA 111852Z 21010KT 10SM BKN130 BKN250 13/M02 A3019 RMK AO2 SLP224 T01331022,
DCA,2013-11-11 19:36,57.20,30.20,35.57,180.00,9.00,0.00,30.16,M,10.00,M,FEW,SCT,BKN,None,11000.00,13000.00,25000.00,M,M,KDCA 111936Z 18009KT 10SM FEW110 SCT130 BKN250 14/M01 A3016 RMK AO2,
DCA,2013-11-11 19:52,57.02,28.94,34.01,190.00,10.00,0.00,30.16,1021.20,10.00,17.00,FEW,SCT,BKN,None,11000.00,13000.00,25000.00,M,M,KDCA 111952Z 19010G17KT 10SM FEW110 SCT130 BKN250 14/M02 A3016 RMK AO2 SLP212 T01391017,
DCA,2013-11-11 20:52,57.02,26.96,31.36,200.00,13.00,0.00,30.14,1020.60,10.00,M,BKN,BKN,None,None,10000.00,25000.00,M,M,M,KDCA 112052Z 20013KT 10SM BKN100 BKN250 14/M03 A3014 RMK AO2 SLP206 T01391028 56025,
DCA,2013-11-11 21:52,55.94,26.06,31.41,200.00,10.00,0.00,30.13,1020.30,10.00,M,FEW,BKN,BKN,None,10000.00,11000.00,25000.00,M,M,KDCA 112152Z 20010KT 10SM FEW100 BKN110 BKN250 13/M03 A3013 RMK AO2 SLP203 T01331033,
DCA,2013-11-11 22:52,53.96,33.08,44.95,180.00,6.00,0.00,30.13,1020.20,10.00,M,BKN,None,None,None,11000.00,M,M,M,M,KDCA 112252Z 18006KT 10SM BKN110 12/01 A3013 RMK AO2 SLP202 T01220006,
DCA,2013-11-11 23:52,53.96,37.04,52.61,180.00,8.00,0.00,30.12,1019.80,10.00,M,SCT,OVC,None,None,10000.00,12000.00,M,M,M,KDCA 112352Z 18008KT 10SM SCT100 OVC120 12/03 A3012 RMK AO2 SLP198 T01220028 10144 20122 58007,
DCA,2013-11-12 00:52,53.96,30.02,39.72,200.00,10.00,0.00,30.09,1018.90,10.00,M,FEW,SCT,None,None,10000.00,12000.00,M,M,M,KDCA 120052Z 20010KT 10SM FEW100 SCT120 12/M01 A3009 RMK AO2 SLP189 T01221011,
DCA,2013-11-12 01:52,53.06,30.02,41.05,200.00,11.00,0.00,30.08,1018.70,10.00,18.00,FEW,None,None,None,12000.00,M,M,M,M,KDCA 120152Z 20011G18KT 10SM FEW120 12/M01 A3008 RMK AO2 SLP187 T01171011,
DCA,2013-11-12 02:52,53.06,30.92,42.58,200.00,9.00,0.00,30.07,1018.10,10.00,M,BKN,None,None,None,15000.00,M,M,M,M,KDCA 120252Z 20009KT 10SM BKN150 12/M01 A3007 RMK AO2 SLP181 T01171006 56017,
DCA,2013-11-12 03:52,53.06,30.92,42.58,190.00,12.00,0.00,30.04,1017.30,10.00,M,BKN,OVC,None,None,14000.00,20000.00,M,M,M,KDCA 120352Z 19012KT 10SM BKN140 OVC200 12/M01 A3004 RMK AO2 SLP173 T01171006,
DCA,2013-11-12 04:52,51.98,30.02,42.72,200.00,9.00,0.00,30.03,1016.80,10.00,M,BKN,OVC,None,None,14000.00,20000.00,M,M,M,KDCA 120452Z 20009KT 10SM BKN140 OVC200 11/M01 A3003 RMK AO2 SLP168 T01111011 401440039,
DCA,2013-11-12 05:52,51.98,30.02,42.72,200.00,9.00,0.00,30.01,1016.10,10.00,M,BKN,OVC,None,None,13000.00,20000.00,M,M,M,KDCA 120552Z 20009KT 10SM BKN130 OVC200 11/M01 A3001 RMK AO2 SLP161 T01111011 10122 20111 56020,
DCA,2013-11-12 06:52,51.98,30.92,44.31,0.00,0.00,0.00,30.00,1016.00,10.00,M,SCT,OVC,None,None,7500.00,12000.00,M,M,M,KDCA 120652Z 00000KT 10SM SCT075 OVC120 11/M01 A3000 RMK AO2 SLP160 T01111006,
DCA,2013-11-12 07:52,51.08,35.96,56.05,180.00,3.00,0.00,30.00,1015.90,10.00,M,FEW,OVC,None,None,9000.00,10000.00,M,M,M,KDCA 120752Z 18003KT 10SM FEW090 OVC100 11/02 A3000 RMK AO2 RAB11E17 SLP159 P0000 T01060022,
DCA,2013-11-12 08:52,51.08,33.98,51.81,0.00,0.00,0.00,30.00,1015.80,10.00,M,FEW,BKN,OVC,None,9000.00,11000.00,20000.00,M,M,KDCA 120852Z 00000KT 10SM FEW090 BKN110 OVC200 11/01 A3000 RMK AO2 SLP158 60000 T01060011 56003,
DCA,2013-11-12 09:52,51.98,37.04,56.58,0.00,0.00,0.00,30.01,1016.20,10.00,M,FEW,BKN,BKN,OVC,8000.00,10000.00,13000.00,20000.00,M,KDCA 120952Z 00000KT 10SM FEW080 BKN100 BKN130 OVC200 11/03 A3001 RMK AO2 SLP162 T01110028,
DCA,2013-11-12 10:52,53.06,32.00,44.48,340.00,8.00,0.00,30.03,1016.80,10.00,M,BKN,OVC,None,None,8000.00,13000.00,M,M,M,KDCA 121052Z 34008KT 10SM BKN080 OVC130 12/00 A3003 RMK AO2 SLP168 T01170000,
DCA,2013-11-12 11:52,50.00,35.06,56.30,340.00,22.00,0.00,30.09,1018.80,10.00,29.00,FEW,BKN,OVC,None,6000.00,8000.00,13000.00,M,M,KDCA 121152Z 34022G29KT 10SM FEW060 BKN080 OVC130 10/02 A3009 RMK AO2 PK WND 34031/1131 PRESRR SLP188 60000 T01000017 10117 20100 53030,
DCA,2013-11-12 12:52,46.94,33.08,58.33,350.00,19.00,0.00,30.15,1020.90,10.00,28.00,SCT,SCT,OVC,None,2900.00,6500.00,9500.00,M,M,KDCA 121252Z 35019G28KT 10SM SCT029 SCT065 OVC095 08/01 A3015 RMK AO2 PK WND 33029/1237 SLP209 T00830006,
DCA,2013-11-12 13:52,44.06,26.06,48.87,340.00,17.00,0.00,30.20,1022.70,10.00,M,SCT,SCT,OVC,None,3400.00,6000.00,7500.00,M,M,KDCA 121352Z 34017KT 10SM SCT034 SCT060 OVC075 07/M03 A3020 RMK AO2 PK WND 36030/1304 SLP227 T00671033,
DCA,2013-11-12 14:52,42.98,26.96,52.87,340.00,20.00,0.00,30.24,1024.00,10.00,29.00,BKN,OVC,None,None,3600.00,11000.00,M,M,M,KDCA 121452Z 34020G29KT 10SM BKN036 OVC110 06/M03 A3024 RMK AO2 PK WND 36030/1408 SLP240 BINOVC W-N T00611028 51051,
DCA,2013-11-12 15:52,41.00,24.08,50.63,350.00,15.00,0.00,30.26,1024.70,10.00,M,FEW,SCT,OVC,None,3500.00,4500.00,11000.00,M,M,KDCA 121552Z 35015KT 10SM FEW035 SCT045 OVC110 05/M04 A3026 RMK AO2 SLP247 BINOVC VIRGA SE T00501044,
DCA,2013-11-12 16:52,41.00,17.96,39.05,330.00,14.00,0.00,30.27,1024.80,10.00,M,FEW,OVC,None,None,4000.00,9500.00,M,M,M,KDCA 121652Z 33014KT 10SM FEW040 OVC095 05/M08 A3027 RMK AO2 SLP248 VIRGA SE BINOVC W-N T00501078,
DCA,2013-11-12 17:52,41.00,17.06,37.57,350.00,16.00,0.00,30.26,1024.70,10.00,M,FEW,OVC,None,None,4000.00,11000.00,M,M,M,KDCA 121752Z 35016KT 10SM FEW040 OVC110 05/M08 A3026 RMK AO2 SLP247 VIRGA OHD BINOVC W-N T00501083 10100 20044 50007,
DCA,2013-11-12 18:52,39.92,15.98,37.38,340.00,16.00,0.00,30.28,1025.30,10.00,23.00,FEW,OVC,None,None,4000.00,13000.00,M,M,M,KDCA 121852Z 34016G23KT 10SM FEW040 OVC130 04/M09 A3028 RMK AO2 PK WND 35028/1837 SLP253 T00441089,
DCA,2013-11-12 19:52,39.92,14.00,34.29,340.00,14.00,0.00,30.29,1025.50,10.00,M,FEW,OVC,None,None,5500.00,14000.00,M,M,M,KDCA 121952Z 34014KT 10SM FEW055 OVC140 04/M10 A3029 RMK AO2 SLP255 BINOVC NW-N T00441100,
DCA,2013-11-12 20:52,39.92,15.08,35.95,350.00,13.00,0.00,30.30,1026.00,10.00,M,FEW,OVC,None,None,5000.00,17000.00,M,M,M,KDCA 122052Z 35013KT 10SM FEW050 OVC170 04/M09 A3030 RMK AO2 SLP260 BINOVC W-NE T00441094 51013,
DCA,2013-11-12 21:52,39.92,14.00,34.29,340.00,14.00,0.00,30.32,1026.50,10.00,M,FEW,BKN,None,None,5000.00,19000.00,M,M,M,KDCA 122152Z 34014KT 10SM FEW050 BKN190 04/M10 A3032 RMK AO2 SLP265 T00441100,
DCA,2013-11-12 22:52,41.00,12.92,31.36,330.00,17.00,0.00,30.34,1027.20,10.00,21.00,BKN,None,None,None,21000.00,M,M,M,M,KDCA 122252Z 33017G21KT 10SM BKN210 05/M11 A3034 RMK AO2 SLP272 T00501106,
DCA,2013-11-12 23:52,39.92,12.92,32.70,330.00,14.00,0.00,30.36,1028.00,10.00,M,BKN,None,None,None,22000.00,M,M,M,M,KDCA 122352Z 33014KT 10SM BKN220 04/M11 A3036 RMK AO2 SLP280 T00441106 10050 20044 53020,
DCA,2013-11-13 00:52,39.02,12.92,33.87,330.00,12.00,0.00,30.38,1028.70,10.00,19.00,BKN,None,None,None,22000.00,M,M,M,M,KDCA 130052Z 33012G19KT 10SM BKN220 04/M11 A3038 RMK AO2 SLP287 T00391106,
DCA,2013-11-13 01:52,37.04,12.02,35.17,330.00,9.00,0.00,30.40,1029.30,10.00,M,SCT,None,None,None,24000.00,M,M,M,M,KDCA 130152Z 33009KT 10SM SCT240 03/M11 A3040 RMK AO2 SLP293 T00281111,
DCA,2013-11-13 02:52,35.06,14.00,41.51,340.00,4.00,0.00,30.41,1029.80,10.00,M,FEW,None,None,None,25000.00,M,M,M,M,KDCA 130252Z 34004KT 10SM FEW250 02/M10 A3041 RMK AO2 SLP298 T00171100 51018,
DCA,2013-11-13 03:52,35.96,14.00,40.05,320.00,11.00,0.00,30.42,1030.00,10.00,M,CLR,None,None,None,M,M,M,M,M,KDCA 130352Z 32011KT 10SM CLR 02/M10 A3042 RMK AO2 SLP300 T00221100,
DCA,2013-11-13 04:52,33.98,15.08,45.43,330.00,4.00,0.00,30.43,1030.30,10.00,M,CLR,None,None,None,M,M,M,M,M,KDCA 130452Z 33004KT 10SM CLR 01/M09 A3043 RMK AO2 SLP303 T00111094 401170011,
DCA,2013-11-13 05:52,32.00,15.98,51.15,330.00,5.00,0.00,30.42,1030.10,10.00,M,CLR,None,None,None,M,M,M,M,M,KDCA 130552Z 33005KT 10SM CLR 00/M09 A3042 RMK AO2 SLP301 T00001089 10044 20000 50004,
DCA,2013-11-13 06:52,33.98,17.06,49.51,320.00,8.00,0.00,30.42,1030.10,10.00,M,CLR,None,None,None,M,M,M,M,M,KDCA 130652Z 32008KT 10SM CLR 01/M08 A3042 RMK AO2 SLP301 T00111083,
DCA,2013-11-13 07:52,33.08,17.06,51.33,320.00,8.00,0.00,30.42,1029.90,10.00,M,CLR,None,None,None,M,M,M,M,M,KDCA 130752Z 32008KT 10SM CLR 01/M08 A3042 RMK AO2 SLP299 T00061083,
DCA,2013-11-13 08:52,33.08,15.98,48.98,320.00,9.00,0.00,30.42,1030.10,10.00,M,FEW,None,None,None,5000.00,M,M,M,M,KDCA 130852Z 32009KT 10SM FEW050 01/M09 A3042 RMK AO2 SLP301 T00061089 55000,
DCA,2013-11-13 09:52,33.08,17.06,51.33,320.00,9.00,0.00,30.43,1030.40,10.00,M,FEW,None,None,None,5000.00,M,M,M,M,KDCA 130952Z 32009KT 10SM FEW050 01/M08 A3043 RMK AO2 SLP304 T00061083,
DCA,2013-11-13 10:52,33.08,17.06,51.33,310.00,9.00,0.00,30.45,1031.00,10.00,M,FEW,None,None,None,5000.00,M,M,M,M,KDCA 131052Z 31009KT 10SM FEW050 01/M08 A3045 RMK AO2 SLP310 T00061083,
DCA,2013-11-13 11:52,33.08,17.96,53.36,300.00,10.00,0.00,30.47,1031.60,10.00,M,FEW,None,None,None,4000.00,M,M,M,M,KDCA 131152Z 30010KT 10SM FEW040 01/M08 A3047 RMK AO2 SLP316 T00061078 10011 20000 53015,
DCA,2013-11-13 12:52,35.06,19.04,51.64,330.00,11.00,0.00,30.48,1032.20,10.00,M,SCT,None,None,None,5000.00,M,M,M,M,KDCA 131252Z 33011KT 10SM SCT050 02/M07 A3048 RMK AO2 SLP322 T00171072,
DCA,2013-11-13 13:52,37.94,19.04,46.09,340.00,11.00,0.00,30.49,1032.50,10.00,18.00,FEW,SCT,None,None,3000.00,5500.00,M,M,M,KDCA 131352Z 34011G18KT 10SM FEW030 SCT055 03/M07 A3049 RMK AO2 SLP325 T00331072,
DCA,2013-11-13 14:52,37.94,17.06,42.32,330.00,16.00,0.00,30.50,1032.70,10.00,21.00,SCT,None,None,None,4500.00,M,M,M,M,KDCA 131452Z 33016G21KT 10SM SCT045 03/M08 A3050 RMK AO2 SLP327 T00331083 51011,
DCA,2013-11-13 15:52,41.00,17.06,37.57,330.00,16.00,0.00,30.49,1032.50,10.00,21.00,BKN,None,None,None,5500.00,M,M,M,M,KDCA 131552Z 33016G21KT 10SM BKN055 05/M08 A3049 RMK AO2 PK WND 34026/1453 SLP325 SCT V BKN T00501083,
DCA,2013-11-13 16:52,42.08,17.96,37.46,330.00,12.00,0.00,30.47,1031.60,10.00,M,BKN,None,None,None,5500.00,M,M,M,M,KDCA 131652Z 33012KT 10SM BKN055 06/M08 A3047 RMK AO2 SLP316 BKN V SCT T00561078,
DCA,2013-11-13 17:52,44.06,19.04,36.36,330.00,11.00,0.00,30.45,1031.10,10.00,19.00,BKN,None,None,None,5500.00,M,M,M,M,KDCA 131752Z 33011G19KT 10SM BKN055 07/M07 A3045 RMK AO2 SLP311 BKN V SCT T00671072 10067 20006 58016,
DCA,2013-11-13 18:52,42.98,19.04,37.90,340.00,12.00,0.00,30.45,1031.00,10.00,M,SCT,None,None,None,5000.00,M,M,M,M,KDCA 131852Z 34012KT 10SM SCT050 06/M07 A3045 RMK AO2 SLP310 T00611072,
DCA,2013-11-13 19:52,44.06,19.04,36.36,340.00,13.00,0.00,30.44,1030.90,10.00,M,FEW,None,None,None,5500.00,M,M,M,M,KDCA 131952Z 34013KT 10SM FEW055 07/M07 A3044 RMK AO2 SLP309 T00671072,
DCA,2013-11-13 20:52,44.06,17.96,34.72,290.00,7.00,0.00,30.44,1030.70,10.00,M,FEW,None,None,None,5000.00,M,M,M,M,KDCA 132052Z 29007KT 10SM FEW050 07/M08 A3044 RMK AO2 SLP307 T00671078 58004,
DCA,2013-11-13 21:52,42.08,17.06,36.03,290.00,4.00,0.00,30.44,1030.70,10.00,M,FEW,SCT,None,None,5000.00,25000.00,M,M,M,KDCA 132152Z 29004KT 10SM FEW050 SCT250 06/M08 A3044 RMK AO2 SLP307 T00561083,
DCA,2013-11-13 22:52,42.08,17.06,36.03,260.00,4.00,0.00,30.45,1030.90,10.00,M,CLR,None,None,None,M,M,M,M,M,KDCA 132252Z 26004KT 10SM CLR 06/M08 A3045 RMK AO2 SLP309 T00561083,
DCA,2013-11-13 23:52,39.92,17.06,39.17,270.00,6.00,0.00,30.44,1030.80,10.00,M,CLR,None,None,None,M,M,M,M,M,KDCA 132352Z 27006KT 10SM CLR 04/M08 A3044 RMK AO2 SLP308 T00441083 10072 20044 50001,
DCA,2013-11-14 00:52,39.92,15.98,37.38,280.00,6.00,0.00,30.45,1031.00,10.00,M,CLR,None,None,None,M,M,M,M,M,KDCA 140052Z 28006KT 10SM CLR 04/M09 A3045 RMK AO2 SLP310 T00441089,
DCA,2013-11-14 01:52,39.02,15.98,38.72,270.00,6.00,0.00,30.45,1030.90,10.00,M,CLR,None,None,None,M,M,M,M,M,KDCA 140152Z 27006KT 10SM CLR 04/M09 A3045 RMK AO2 SLP309 T00391089,
DCA,2013-11-14 02:52,37.94,15.08,38.84,300.00,6.00,0.00,30.44,1030.90,10.00,M,CLR,None,None,None,M,M,M,M,M,KDCA 140252Z 30006KT 10SM CLR 03/M09 A3044 RMK AO2 SLP309 T00331094 50000,
DCA,2013-11-14 03:52,37.04,14.00,38.38,0.00,0.00,0.00,30.43,1030.30,10.00,M,CLR,None,None,None,M,M,M,M,M,KDCA 140352Z 00000KT 10SM CLR 03/M10 A3043 RMK AO2 SLP303 T00281100,
DCA,2013-11-14 04:52,35.96,19.94,51.78,0.00,0.00,0.00,30.41,1029.80,10.00,M,CLR,None,None,None,M,M,M,M,M,KDCA 140452Z 00000KT 10SM CLR 02/M07 A3041 RMK AO2 SLP298 T00221067 400720000,
DCA,2013-11-14 05:52,32.00,19.04,58.37,220.00,8.00,0.00,30.40,1029.20,10.00,M,CLR,None,None,None,M,M,M,M,M,KDCA 140552Z 22008KT 10SM CLR 00/M07 A3040 RMK AO2 SLP292 T00001072 10050 20000 58017,
DCA,2013-11-14 06:52,33.08,19.04,55.89,220.00,3.00,0.00,30.39,1028.90,10.00,M,CLR,None,None,None,M,M,M,M,M,KDCA 140652Z 22003KT 10SM CLR 01/M07 A3039 RMK AO2 SLP289 T00061072,
DCA,2013-11-14 07:52,33.08,17.96,53.36,200.00,4.00,0.00,30.38,1028.60,10.00,M,CLR,None,None,None,M,M,M,M,M,KDCA 140752Z 20004KT 10SM CLR 01/M08 A3038 RMK AO2 SLP286 T00061078,
DCA,2013-11-14 08:52,33.08,17.96,53.36,220.00,3.00,0.00,30.37,1028.30,10.00,M,CLR,None,None,None,M,M,M,M,M,KDCA 140852Z 22003KT 10SM CLR 01/M08 A3037 RMK AO2 SLP283 T00061078 57008,
DCA,2013-11-14 09:52,30.92,21.92,68.92,210.00,4.00,0.00,30.36,1028.10,10.00,M,CLR,None,None,None,M,M,M,M,M,KDCA 140952Z 21004KT 10SM CLR M01/M06 A3036 RMK AO2 SLP281 T10061056,
DCA,2013-11-14 10:52,30.92,21.92,68.92,240.00,4.00,0.00,30.35,1027.80,10.00,M,CLR,None,None,None,M,M,M,M,M,KDCA 141052Z 24004KT 10SM CLR M01/M06 A3035 RMK AO2 SLP278 T10061056,
DCA,2013-11-14 11:52,30.92,21.02,66.34,220.00,4.00,0.00,30.37,1028.40,10.00,M,FEW,None,None,None,25000.00,M,M,M,M,KDCA 141152Z 22004KT 10SM FEW250 M01/M06 A3037 RMK AO2 SLP284 T10061061 10011 21011 53001,
DCA,2013-11-14 12:52,33.98,26.06,72.45,220.00,6.00,0.00,30.39,1029.00,10.00,M,FEW,None,None,None,25000.00,M,M,M,M,KDCA 141252Z 22006KT 10SM FEW250 01/M03 A3039 RMK AO2 SLP290 T00111033,
DCA,2013-11-14 13:52,37.94,23.00,54.51,210.00,9.00,0.00,30.38,1028.80,10.00,M,FEW,None,None,None,25000.00,M,M,M,M,KDCA 141352Z 21009KT 10SM FEW250 03/M05 A3038 RMK AO2 SLP288 T00331050,
DCA,2013-11-14 14:52,41.00,28.04,59.65,170.00,6.00,0.00,30.38,1028.60,10.00,M,SCT,None,None,None,25000.00,M,M,M,M,KDCA 141452Z 17006KT 10SM SCT250 05/M02 A3038 RMK AO2 SLP286 T00501022 50002,
DCA,2013-11-14 15:52,46.04,23.00,39.90,120.00,3.00,0.00,30.35,1027.80,10.00,M,SCT,None,None,None,25000.00,M,M,M,M,KDCA 141552Z 12003KT 10SM SCT250 08/M05 A3035 RMK AO2 SLP278 T00781050,
DCA,2013-11-14 16:52,50.00,24.98,37.36,170.00,6.00,0.00,30.33,1027.00,10.00,M,SCT,None,None,None,25000.00,M,M,M,M,KDCA 141652Z 17006KT 10SM SCT250 10/M04 A3033 RMK AO2 SLP270 T01001039,
DCA,2013-11-14 17:52,51.98,21.02,29.39,170.00,8.00,0.00,30.31,1026.20,10.00,M,SCT,None,None,None,25000.00,M,M,M,M,KDCA 141752Z 17008KT 10SM SCT250 11/M06 A3031 RMK AO2 SLP262 T01111061 10111 21017 56024,
DCA,2013-11-14 18:52,53.06,24.08,32.13,170.00,7.00,0.00,30.29,1025.60,10.00,M,BKN,None,None,None,25000.00,M,M,M,M,KDCA 141852Z 17007KT 10SM BKN250 12/M04 A3029 RMK AO2 SLP256 T01171044,
DCA,2013-11-14 19:52,53.96,28.04,36.63,180.00,7.00,0.00,30.28,1025.20,10.00,M,BKN,None,None,None,25000.00,M,M,M,M,KDCA 141952Z 18007KT 10SM BKN250 12/M02 A3028 RMK AO2 SLP252 T01221022,
DCA,2013-11-14 20:52,53.96,26.96,35.04,190.00,7.00,0.00,30.27,1025.10,10.00,M,BKN,None,None,None,25000.00,M,M,M,M,KDCA 142052Z 19007KT 10SM BKN250 12/M03 A3027 RMK AO2 SLP251 T01221028 56011,
DCA,2013-11-14 21:52,50.00,28.04,42.39,190.00,7.00,0.00,30.27,1025.10,10.00,M,SCT,None,None,None,25000.00,M,M,M,M,KDCA 142152Z 19007KT 10SM SCT250 10/M02 A3027 RMK AO2 SLP251 T01001022,
DCA,2013-11-14 22:52,50.00,24.98,37.36,200.00,3.00,0.00,30.28,1025.40,10.00,M,CLR,None,None,None,M,M,M,M,M,KDCA 142252Z 20003KT 10SM CLR 10/M04 A3028 RMK AO2 SLP254 T01001039,
DCA,2013-11-14 23:52,46.94,28.94,49.33,0.00,0.00,0.00,30.28,1025.20,10.00,M,FEW,None,None,None,25000.00,M,M,M,M,KDCA 142352Z 00000KT 10SM FEW250 08/M02 A3028 RMK AO2 SLP252 T00831017 10128 20083 50001,
DCA,2013-11-15 00:52,46.04,26.96,47.05,0.00,0.00,0.00,30.27,1025.00,10.00,M,CLR,None,None,None,M,M,M,M,M,KDCA 150052Z 00000KT 10SM CLR 08/M03 A3027 RMK AO2 SLP250 T00781028,
DCA,2013-11-15 01:52,42.98,28.04,55.27,0.00,0.00,0.00,30.27,1024.90,10.00,M,CLR,None,None,None,M,M,M,M,M,KDCA 150152Z 00000KT 10SM CLR 06/M02 A3027 RMK AO2 SLP249 T00611022 $,
DCA,2013-11-15 02:52,42.08,26.96,54.73,220.00,3.00,0.00,30.26,1024.60,10.00,M,CLR,None,None,None,M,M,M,M,M,KDCA 150252Z 22003KT 10SM CLR 06/M03 A3026 RMK AO2 SLP246 T00561028 58006 $,
DCA,2013-11-15 03:52,42.08,26.06,52.73,220.00,3.00,0.00,30.25,1024.40,10.00,M,CLR,None,None,None,M,M,M,M,M,KDCA 150352Z 22003KT 10SM CLR 06/M03 A3025 RMK AO2 SLP244 T00561033 $,
DCA,2013-11-15 04:52,41.00,26.96,57.06,210.00,3.00,0.00,30.25,1024.20,10.00,M,CLR,None,None,None,M,M,M,M,M,KDCA 150452Z 21003KT 10SM CLR 05/M03 A3025 RMK AO2 SLP242 T00501028 401281017 $,
DCA,2013-11-15 05:52,39.02,26.96,61.63,230.00,3.00,0.00,30.24,1023.90,10.00,M,SCT,None,None,None,25000.00,M,M,M,M,KDCA 150552Z 23003KT 10SM SCT250 04/M03 A3024 RMK AO2 SLP239 T00391028 10083 20033 58006 $,
DCA,2013-11-15 06:52,41.00,26.96,57.06,240.00,4.00,0.00,30.24,1024.00,10.00,M,FEW,None,None,None,25000.00,M,M,M,M,KDCA 150652Z 24004KT 10SM FEW250 05/M03 A3024 RMK AO2 SLP240 T00501028 $,
DCA,2013-11-15 07:52,37.94,26.96,64.29,210.00,4.00,0.00,30.24,1024.10,10.00,M,CLR,None,None,None,M,M,M,M,M,KDCA 150752Z 21004KT 10SM CLR 03/M03 A3024 RMK AO2 SLP241 T00331028 $,
DCA,2013-11-15 08:52,37.94,28.04,67.21,230.00,3.00,0.00,30.24,1024.00,10.00,M,CLR,None,None,None,M,M,M,M,M,KDCA 150852Z 23003KT 10SM CLR 03/M02 A3024 RMK AO2 SLP240 T00331022 50001 $,
DCA,2013-11-15 09:52,37.04,26.96,66.60,0.00,0.00,0.00,30.25,1024.10,10.00,M,CLR,None,None,None,M,M,M,M,M,KDCA 150952Z 00000KT 10SM CLR 03/M03 A3025 RMK AO2 SLP241 T00281028 $,
DCA,2013-11-15 10:52,35.96,28.04,72.66,0.00,0.00,0.00,30.26,1024.60,10.00,M,BKN,None,None,None,25000.00,M,M,M,M,KDCA 151052Z 00000KT 10SM BKN250 02/M02 A3026 RMK AO2 SLP246 T00221022 $,
DCA,2013-11-15 11:52,35.96,26.96,69.51,0.00,0.00,0.00,30.28,1025.20,10.00,M,BKN,None,None,None,25000.00,M,M,M,M,KDCA 151152Z 00000KT 10SM BKN250 02/M03 A3028 RMK AO2 SLP252 T00221028 10050 20011 53012,
DCA,2013-11-15 12:52,39.02,28.04,64.43,0.00,0.00,0.00,30.28,1025.40,10.00,M,OVC,None,None,None,24000.00,M,M,M,M,KDCA 151252Z 00000KT 10SM OVC240 04/M02 A3028 RMK AO2 SLP254 T00391022,
DCA,2013-11-15 13:52,42.08,30.92,64.35,180.00,4.00,0.00,30.30,1025.90,10.00,M,OVC,None,None,None,24000.00,M,M,M,M,KDCA 151352Z 18004KT 10SM OVC240 06/M01 A3030 RMK AO2 SLP259 T00561006,
DCA,2013-11-15 14:52,44.06,32.00,62.30,170.00,5.00,0.00,30.30,1025.90,10.00,M,FEW,OVC,None,None,16000.00,23000.00,M,M,M,KDCA 151452Z 17005KT 10SM FEW160 OVC230 07/00 A3030 RMK AO2 SLP259 T00670000 51007,
DCA,2013-11-15 15:52,46.94,30.92,53.47,170.00,5.00,0.00,30.30,1025.90,10.00,M,FEW,OVC,None,None,17000.00,24000.00,M,M,M,KDCA 151552Z 17005KT 10SM FEW170 OVC240 08/M01 A3030 RMK AO2 SLP259 T00831006,
DCA,2013-11-15 16:52,50.00,28.94,43.99,160.00,4.00,0.00,30.26,1024.80,10.00,M,FEW,OVC,None,None,18000.00,25000.00,M,M,M,KDCA 151652Z 16004KT 10SM FEW180 OVC250 10/M02 A3026 RMK AO2 SLP248 T01001017,
DCA,2013-11-15 17:52,53.06,30.92,42.58,180.00,3.00,0.00,30.24,1023.80,10.00,M,FEW,OVC,None,None,17000.00,25000.00,M,M,M,KDCA 151752Z 18003KT 10SM FEW170 OVC250 12/M01 A3024 RMK AO2 SLP238 T01171006 10117 20017 58021,
DCA,2013-11-15 18:52,59.00,30.02,33.10,190.00,6.00,0.00,30.21,1023.10,10.00,M,FEW,OVC,None,None,16000.00,25000.00,M,M,M,KDCA 151852Z 19006KT 10SM FEW160 OVC250 15/M01 A3021 RMK AO2 SLP231 T01501011,
DCA,2013-11-15 19:52,60.98,28.04,28.45,190.00,7.00,0.00,30.21,1023.00,10.00,M,FEW,OVC,None,None,16000.00,25000.00,M,M,M,KDCA 151952Z 19007KT 10SM FEW160 OVC250 16/M02 A3021 RMK AO2 SLP230 T01611022,
DCA,2013-11-15 20:52,57.02,30.02,35.54,190.00,7.00,0.00,30.21,1023.00,10.00,M,FEW,BKN,None,None,15000.00,22000.00,M,M,M,KDCA 152052Z 19007KT 10SM FEW150 BKN220 14/M01 A3021 RMK AO2 SLP230 T01391011 55008,
DCA,2013-11-15 21:52,53.06,30.92,42.58,170.00,4.00,0.00,30.21,1023.00,10.00,M,BKN,None,None,None,21000.00,M,M,M,M,KDCA 152152Z 17004KT 10SM BKN210 12/M01 A3021 RMK AO2 SLP230 T01171006,
DCA,2013-11-15 22:52,53.06,32.00,44.48,160.00,3.00,0.00,30.22,1023.50,10.00,M,OVC,None,None,None,20000.00,M,M,M,M,KDCA 152252Z 16003KT 10SM OVC200 12/00 A3022 RMK AO2 SLP235 T01170000,
DCA,2013-11-15 23:52,51.08,35.06,54.09,190.00,3.00,0.00,30.22,1023.20,10.00,M,OVC,None,None,None,18000.00,M,M,M,M,KDCA 152352Z 19003KT 10SM OVC180 11/02 A3022 RMK AO2 SLP232 T01060017 10161 20100 50002,
DCA,2013-11-16 00:52,51.98,30.02,42.72,190.00,4.00,0.00,30.23,1023.60,10.00,M,BKN,OVC,None,None,14000.00,20000.00,M,M,M,KDCA 160052Z 19004KT 10SM BKN140 OVC200 11/M01 A3023 RMK AO2 SLP236 T01111011,
DCA,2013-11-16 01:52,51.08,35.96,56.05,0.00,0.00,0.00,30.24,1023.90,10.00,M,FEW,OVC,None,None,9000.00,11000.00,M,M,M,KDCA 160152Z 00000KT 10SM FEW090 OVC110 11/02 A3024 RMK AO2 SLP239 T01060022,
DCA,2013-11-16 02:52,51.98,32.00,46.28,0.00,0.00,0.00,30.25,1024.20,10.00,M,OVC,None,None,None,8000.00,M,M,M,-RA,KDCA 160252Z 00000KT 10SM -RA OVC080 11/00 A3025 RMK AO2 RAB40 SLP242 P0000 60000 T01110000 53010,
DCA,2013-11-16 03:52,50.00,37.04,60.89,0.00,0.00,0.01,30.26,1024.70,10.00,M,OVC,None,None,None,7000.00,M,M,M,-RA,KDCA 160352Z 00000KT 10SM -RA OVC070 10/03 A3026 RMK AO2 SLP247 P0001 T01000028,
DCA,2013-11-16 04:52,48.02,42.08,79.79,0.00,0.00,0.06,30.29,1025.60,4.00,M,BKN,OVC,None,None,5000.00,6000.00,M,M,-RA,KDCA 160452Z 00000KT 4SM -RA BKN050 OVC060 09/06 A3029 RMK AO2 SLP256 P0006 T00890056 401610011,
DCA,2013-11-16 05:52,46.94,42.98,86.02,200.00,3.00,0.11,30.28,1025.40,4.00,M,BKN,OVC,None,None,4300.00,5000.00,M,M,-RA BR,KDCA 160552Z 20003KT 4SM -RA BR BKN043 OVC050 08/06 A3028 RMK AO2 SLP254 P0011 60018 T00830061 10117 20083 50011,
DCA,2013-11-16 06:52,46.94,44.06,89.65,170.00,3.00,0.13,30.28,1025.20,4.00,M,SCT,BKN,OVC,None,4900.00,6000.00,7000.00,M,RA BR,KDCA 160652Z 17003KT 4SM RA BR SCT049 BKN060 OVC070 08/07 A3028 RMK AO2 SLP252 P0013 T00830067,
DCA,2013-11-16 07:52,46.94,44.96,92.78,180.00,3.00,0.08,30.26,1024.70,4.00,M,FEW,OVC,None,None,6500.00,7500.00,M,M,-RA BR,KDCA 160752Z 18003KT 4SM -RA BR FEW065 OVC075 08/07 A3026 RMK AO2 SLP247 P0008 T00830072,
DCA,2013-11-16 08:52,46.94,44.96,92.78,190.00,4.00,0.03,30.26,1024.50,5.00,M,OVC,None,None,None,8000.00,M,M,M,BR,KDCA 160852Z 19004KT 5SM BR OVC080 08/07 A3026 RMK AO2 RAE47 SLP245 P0003 60024 T00830072 58008,
DCA,2013-11-16 09:11,46.40,44.60,93.40,210.00,3.00,0.00,30.26,M,5.00,M,FEW,BKN,BKN,None,400.00,8000.00,9000.00,M,BR,KDCA 160911Z 21003KT 5SM BR FEW004 BKN080 BKN090 08/07 A3026 RMK AO2,
DCA,2013-11-16 09:52,48.02,44.96,89.08,0.00,0.00,0.00,30.27,1024.90,4.00,M,FEW,SCT,BKN,None,400.00,4500.00,8000.00,M,BR,KDCA 160952Z 00000KT 4SM BR FEW004 SCT045 BKN080 09/07 A3027 RMK AO2 SLP249 T00890072,
DCA,2013-11-16 10:52,48.02,44.96,89.08,0.00,0.00,0.00,30.27,1025.10,5.00,M,OVC,None,None,None,2000.00,M,M,M,BR,KDCA 161052Z 00000KT 5SM BR OVC020 09/07 A3027 RMK AO2 SLP251 T00890072,
DCA,2013-11-16 11:52,48.02,46.04,92.81,0.00,0.00,0.00,30.30,1026.10,3.00,M,OVC,None,None,None,2000.00,M,M,M,BR,KDCA 161152Z 00000KT 3SM BR OVC020 09/08 A3030 RMK AO2 SLP261 60024 70042 T00890078 10089 20083 53016,
DCA,2013-11-16 12:52,48.92,46.04,89.73,0.00,0.00,0.00,30.31,1026.30,4.00,M,SCT,OVC,None,None,600.00,1600.00,M,M,BR,KDCA 161252Z 00000KT 4SM BR SCT006 OVC016 09/08 A3031 RMK AO2 SLP263 T00940078,
DCA,2013-11-16 12:58,48.20,46.40,93.45,0.00,0.00,0.00,30.31,M,4.00,M,BKN,OVC,None,None,600.00,1600.00,M,M,BR,KDCA 161258Z 00000KT 4SM BR BKN006 OVC016 09/08 A3031 RMK AO2,
DCA,2013-11-16 13:08,50.00,46.40,87.37,0.00,0.00,0.00,30.31,M,4.00,M,SCT,OVC,None,None,600.00,1600.00,M,M,BR,KDCA 161308Z 00000KT 4SM BR SCT006 OVC016 10/08 A3031 RMK AO2,
DCA,2013-11-16 13:15,50.00,46.40,87.37,0.00,0.00,0.00,30.32,M,4.00,M,BKN,OVC,None,None,600.00,1600.00,M,M,BR,KDCA 161315Z 00000KT 4SM BR BKN006 OVC016 10/08 A3032 RMK AO2,
DCA,2013-11-16 13:52,50.00,46.94,89.17,0.00,0.00,0.00,30.33,1027.00,4.00,M,BKN,OVC,None,None,600.00,1600.00,M,M,BR,KDCA 161352Z 00000KT 4SM BR BKN006 OVC016 10/08 A3033 RMK AO2 SLP270 T01000083 $,
DCA,2013-11-16 14:13,51.80,46.40,81.74,0.00,0.00,0.00,30.34,M,4.00,M,SCT,OVC,None,None,600.00,1400.00,M,M,BR,KDCA 161413Z 00000KT 4SM BR SCT006 OVC014 11/08 A3034 RMK AO2 $,
DCA,2013-11-16 14:52,51.08,48.02,89.22,0.00,0.00,0.00,30.34,1027.30,3.00,M,FEW,OVC,None,None,600.00,1400.00,M,M,BR,KDCA 161452Z 00000KT 3SM BR FEW006 OVC014 11/09 A3034 RMK AO2 SLP273 T01060089 51012 $,
DCA,2013-11-16 15:31,51.80,46.40,81.74,0.00,0.00,0.00,30.34,M,3.00,M,OVC,None,None,None,800.00,M,M,M,HZ,KDCA 161531Z 00000KT 3SM HZ OVC008 11/08 A3034 RMK AO2 $,
DCA,2013-11-16 15:52,51.98,48.02,86.30,0.00,0.00,0.00,30.33,1027.00,4.00,M,OVC,None,None,None,800.00,M,M,M,BR,KDCA 161552Z 00000KT 4SM BR OVC008 11/09 A3033 RMK AO2 SLP270 T01110089 $,
DCA,2013-11-16 16:52,53.96,48.92,83.00,0.00,0.00,0.00,30.30,1026.10,5.00,M,BKN,OVC,None,None,800.00,1200.00,M,M,HZ,KDCA 161652Z 00000KT 5SM HZ BKN008 OVC012 12/09 A3030 RMK AO2 SLP261 T01220094 $,
DCA,2013-11-16 17:02,53.60,48.20,81.87,30.00,3.00,0.00,30.30,M,5.00,M,OVC,None,None,None,1000.00,M,M,M,HZ,KDCA 161702Z 03003KT 5SM HZ OVC010 12/09 A3030 RMK AO2 $,
DCA,2013-11-16 17:04,53.60,48.20,81.87,30.00,3.00,0.00,30.30,M,5.00,M,BKN,OVC,None,None,800.00,1200.00,M,M,HZ,KDCA 161704Z 03003KT 5SM HZ BKN008 OVC012 12/09 A3030 RMK AO2 $,
DCA,2013-11-16 17:08,53.60,48.20,81.87,30.00,4.00,0.00,30.30,M,5.00,M,OVC,None,None,None,1000.00,M,M,M,HZ,KDCA 161708Z 03004KT 5SM HZ OVC010 12/09 A3030 RMK AO2 $,
DCA,2013-11-16 17:52,53.96,48.92,83.00,20.00,4.00,0.00,30.29,1025.80,5.00,M,OVC,None,None,None,1000.00,M,M,M,HZ,KDCA 161752Z 02004KT 5SM HZ OVC010 12/09 A3029 RMK AO2 SLP258 T01220094 10122 20089 56014 $,
DCA,2013-11-16 18:52,53.96,48.92,83.00,80.00,3.00,0.00,30.28,1025.50,7.00,M,OVC,None,None,None,1000.00,M,M,M,M,KDCA 161852Z 08003KT 7SM OVC010 12/09 A3028 RMK AO2 SLP255 T01220094 $,
DCA,2013-11-16 19:52,53.06,48.92,85.78,M,4.00,0.00,30.28,1025.50,7.00,M,OVC,None,None,None,1000.00,M,M,M,M,KDCA 161952Z VRB04KT 7SM OVC010 12/09 A3028 RMK AO2 SLP255 T01170094 $,
DCA,2013-11-16 20:52,53.96,48.92,83.00,0.00,0.00,0.00,30.28,1025.50,7.00,M,OVC,None,None,None,1000.00,M,M,M,M,KDCA 162052Z 00000KT 7SM OVC010 12/09 A3028 RMK AO2 SLP255 T01220094 56004 $,
DCA,2013-11-16 21:52,53.06,48.92,85.78,150.00,4.00,0.00,30.29,1025.50,9.00,M,OVC,None,None,None,1000.00,M,M,M,M,KDCA 162152Z 15004KT 9SM OVC010 12/09 A3029 RMK AO2 SLP255 T01170094 $,
DCA,2013-11-16 22:52,53.06,48.92,85.78,120.00,4.00,0.00,30.29,1025.70,6.00,M,OVC,None,None,None,700.00,M,M,M,BR,KDCA 162252Z 12004KT 6SM BR OVC007 12/09 A3029 RMK AO2 SLP257 T01170094 $,
DCA,2013-11-16 23:52,51.98,48.92,89.26,0.00,0.00,0.00,30.29,1025.60,3.00,M,OVC,None,None,None,700.00,M,M,M,-DZ BR,KDCA 162352Z 00000KT 3SM -DZ BR OVC007 11/09 A3029 RMK AO2 DZB46 SLP256 P0000 60000 T01110094 10122 20111 50001 $,
DCA,2013-11-17 00:06,51.80,48.20,87.47,0.00,0.00,0.00,30.29,M,2.50,M,OVC,None,None,None,700.00,M,M,M,-DZ BR,KDCA 170006Z 00000KT 2 1/2SM -DZ BR OVC007 11/09 A3029 RMK AO2 P0000 $,
DCA,2013-11-17 00:52,51.98,48.92,89.26,80.00,3.00,0.00,30.28,1025.50,2.50,M,OVC,None,None,None,700.00,M,M,M,BR,KDCA 170052Z 08003KT 2 1/2SM BR OVC007 11/09 A3028 RMK AO2 DZE39 SLP255 P0000 T01110094 $,
DCA,2013-11-17 01:27,51.80,48.20,87.47,0.00,0.00,0.00,30.28,M,4.00,M,OVC,None,None,None,700.00,M,M,M,BR,KDCA 170127Z 00000KT 4SM BR OVC007 11/09 A3028 RMK AO2 $,
DCA,2013-11-17 01:52,51.98,50.00,92.93,0.00,0.00,0.00,30.29,1025.50,3.00,M,OVC,None,None,None,700.00,M,M,M,BR,KDCA 170152Z 00000KT 3SM BR OVC007 11/10 A3029 RMK AO2 SLP255 T01110100 $,
DCA,2013-11-17 02:52,51.98,50.00,92.93,0.00,0.00,0.00,30.27,1025.10,4.00,M,OVC,None,None,None,700.00,M,M,M,BR,KDCA 170252Z 00000KT 4SM BR OVC007 11/10 A3027 RMK AO2 SLP251 60000 T01110100 58005 $,
DCA,2013-11-17 03:52,53.06,50.00,89.31,0.00,0.00,0.00,30.25,1024.50,4.00,M,OVC,None,None,None,700.00,M,M,M,BR,KDCA 170352Z 00000KT 4SM BR OVC007 12/10 A3025 RMK AO2 SLP245 T01170100 $,
DCA,2013-11-17 04:52,53.06,50.00,89.31,0.00,0.00,0.00,30.26,1024.70,5.00,M,OVC,None,None,None,700.00,M,M,M,BR,KDCA 170452Z 00000KT 5SM BR OVC007 12/10 A3026 RMK AO2 SLP247 T01170100 401220083 $,
DCA,2013-11-17 05:52,53.06,50.00,89.31,260.00,3.00,0.00,30.24,1024.00,4.00,M,OVC,None,None,None,700.00,M,M,M,BR,KDCA 170552Z 26003KT 4SM BR OVC007 12/10 A3024 RMK AO2 SLP240 60000 T01170100 10117 20111 58010 $,
DCA,2013-11-17 06:41,51.80,50.00,93.55,0.00,0.00,0.00,30.24,M,2.50,M,BKN,OVC,None,None,700.00,1400.00,M,M,BR,KDCA 170641Z 00000KT 2 1/2SM BR BKN007 OVC014 11/10 A3024 RMK AO2 $,
DCA,2013-11-17 06:45,51.80,48.20,87.47,0.00,0.00,0.00,30.24,M,1.75,M,SCT,OVC,None,None,700.00,1300.00,M,M,BR,KDCA 170645Z 00000KT 1 3/4SM BR SCT007 OVC013 11/09 A3024 RMK AO2 $,
DCA,2013-11-17 06:52,51.98,50.00,92.93,0.00,0.00,0.00,30.24,1023.80,3.00,M,BKN,OVC,None,None,900.00,1300.00,M,M,BR,KDCA 170652Z 00000KT 3SM BR BKN009 OVC013 11/10 A3024 RMK AO2 SLP238 T01110100 $,
DCA,2013-11-17 07:06,51.80,50.00,93.55,0.00,0.00,0.00,30.23,M,3.00,M,BKN,OVC,None,None,700.00,1300.00,M,M,BR,KDCA 170706Z 00000KT 3SM BR BKN007 OVC013 11/10 A3023 RMK AO2 $,
DCA,2013-11-17 07:22,53.60,50.00,87.56,0.00,0.00,0.00,30.21,M,3.00,M,SCT,OVC,None,None,700.00,1300.00,M,M,BR,KDCA 170722Z 00000KT 3SM BR SCT007 OVC013 12/10 A3021 RMK AO2 PRESFR $,
DCA,2013-11-17 07:32,53.60,50.00,87.56,130.00,3.00,0.00,30.20,M,3.00,M,FEW,OVC,None,None,700.00,1500.00,M,M,BR,KDCA 170732Z 13003KT 3SM BR FEW007 OVC015 12/10 A3020 RMK AO2 $,
DCA,2013-11-17 07:49,53.60,51.80,93.60,190.00,4.00,0.00,30.20,M,5.00,M,BKN,OVC,None,None,1300.00,1800.00,M,M,BR,KDCA 170749Z 19004KT 5SM BR BKN013 OVC018 12/11 A3020 RMK AO2 $,
DCA,2013-11-17 07:52,53.96,51.08,89.95,190.00,4.00,0.00,30.20,1022.70,6.00,M,BKN,OVC,None,None,1100.00,1800.00,M,M,BR,KDCA 170752Z 19004KT 6SM BR BKN011 OVC018 12/11 A3020 RMK AO2 SLP227 T01220106 $,
DCA,2013-11-17 08:13,53.60,51.80,93.60,150.00,4.00,0.00,30.20,M,7.00,M,BKN,OVC,None,None,700.00,1100.00,M,M,M,KDCA 170813Z 15004KT 7SM BKN007 OVC011 12/11 A3020 RMK AO2 $,
DCA,2013-11-17 08:52,55.04,51.98,89.40,200.00,4.00,0.00,30.20,1022.70,6.00,M,OVC,None,None,None,500.00,M,M,M,BR,KDCA 170852Z 20004KT 6SM BR OVC005 13/11 A3020 RMK AO2 SLP227 T01280111 55011 $,
DCA,2013-11-17 09:52,53.96,51.98,92.99,130.00,4.00,0.00,30.18,1022.10,4.00,M,OVC,None,None,None,500.00,M,M,M,BR,KDCA 170952Z 13004KT 4SM BR OVC005 12/11 A3018 RMK AO2 SLP221 T01220111 $,
DCA,2013-11-17 10:52,53.96,51.98,92.99,0.00,0.00,0.00,30.18,1021.90,3.00,M,OVC,None,None,None,500.00,M,M,M,BR,KDCA 171052Z 00000KT 3SM BR OVC005 12/11 A3018 RMK AO2 SLP219 T01220111 $,
DCA,2013-11-17 11:10,53.60,50.00,87.56,150.00,4.00,0.00,30.16,M,3.00,M,SCT,BKN,BKN,BKN,500.00,1900.00,4200.00,20000.00,BR,KDCA 171110Z 15004KT 3SM R01/1600V2400FT BR SCT005 BKN019 BKN042 BKN200 12/10 A3016 RMK AO2 $,
DCA,2013-11-17 11:30,53.60,51.80,93.60,0.00,0.00,0.00,30.15,M,3.00,M,FEW,SCT,SCT,BKN,1900.00,4200.00,14000.00,20000.00,BR,KDCA 171130Z 00000KT 3SM R01/3500VP6000FT BR FEW019 SCT042 SCT140 BKN200 12/11 A3015 RMK AO2 $,
DCA,2013-11-17 11:52,53.06,51.08,92.96,230.00,3.00,0.00,30.16,1021.20,3.00,M,SCT,BKN,BKN,None,2100.00,14000.00,20000.00,M,BR,KDCA 171152Z 23003KT 3SM BR SCT021 BKN140 BKN200 12/11 A3016 RMK AO2 SLP212 T01170106 10128 20111 58016 $,
DCA,2013-11-17 11:54,53.60,51.80,93.60,230.00,4.00,0.00,30.16,M,3.00,M,BKN,BKN,BKN,None,2200.00,14000.00,20000.00,M,BR,KDCA 171154Z 23004KT 3SM BR BKN022 BKN140 BKN200 12/11 A3016 RMK AO2 $,
DCA,2013-11-17 12:52,55.04,51.98,89.40,200.00,3.00,0.00,30.18,1022.00,3.00,M,SCT,OVC,None,None,1200.00,2000.00,M,M,BR,KDCA 171252Z 20003KT 3SM BR SCT012 OVC020 13/11 A3018 RMK AO2 SLP220 T01280111 $,
DCA,2013-11-17 13:16,53.60,51.80,93.60,170.00,3.00,0.00,30.18,M,2.50,M,BKN,OVC,None,None,1500.00,2200.00,M,M,BR,KDCA 171316Z 17003KT 2 1/2SM BR BKN015 OVC022 12/11 A3018 RMK AO2 $,
DCA,2013-11-17 13:38,55.40,51.80,87.65,170.00,6.00,0.00,30.18,M,3.00,M,BKN,OVC,None,None,1500.00,2200.00,M,M,BR,KDCA 171338Z 17006KT 3SM BR BKN015 OVC022 13/11 A3018 RMK AO2 $,
DCA,2013-11-17 13:52,53.96,51.98,92.99,170.00,4.00,0.00,30.18,1021.90,3.00,M,BKN,OVC,None,None,1500.00,2200.00,M,M,BR,KDCA 171352Z 17004KT 3SM BR BKN015 OVC022 12/11 A3018 RMK AO2 SLP219 T01220111 $,
DCA,2013-11-17 14:48,59.00,53.60,82.25,190.00,6.00,0.00,30.17,M,9.00,M,BKN,BKN,None,None,3800.00,8500.00,M,M,M,KDCA 171448Z 19006KT 9SM BKN038 BKN085 15/12 A3017,
DCA,2013-11-17 14:52,59.00,53.96,83.34,190.00,7.00,0.00,30.17,1021.50,10.00,M,BKN,BKN,None,None,3800.00,8500.00,M,M,M,KDCA 171452Z 19007KT 10SM BKN038 BKN085 15/12 A3017 RMK AO2 SLP215 T01500122 50003 $,
DCA,2013-11-17 15:52,60.08,53.96,80.19,200.00,6.00,0.00,30.15,1020.80,10.00,M,BKN,None,None,None,4000.00,M,M,M,M,KDCA 171552Z 20006KT 10SM BKN040 16/12 A3015 RMK AO2 SLP208 T01560122 $,
DCA,2013-11-17 16:52,60.08,53.96,80.19,180.00,7.00,0.00,30.12,1020.00,10.00,M,BKN,OVC,None,None,3500.00,7000.00,M,M,M,KDCA 171652Z 18007KT 10SM BKN035 OVC070 16/12 A3012 RMK AO2 SLP200 T01560122 $,
DCA,2013-11-17 17:52,62.06,55.04,77.75,190.00,6.00,0.00,30.08,1018.50,10.00,M,SCT,OVC,None,None,1500.00,4000.00,M,M,M,KDCA 171752Z 19006KT 10SM SCT015 OVC040 17/13 A3008 RMK AO2 SLP185 T01670128 10167 20117 58031 $,
DCA,2013-11-17 18:52,64.04,55.04,72.53,200.00,9.00,0.00,30.05,1017.50,10.00,M,SCT,BKN,None,None,1500.00,4000.00,M,M,M,KDCA 171852Z 20009KT 10SM SCT015 BKN040 18/13 A3005 RMK AO2 SLP175 T01780128 $,
DCA,2013-11-17 19:52,64.94,55.94,72.62,200.00,9.00,0.00,30.02,1016.50,10.00,M,FEW,BKN,BKN,None,1500.00,3800.00,25000.00,M,M,KDCA 171952Z 20009KT 10SM FEW015 BKN038 BKN250 18/13 A3002 RMK AO2 SLP165 T01830133 $,
DCA,2013-11-17 20:52,62.06,55.04,77.75,190.00,5.00,0.00,30.01,1016.10,10.00,M,FEW,OVC,None,None,3800.00,20000.00,M,M,M,KDCA 172052Z 19005KT 10SM FEW038 OVC200 17/13 A3001 RMK AO2 SLP161 T01670128 56023 $,
DCA,2013-11-17 21:52,60.08,53.96,80.19,180.00,7.00,0.00,29.98,1015.30,10.00,M,FEW,OVC,None,None,4500.00,18000.00,M,M,M,KDCA 172152Z 18007KT 10SM FEW045 OVC180 16/12 A2998 RMK AO2 SLP153 T01560122 $,
DCA,2013-11-17 22:52,60.08,53.96,80.19,180.00,7.00,0.00,29.96,1014.70,10.00,M,FEW,OVC,None,None,5500.00,19000.00,M,M,M,KDCA 172252Z 18007KT 10SM FEW055 OVC190 16/12 A2996 RMK AO2 SLP147 T01560122 $,
DCA,2013-11-17 23:52,60.08,53.96,80.19,190.00,9.00,0.00,29.93,1013.50,10.00,M,FEW,OVC,None,None,6500.00,19000.00,M,M,M,KDCA 172352Z 19009KT 10SM FEW065 OVC190 16/12 A2993 RMK AO2 SLP135 T01560122 10183 20156 58026 $,
DCA,2013-11-18 00:52,59.00,53.96,83.34,190.00,9.00,0.00,29.92,1013.10,10.00,M,BKN,OVC,None,None,3300.00,15000.00,M,M,M,KDCA 180052Z 19009KT 10SM BKN033 OVC150 15/12 A2992 RMK AO2 SLP131 T01500122 $,
DCA,2013-11-18 01:34,60.80,55.40,82.37,190.00,7.00,0.00,29.90,M,10.00,M,BKN,BKN,OVC,None,4100.00,11000.00,15000.00,M,-RA,KDCA 180134Z 19007KT 10SM -RA BKN041 BKN110 OVC150 16/13 A2990 RMK AO2 RAB20 P0000 $,
DCA,2013-11-18 01:52,60.08,55.04,83.41,190.00,8.00,0.00,29.88,1011.90,10.00,M,BKN,BKN,OVC,None,4100.00,12000.00,15000.00,M,M,KDCA 180152Z 19008KT 10SM BKN041 BKN120 OVC150 16/13 A2988 RMK AO2 RAB20E51 SLP119 P0000 T01560128 $,
DCA,2013-11-18 02:52,60.98,55.94,83.47,190.00,7.00,0.00,29.85,1010.70,10.00,M,FEW,SCT,BKN,OVC,4100.00,10000.00,12000.00,20000.00,M,KDCA 180252Z 19007KT 10SM FEW041 SCT100 BKN120 OVC200 16/13 A2985 RMK AO2 SLP107 60000 T01610133 58026 $,
DCA,2013-11-18 03:52,57.92,55.04,90.11,190.00,9.00,0.00,29.82,1009.70,10.00,M,FEW,BKN,OVC,None,3000.00,4700.00,10000.00,M,M,KDCA 180352Z 19009KT 10SM FEW030 BKN047 OVC100 14/13 A2982 RMK AO2 RAB32E39 SLP097 P0000 T01440128 $,
DCA,2013-11-18 04:52,60.98,57.02,86.79,200.00,11.00,0.00,29.77,1008.00,10.00,M,BKN,BKN,BKN,None,3200.00,4100.00,8000.00,M,M,KDCA 180452Z 20011KT 10SM BKN032 BKN041 BKN080 16/14 A2977 RMK AO2 RAB09E12B39E52 SLP080 P0000 T01610139 401830111 $,
DCA,2013-11-18 05:34,62.60,59.00,88.00,200.00,11.00,0.00,29.75,M,10.00,M,BKN,BKN,OVC,None,1700.00,2200.00,3000.00,M,M,KDCA 180534Z 20011KT 10SM BKN017 BKN022 OVC030 17/15 A2975 RMK AO2 $,
DCA,2013-11-18 05:52,62.96,59.00,86.90,200.00,13.00,0.00,29.74,1006.90,10.00,M,OVC,None,None,None,1700.00,M,M,M,M,KDCA 180552Z 20013KT 10SM OVC017 17/15 A2974 RMK AO2 SLP069 60000 T01720150 10172 20139 58039 $,
DCA,2013-11-18 06:15,62.60,59.00,88.00,200.00,10.00,0.00,29.72,M,10.00,M,OVC,None,None,None,1300.00,M,M,M,M,KDCA 180615Z 20010KT 10SM OVC013 17/15 A2972 RMK AO2 $,
DCA,2013-11-18 06:52,62.96,60.08,90.31,200.00,12.00,0.00,29.71,1006.00,10.00,M,OVC,None,None,None,900.00,M,M,M,M,KDCA 180652Z 20012KT 10SM OVC009 17/16 A2971 RMK AO2 SLP060 T01720156 $,
DCA,2013-11-18 07:37,62.60,59.00,88.00,300.00,17.00,0.02,29.77,M,2.50,25.00,OVC,None,None,None,900.00,M,M,M,+RA,KDCA 180737Z 30017G25KT 2 1/2SM +RA OVC009 17/15 A2977 RMK AO2 WSHFT 0723 RAB22 PRESRR P0002 $,
DCA,2013-11-18 07:41,60.80,55.40,82.37,290.00,17.00,0.08,29.77,M,3.00,26.00,BKN,OVC,None,None,900.00,2300.00,M,M,RA,KDCA 180741Z 29017G26KT 3SM RA BKN009 OVC023 16/13 A2977 RMK AO2 PK WND 29026/0741 WSHFT 0723 RAB22 PRESRR P0008 $,
DCA,2013-11-18 07:48,57.20,53.60,87.74,310.00,22.00,0.14,29.77,M,3.00,31.00,SCT,BKN,OVC,None,900.00,2600.00,3200.00,M,-RA,KDCA 180748Z 31022G31KT 3SM -RA SCT009 BKN026 OVC032 14/12 A2977 RMK AO2 PK WND 31031/0747 WSHFT 0723 RAB22 P0014 $,
DCA,2013-11-18 07:52,57.92,51.98,80.55,290.00,16.00,0.14,29.76,1007.80,3.00,31.00,SCT,BKN,OVC,None,900.00,2600.00,3400.00,M,-RA,KDCA 180752Z 29016G31KT 3SM -RA SCT009 BKN026 OVC034 14/11 A2976 RMK AO2 PK WND 31031/0747 WSHFT 0723 RAB22 SLP078 P0014 T01440111 $,
DCA,2013-11-18 08:00,57.20,51.80,82.12,290.00,11.00,0.01,29.76,M,5.00,24.00,FEW,BKN,OVC,None,900.00,3000.00,3600.00,M,-RA,KDCA 180800Z 29011G24KT 5SM -RA FEW009 BKN030 OVC036 14/11 A2976 RMK AO2 P0001 $,
DCA,2013-11-18 08:52,57.92,51.08,77.92,220.00,3.00,0.01,29.75,1007.20,10.00,M,OVC,None,None,None,7000.00,M,M,M,M,KDCA 180852Z 22003KT 10SM OVC070 14/11 A2975 RMK AO2 RAE27 SLP072 P0001 60015 T01440106 50013 $,
DCA,2013-11-18 09:52,55.94,51.08,83.69,180.00,8.00,0.00,29.75,1007.50,10.00,M,OVC,None,None,None,9000.00,M,M,M,M,KDCA 180952Z 18008KT 10SM OVC090 13/11 A2975 RMK AO2 SLP075 T01330106 $,
DCA,2013-11-18 10:52,55.04,51.08,86.47,190.00,6.00,0.00,29.76,1007.90,10.00,M,OVC,None,None,None,10000.00,M,M,M,M,KDCA 181052Z 19006KT 10SM OVC100 13/11 A2976 RMK AO2 SLP079 T01280106 $,
DCA,2013-11-18 11:52,55.94,51.08,83.69,210.00,3.00,0.00,29.78,1008.40,10.00,M,BKN,BKN,None,None,12000.00,20000.00,M,M,M,KDCA 181152Z 21003KT 10SM BKN120 BKN200 13/11 A2978 RMK AO2 SLP084 60015 70015 T01330106 10183 20128 53010 $,
DCA,2013-11-18 12:52,55.94,51.08,83.69,180.00,6.00,0.00,29.79,1008.80,10.00,M,SCT,None,None,None,11000.00,M,M,M,M,KDCA 181252Z 18006KT 10SM SCT110 13/11 A2979 RMK AO2 SLP088 T01330106 $,
DCA,2013-11-18 13:52,60.08,48.92,66.56,200.00,8.00,0.00,29.80,1009.00,10.00,M,FEW,None,None,None,12000.00,M,M,M,M,KDCA 181352Z 20008KT 10SM FEW120 16/09 A2980 RMK AO2 SLP090 T01560094,
DCA,2013-11-18 14:52,66.02,39.02,37.00,230.00,12.00,0.00,29.80,1009.00,10.00,19.00,FEW,None,None,None,12000.00,M,M,M,M,KDCA 181452Z 23012G19KT 10SM FEW120 19/04 A2980 RMK AO2 SLP090 T01890039 51007,
DCA,2013-11-18 15:22,66.20,37.40,34.51,260.00,16.00,0.00,29.79,M,10.00,20.00,FEW,None,None,None,12000.00,M,M,M,M,KDCA 181522Z 26016G20KT 10SM FEW120 19/03 A2979 RMK AO2,
DCA,2013-11-18 15:52,68.00,35.96,30.64,270.00,11.00,0.00,29.79,1008.60,10.00,16.00,FEW,None,None,None,12000.00,M,M,M,M,KDCA 181552Z 27011G16KT 10SM FEW120 20/02 A2979 RMK AO2 SLP086 T02000022,
DCA,2013-11-18 16:52,69.08,30.92,24.13,290.00,15.00,0.00,29.76,1007.70,10.00,25.00,FEW,None,None,None,13000.00,M,M,M,M,KDCA 181652Z 29015G25KT 10SM FEW130 21/M01 A2976 RMK AO2 SLP077 T02061006,
DCA,2013-11-18 17:52,69.98,28.94,21.58,280.00,16.00,0.00,29.75,1007.20,10.00,22.00,FEW,None,None,None,5500.00,M,M,M,M,KDCA 181752Z 28016G22KT 10SM FEW055 21/M02 A2975 RMK AO2 SLP072 T02111017 10217 20133 58018,
DCA,2013-11-18 18:52,69.98,30.02,22.55,240.00,12.00,0.00,29.74,1007.10,10.00,17.00,CLR,None,None,None,M,M,M,M,M,KDCA 181852Z 24012G17KT 10SM CLR 21/M01 A2974 RMK AO2 SLP071 T02111011,
DCA,2013-11-18 19:52,69.98,28.94,21.58,290.00,12.00,0.00,29.74,1007.10,10.00,M,CLR,None,None,None,M,M,M,M,M,KDCA 181952Z 29012KT 10SM CLR 21/M02 A2974 RMK AO2 SLP071 T02111017,
DCA,2013-11-18 20:52,68.00,23.00,18.06,320.00,9.00,0.00,29.75,1007.30,10.00,15.00,CLR,None,None,None,M,M,M,M,M,KDCA 182052Z 32009G15KT 10SM CLR 20/M05 A2975 RMK AO2 SLP073 T02001050 53001,
DCA,2013-11-18 21:52,64.94,21.92,19.18,290.00,10.00,0.00,29.77,1008.10,10.00,16.00,FEW,None,None,None,12000.00,M,M,M,M,KDCA 182152Z 29010G16KT 10SM FEW120 18/M06 A2977 RMK AO2 SLP081 T01831056,
DCA,2013-11-18 22:52,62.96,23.00,21.52,290.00,8.00,0.00,29.81,1009.40,10.00,19.00,CLR,None,None,None,M,M,M,M,M,KDCA 182252Z 29008G19KT 10SM CLR 17/M05 A2981 RMK AO2 SLP094 T01721050,
DCA,2013-11-18 23:52,60.98,26.06,26.22,320.00,14.00,0.00,29.84,1010.50,10.00,20.00,CLR,None,None,None,M,M,M,M,M,KDCA 182352Z 32014G20KT 10SM CLR 16/M03 A2984 RMK AO2 SLP105 T01611033 10217 20161 53031,
DCA,2013-11-19 00:52,60.08,26.06,27.07,300.00,13.00,0.00,29.86,1011.20,10.00,26.00,CLR,None,None,None,M,M,M,M,M,KDCA 190052Z 30013G26KT 10SM CLR 16/M03 A2986 RMK AO2 PK WND 32026/0047 SLP112 T01561033,
DCA,2013-11-19 01:52,57.92,24.98,27.96,320.00,11.00,0.00,29.90,1012.40,10.00,M,CLR,None,None,None,M,M,M,M,M,KDCA 190152Z 32011KT 10SM CLR 14/M04 A2990 RMK AO2 PK WND 32026/0102 SLP124 T01441039,
DCA,2013-11-19 02:52,55.94,24.08,28.93,300.00,15.00,0.00,29.92,1013.10,10.00,22.00,CLR,None,None,None,M,M,M,M,M,KDCA 190252Z 30015G22KT 10SM CLR 13/M04 A2992 RMK AO2 SLP131 T01331044 53027,
DCA,2013-11-19 03:52,53.96,24.98,32.28,330.00,14.00,0.00,29.94,1013.70,10.00,20.00,FEW,None,None,None,9000.00,M,M,M,M,KDCA 190352Z 33014G20KT 10SM FEW090 12/M04 A2994 RMK AO2 PK WND 32028/0318 SLP137 T01221039,
DCA,2013-11-19 04:52,51.98,24.08,33.44,300.00,15.00,0.00,29.96,1014.30,10.00,24.00,FEW,None,None,None,7000.00,M,M,M,M,KDCA 190452Z 30015G24KT 10SM FEW070 11/M04 A2996 RMK AO2 SLP143 T01111044 402170111,
DCA,2013-11-19 05:52,51.08,24.98,35.89,300.00,12.00,0.00,29.97,1014.60,10.00,M,FEW,None,None,None,7000.00,M,M,M,M,KDCA 190552Z 30012KT 10SM FEW070 11/M04 A2997 RMK AO2 SLP146 T01061039 10161 20106 51015,
DCA,2013-11-19 06:52,50.00,24.08,35.98,310.00,13.00,0.00,29.97,1014.80,10.00,22.00,CLR,None,None,None,M,M,M,M,M,KDCA 190652Z 31013G22KT 10SM CLR 10/M04 A2997 RMK AO2 SLP148 T01001044,
DCA,2013-11-19 07:52,46.94,26.06,43.81,330.00,10.00,0.00,30.00,1015.90,10.00,M,FEW,None,None,None,7000.00,M,M,M,M,KDCA 190752Z 33010KT 10SM FEW070 08/M03 A3000 RMK AO2 SLP159 T00831033,
DCA,2013-11-19 08:52,46.04,24.08,41.74,340.00,21.00,0.00,30.03,1016.70,10.00,24.00,FEW,None,None,None,7000.00,M,M,M,M,KDCA 190852Z 34021G24KT 10SM FEW070 08/M04 A3003 RMK AO2 SLP167 T00781044 53020,
DCA,2013-11-19 09:52,46.04,24.08,41.74,330.00,12.00,0.00,30.05,1017.60,10.00,18.00,SCT,None,None,None,5000.00,M,M,M,M,KDCA 190952Z 33012G18KT 10SM SCT050 08/M04 A3005 RMK AO2 PK WND 34026/0855 SLP176 T00781044,
DCA,2013-11-19 10:52,46.04,24.98,43.34,310.00,6.00,0.00,30.08,1018.50,10.00,M,BKN,None,None,None,5500.00,M,M,M,M,KDCA 191052Z 31006KT 10SM BKN055 08/M04 A3008 RMK AO2 SLP185 T00781039,
DCA,2013-11-19 11:52,46.04,26.06,45.33,340.00,14.00,0.00,30.11,1019.70,10.00,21.00,BKN,None,None,None,5500.00,M,M,M,M,KDCA 191152Z 34014G21KT 10SM BKN055 08/M03 A3011 RMK AO2 SLP197 T00781033 10106 20072 53030,
DCA,2013-11-19 12:52,44.96,24.98,45.15,340.00,19.00,0.00,30.14,1020.70,10.00,25.00,BKN,None,None,None,5000.00,M,M,M,M,KDCA 191252Z 34019G25KT 10SM BKN050 07/M04 A3014 RMK AO2 SLP207 T00721039,
DCA,2013-11-19 13:52,46.04,24.08,41.74,340.00,18.00,0.00,30.19,1022.30,10.00,25.00,SCT,None,None,None,5500.00,M,M,M,M,KDCA 191352Z 34018G25KT 10SM SCT055 08/M04 A3019 RMK AO2 PK WND 36026/1338 SLP223 T00781044,
DCA,2013-11-19 14:52,46.94,24.08,40.35,340.00,13.00,0.00,30.21,1023.00,10.00,23.00,SCT,None,None,None,5000.00,M,M,M,M,KDCA 191452Z 34013G23KT 10SM SCT050 08/M04 A3021 RMK AO2 SLP230 T00831044 51033,
DCA,2013-11-19 15:52,48.02,24.98,40.22,320.00,14.00,0.00,30.22,1023.40,10.00,22.00,SCT,None,None,None,5000.00,M,M,M,M,KDCA 191552Z 32014G22KT 10SM SCT050 09/M04 A3022 RMK AO2 SLP234 T00891039,
DCA,2013-11-19 16:52,48.92,24.98,38.89,330.00,20.00,0.00,30.20,1022.70,10.00,25.00,FEW,None,None,None,5500.00,M,M,M,M,KDCA 191652Z 33020G25KT 10SM FEW055 09/M04 A3020 RMK AO2 SLP227 T00941039,
DCA,2013-11-19 17:52,51.08,26.06,37.54,340.00,16.00,0.00,30.20,1022.50,10.00,25.00,FEW,None,None,None,5500.00,M,M,M,M,KDCA 191752Z 34016G25KT 10SM FEW055 11/M03 A3020 RMK AO2 PK WND 33026/1722 SLP225 T01061033 10106 20067 58005,
DCA,2013-11-19 18:52,50.00,26.06,39.07,330.00,16.00,0.00,30.18,1022.00,10.00,25.00,FEW,None,None,None,6000.00,M,M,M,M,KDCA 191852Z 33016G25KT 10SM FEW060 10/M03 A3018 RMK AO2 PK WND 32028/1827 SLP220 T01001033,
DCA,2013-11-19 19:52,50.00,24.98,37.36,310.00,12.00,0.00,30.20,1022.60,10.00,M,FEW,None,None,None,25000.00,M,M,M,M,KDCA 191952Z 31012KT 10SM FEW250 10/M04 A3020 RMK AO2 SLP226 T01001039,
DCA,2013-11-19 20:52,48.92,24.98,38.89,320.00,11.00,0.00,30.22,1023.40,10.00,M,SCT,None,None,None,25000.00,M,M,M,M,KDCA 192052Z 32011KT 10SM SCT250 09/M04 A3022 RMK AO2 SLP234 T00941039 53009,
DCA,2013-11-19 21:52,46.04,24.98,43.34,340.00,9.00,0.00,30.25,1024.10,10.00,M,FEW,SCT,None,None,20000.00,25000.00,M,M,M,KDCA 192152Z 34009KT 10SM FEW200 SCT250 08/M04 A3025 RMK AO2 SLP241 T00781039,
DCA,2013-11-19 22:52,46.04,24.98,43.34,340.00,13.00,0.00,30.28,1025.20,10.00,M,BKN,None,None,None,25000.00,M,M,M,M,KDCA 192252Z 34013KT 10SM BKN250 08/M04 A3028 RMK AO2 SLP252 T00781039 $,
DCA,2013-11-19 23:52,44.96,24.98,45.15,330.00,12.00,0.00,30.30,1025.80,10.00,M,SCT,None,None,None,25000.00,M,M,M,M,KDCA 192352Z 33012KT 10SM SCT250 07/M04 A3030 RMK AO2 SLP258 T00721039 10106 20067 51025,
DCA,2013-11-20 00:52,44.06,24.98,46.73,330.00,11.00,0.00,30.32,1026.60,10.00,M,BKN,None,None,None,25000.00,M,M,M,M,KDCA 200052Z 33011KT 10SM BKN250 07/M04 A3032 RMK AO2 SLP266 T00671039,
DCA,2013-11-20 01:52,42.98,24.08,46.91,340.00,12.00,0.00,30.34,1027.40,10.00,M,BKN,None,None,None,25000.00,M,M,M,M,KDCA 200152Z 34012KT 10SM BKN250 06/M04 A3034 RMK AO2 SLP274 T00611044,
DCA,2013-11-20 02:52,42.08,24.08,48.56,350.00,11.00,0.00,30.36,1028.10,10.00,M,BKN,None,None,None,25000.00,M,M,M,M,KDCA 200252Z 35011KT 10SM BKN250 06/M04 A3036 RMK AO2 SLP281 T00561044 51023,
DCA,2013-11-20 03:52,42.08,24.08,48.56,360.00,12.00,0.00,30.38,1028.80,10.00,16.00,OVC,None,None,None,20000.00,M,M,M,M,KDCA 200352Z 36012G16KT 10SM OVC200 06/M04 A3038 RMK AO2 SLP288 T00561044,
DCA,2013-11-20 04:52,42.08,23.00,46.41,10.00,13.00,0.00,30.39,1028.90,10.00,M,OVC,None,None,None,20000.00,M,M,M,M,KDCA 200452Z 01013KT 10SM OVC200 06/M05 A3039 RMK AO2 SLP289 T00561050 401110050,
DCA,2013-11-20 05:52,39.92,21.92,48.21,20.00,11.00,0.00,30.40,1029.30,10.00,M,OVC,None,None,None,20000.00,M,M,M,M,KDCA 200552Z 02011KT 10SM OVC200 04/M06 A3040 RMK AO2 SLP293 T00441056 10072 20044 51012,
DCA,2013-11-20 06:52,37.94,21.92,52.09,350.00,10.00,0.00,30.42,1030.00,10.00,M,OVC,None,None,None,20000.00,M,M,M,M,KDCA 200652Z 35010KT 10SM OVC200 03/M06 A3042 RMK AO2 SLP300 T00331056,
DCA,2013-11-20 07:52,37.94,21.92,52.09,350.00,9.00,0.00,30.43,1030.40,10.00,M,BKN,None,None,None,20000.00,M,M,M,M,KDCA 200752Z 35009KT 10SM BKN200 03/M06 A3043 RMK AO2 SLP304 T00331056,
DCA,2013-11-20 08:52,37.94,23.00,54.51,360.00,7.00,0.00,30.46,1031.30,10.00,M,OVC,None,None,None,20000.00,M,M,M,M,KDCA 200852Z 36007KT 10SM OVC200 03/M05 A3046 RMK AO2 SLP313 T00331050 53019,
DCA,2013-11-20 09:52,37.94,21.92,52.09,10.00,9.00,0.00,30.47,1031.70,10.00,M,BKN,None,None,None,20000.00,M,M,M,M,KDCA 200952Z 01009KT 10SM BKN200 03/M06 A3047 RMK AO2 SLP317 T00331056,
DCA,2013-11-20 10:52,37.94,21.92,52.09,360.00,6.00,0.00,30.49,1032.50,10.00,M,BKN,None,None,None,20000.00,M,M,M,M,KDCA 201052Z 36006KT 10SM BKN200 03/M06 A3049 RMK AO2 SLP325 T00331056,
DCA,2013-11-20 11:52,37.94,21.92,52.09,20.00,10.00,0.00,30.51,1033.10,10.00,M,BKN,BKN,None,None,15000.00,20000.00,M,M,M,KDCA 201152Z 02010KT 10SM BKN150 BKN200 03/M06 A3051 RMK AO2 SLP331 T00331056 10044 20022 53019,
DCA,2013-11-20 12:52,37.94,23.00,54.51,30.00,8.00,0.00,30.53,1033.80,10.00,M,SCT,BKN,None,None,16000.00,21000.00,M,M,M,KDCA 201252Z 03008KT 10SM SCT160 BKN210 03/M05 A3053 RMK AO2 SLP338 T00331050,
DCA,2013-11-20 13:52,37.94,23.00,54.51,40.00,11.00,0.00,30.55,1034.60,10.00,M,FEW,OVC,None,None,16000.00,22000.00,M,M,M,KDCA 201352Z 04011KT 10SM FEW160 OVC220 03/M05 A3055 RMK AO2 SLP346 T00331050,
DCA,2013-11-20 14:52,41.00,24.08,50.63,40.00,6.00,0.00,30.58,1035.30,10.00,M,FEW,OVC,None,None,17000.00,24000.00,M,M,M,KDCA 201452Z 04006KT 10SM FEW170 OVC240 05/M04 A3058 RMK AO2 SLP353 T00501044 53022,
DCA,2013-11-20 15:52,42.08,24.08,48.56,60.00,7.00,0.00,30.58,1035.30,10.00,M,FEW,OVC,None,None,17000.00,25000.00,M,M,M,KDCA 201552Z 06007KT 10SM FEW170 OVC250 06/M04 A3058 RMK AO2 SLP353 T00561044,
DCA,2013-11-20 16:52,44.96,24.08,43.49,40.00,7.00,0.00,30.55,1034.50,10.00,M,BKN,None,None,None,25000.00,M,M,M,M,KDCA 201652Z 04007KT 10SM BKN250 07/M04 A3055 RMK AO2 SLP345 T00721044,
DCA,2013-11-20 17:52,46.94,24.08,40.35,50.00,6.00,0.00,30.53,1033.80,10.00,M,SCT,None,None,None,25000.00,M,M,M,M,KDCA 201752Z 05006KT 10SM SCT250 08/M04 A3053 RMK AO2 SLP338 T00831044 10083 20028 58015,
DCA,2013-11-20 18:52,48.92,24.08,37.46,50.00,8.00,0.00,30.51,1033.00,10.00,M,FEW,None,None,None,25000.00,M,M,M,M,KDCA 201852Z 05008KT 10SM FEW250 09/M04 A3051 RMK AO2 SLP330 T00941044,
DCA,2013-11-20 19:52,48.02,26.06,42.07,90.00,6.00,0.00,30.50,1032.80,10.00,M,FEW,None,None,None,25000.00,M,M,M,M,KDCA 201952Z 09006KT 10SM FEW250 09/M03 A3050 RMK AO2 SLP328 T00891033,
DCA,2013-11-20 20:52,46.94,26.96,45.48,80.00,9.00,0.00,30.51,1033.20,10.00,M,FEW,None,None,None,25000.00,M,M,M,M,KDCA 202052Z 08009KT 10SM FEW250 08/M03 A3051 RMK AO2 SLP332 T00831028 55007,
DCA,2013-11-20 21:52,44.06,28.04,53.03,70.00,10.00,0.00,30.52,1033.50,10.00,M,SCT,None,None,None,25000.00,M,M,M,M,KDCA 202152Z 07010KT 10SM SCT250 07/M02 A3052 RMK AO2 SLP335 T00671022,
DCA,2013-11-20 22:52,42.08,26.06,52.73,60.00,6.00,0.00,30.54,1034.00,10.00,M,BKN,None,None,None,25000.00,M,M,M,M,KDCA 202252Z 06006KT 10SM BKN250 06/M03 A3054 RMK AO2 SLP340 T00561033,
DCA,2013-11-20 23:52,42.08,24.98,50.42,70.00,5.00,0.00,30.55,1034.40,10.00,M,BKN,None,None,None,25000.00,M,M,M,M,KDCA 202352Z 07005KT 10SM BKN250 06/M04 A3055 RMK AO2 SLP344 T00561039 10094 20050 53013,
DCA,2013-11-21 00:52,41.00,24.98,52.56,70.00,6.00,0.00,30.55,1034.50,10.00,M,BKN,None,None,None,25000.00,M,M,M,M,KDCA 210052Z 07006KT 10SM BKN250 05/M04 A3055 RMK AO2 SLP345 T00501039,
DCA,2013-11-21 01:52,39.92,26.96,59.50,70.00,5.00,0.00,30.56,1034.90,10.00,M,BKN,None,None,None,25000.00,M,M,M,M,KDCA 210152Z 07005KT 10SM BKN250 04/M03 A3056 RMK AO2 SLP349 T00441028,
DCA,2013-11-21 02:52,39.02,26.96,61.63,70.00,5.00,0.00,30.57,1035.00,10.00,M,BKN,None,None,None,25000.00,M,M,M,M,KDCA 210252Z 07005KT 10SM BKN250 04/M03 A3057 RMK AO2 SLP350 T00391028 52005,
DCA,2013-11-21 03:52,37.94,28.94,69.73,70.00,5.00,0.00,30.57,1035.20,10.00,M,SCT,None,None,None,25000.00,M,M,M,M,KDCA 210352Z 07005KT 10SM SCT250 03/M02 A3057 RMK AO2 SLP352 T00331017,
DCA,2013-11-21 04:52,37.94,28.94,69.73,50.00,6.00,0.00,30.57,1035.10,10.00,M,CLR,None,None,None,M,M,M,M,M,KDCA 210452Z 05006KT 10SM CLR 03/M02 A3057 RMK AO2 SLP351 T00331017 400940022,
DCA,2013-11-21 05:52,37.04,28.94,72.24,50.00,5.00,0.00,30.58,1035.40,10.00,M,FEW,None,None,None,12000.00,M,M,M,M,KDCA 210552Z 05005KT 10SM FEW120 03/M02 A3058 RMK AO2 SLP354 T00281017 10056 20028 53004,
DCA,2013-11-21 06:52,35.96,28.94,75.39,50.00,6.00,0.00,30.58,1035.50,10.00,M,CLR,None,None,None,M,M,M,M,M,KDCA 210652Z 05006KT 10SM CLR 02/M02 A3058 RMK AO2 SLP355 T00221017,
DCA,2013-11-21 07:52,35.96,28.94,75.39,60.00,6.00,0.00,30.57,1034.90,10.00,M,CLR,None,None,None,M,M,M,M,M,KDCA 210752Z 06006KT 10SM CLR 02/M02 A3057 RMK AO2 SLP349 T00221017,
DCA,2013-11-21 08:52,35.96,28.94,75.39,30.00,6.00,0.00,30.56,1034.80,10.00,M,CLR,None,None,None,M,M,M,M,M,KDCA 210852Z 03006KT 10SM CLR 02/M02 A3056 RMK AO2 SLP348 T00221017 58005,
DCA,2013-11-21 09:52,35.96,28.04,72.66,30.00,6.00,0.00,30.57,1035.00,10.00,M,FEW,None,None,None,12000.00,M,M,M,M,KDCA 210952Z 03006KT 10SM FEW120 02/M02 A3057 RMK AO2 SLP350 T00221022,
DCA,2013-11-21 10:52,37.94,28.04,67.21,40.00,5.00,0.00,30.57,1035.00,10.00,M,BKN,None,None,None,6000.00,M,M,M,M,KDCA 211052Z 04005KT 10SM BKN060 03/M02 A3057 RMK AO2 SLP350 T00331022,
DCA,2013-11-21 11:52,37.94,28.94,69.73,40.00,4.00,0.00,30.57,1035.00,10.00,M,OVC,None,None,None,6000.00,M,M,M,M,KDCA 211152Z 04004KT 10SM OVC060 03/M02 A3057 RMK AO2 SLP350 T00331017 10039 20022 50001,
DCA,2013-11-21 12:52,39.02,28.04,64.43,50.00,5.00,0.00,30.57,1035.00,10.00,M,BKN,OVC,None,None,5500.00,6500.00,M,M,M,KDCA 211252Z 05005KT 10SM BKN055 OVC065 04/M02 A3057 RMK AO2 SLP350 BINOVC T00391022,
DCA,2013-11-21 13:52,41.00,28.94,61.89,40.00,3.00,0.00,30.57,1035.20,10.00,M,BKN,BKN,OVC,None,4600.00,6500.00,25000.00,M,M,KDCA 211352Z 04003KT 10SM BKN046 BKN065 OVC250 05/M02 A3057 RMK AO2 SLP352 T00501017,
DCA,2013-11-21 14:52,42.98,30.02,59.93,30.00,3.00,0.00,30.58,1035.30,10.00,M,BKN,BKN,OVC,None,4200.00,6500.00,25000.00,M,M,KDCA 211452Z 03003KT 10SM BKN042 BKN065 OVC250 06/M01 A3058 RMK AO2 SLP353 T00611011 53003,
DCA,2013-11-21 15:52,44.96,30.92,57.63,70.00,4.00,0.00,30.55,1034.50,10.00,M,BKN,OVC,None,None,3800.00,6000.00,M,M,M,KDCA 211552Z 07004KT 10SM BKN038 OVC060 07/M01 A3055 RMK AO2 SLP345 BINOVC T00721006,
DCA,2013-11-21 16:52,46.94,32.00,55.85,70.00,3.00,0.00,30.53,1033.80,10.00,M,OVC,None,None,None,3600.00,M,M,M,M,KDCA 211652Z 07003KT 10SM OVC036 08/00 A3053 RMK AO2 SLP338 T00830000,
DCA,2013-11-21 17:52,48.02,33.08,56.01,0.00,0.00,0.00,30.50,1032.80,10.00,M,OVC,None,None,None,3600.00,M,M,M,M,KDCA 211752Z 00000KT 10SM OVC036 09/01 A3050 RMK AO2 SLP328 OCNL BINOVC T00890006 10094 20033 58025,
DCA,2013-11-21 18:52,48.92,33.98,56.14,50.00,3.00,0.00,30.48,1032.20,10.00,M,BKN,OVC,None,None,3800.00,5500.00,M,M,M,KDCA 211852Z 05003KT 10SM BKN038 OVC055 09/01 A3048 RMK AO2 SLP322 BINOVC S T00940011,
DCA,2013-11-21 19:52,50.00,35.96,58.34,0.00,0.00,0.00,30.47,1031.60,10.00,M,FEW,BKN,OVC,None,3800.00,5500.00,8000.00,M,M,KDCA 211952Z 00000KT 10SM FEW038 BKN055 OVC080 10/02 A3047 RMK AO2 SLP316 BINOVC T01000022,
DCA,2013-11-21 20:52,50.00,37.04,60.89,50.00,3.00,0.00,30.45,1031.20,10.00,M,BKN,BKN,BKN,None,3400.00,5500.00,8000.00,M,M,KDCA 212052Z 05003KT 10SM BKN034 BKN055 BKN080 10/03 A3045 RMK AO2 SLP312 T01000028 56015,
DCA,2013-11-21 21:52,50.00,35.96,58.34,0.00,0.00,0.00,30.45,1031.10,10.00,M,BKN,BKN,None,None,3200.00,8000.00,M,M,M,KDCA 212152Z 00000KT 10SM BKN032 BKN080 10/02 A3045 RMK AO2 SLP311 T01000022,
DCA,2013-11-21 22:52,50.00,35.96,58.34,0.00,0.00,0.00,30.46,1031.40,10.00,M,BKN,BKN,None,None,3000.00,8000.00,M,M,M,KDCA 212252Z 00000KT 10SM BKN030 BKN080 10/02 A3046 RMK AO2 SLP314 T01000022,
DCA,2013-11-21 23:52,50.00,37.94,63.08,0.00,0.00,0.00,30.46,1031.30,10.00,M,BKN,BKN,None,None,3400.00,8000.00,M,M,M,KDCA 212352Z 00000KT 10SM BKN034 BKN080 10/03 A3046 RMK AO2 SLP313 T01000033 10106 20089 53001,
DCA,2013-11-22 00:52,50.00,37.94,63.08,0.00,0.00,0.00,30.44,1030.80,10.00,M,BKN,BKN,None,None,3200.00,8000.00,M,M,M,KDCA 220052Z 00000KT 10SM BKN032 BKN080 10/03 A3044 RMK AO2 SLP308 T01000033,
DCA,2013-11-22 01:52,48.92,39.92,70.95,170.00,3.00,0.00,30.43,1030.40,10.00,M,SCT,SCT,None,None,3800.00,8000.00,M,M,M,KDCA 220152Z 17003KT 10SM SCT038 SCT080 09/04 A3043 RMK AO2 SLP304 T00940044,
DCA,2013-11-22 02:52,48.02,39.92,73.39,0.00,0.00,0.00,30.43,1030.40,10.00,M,FEW,SCT,SCT,None,3800.00,8000.00,25000.00,M,M,KDCA 220252Z 00000KT 10SM FEW038 SCT080 SCT250 09/04 A3043 RMK AO2 SLP304 T00890044 56009,
DCA,2013-11-22 03:27,46.40,41.00,81.34,0.00,0.00,0.00,30.43,M,10.00,M,SCT,BKN,BKN,None,3100.00,6000.00,25000.00,M,M,KDCA 220327Z 00000KT 10SM SCT031 BKN060 BKN250 08/05 A3043 RMK AO2,
DCA,2013-11-22 03:52,46.94,39.92,76.43,0.00,0.00,0.00,30.42,1030.20,10.00,M,FEW,BKN,BKN,None,3100.00,6000.00,25000.00,M,M,KDCA 220352Z 00000KT 10SM FEW031 BKN060 BKN250 08/04 A3042 RMK AO2 SLP302 T00830044,
DCA,2013-11-22 04:50,48.20,39.20,70.88,0.00,0.00,0.00,30.42,M,10.00,M,BKN,OVC,None,None,2900.00,7500.00,M,M,M,KDCA 220450Z 00000KT 10SM BKN029 OVC075 09/04 A3042 RMK AO2 401060022,
DCA,2013-11-22 04:52,48.02,39.02,70.86,0.00,0.00,0.00,30.42,1030.00,10.00,M,BKN,OVC,None,None,2900.00,7500.00,M,M,M,KDCA 220452Z 00000KT 10SM BKN029 OVC075 09/04 A3042 RMK AO2 SLP300 T00890039 401060022,
DCA,2013-11-22 05:06,46.40,41.00,81.34,170.00,3.00,0.00,30.41,M,10.00,M,SCT,OVC,None,None,2900.00,7500.00,M,M,M,KDCA 220506Z 17003KT 10SM SCT029 OVC075 08/05 A3041 RMK AO2,
DCA,2013-11-22 05:52,46.94,42.08,83.09,190.00,4.00,0.00,30.39,1028.90,10.00,M,FEW,OVC,None,None,5000.00,8500.00,M,M,M,KDCA 220552Z 19004KT 10SM FEW050 OVC085 08/06 A3039 RMK AO2 SLP289 T00830056 10100 20083 58013,
DCA,2013-11-22 06:52,46.94,39.02,73.79,190.00,6.00,0.00,30.36,1028.20,10.00,M,FEW,OVC,None,None,5500.00,9000.00,M,M,M,KDCA 220652Z 19006KT 10SM FEW055 OVC090 08/04 A3036 RMK AO2 SLP282 T00830039,
DCA,2013-11-22 07:52,46.94,41.00,79.70,180.00,5.00,0.00,30.34,1027.30,10.00,M,SCT,BKN,OVC,None,5000.00,7500.00,9000.00,M,M,KDCA 220752Z 18005KT 10SM SCT050 BKN075 OVC090 08/05 A3034 RMK AO2 SLP273 T00830050,
DCA,2013-11-22 08:52,46.94,39.92,76.43,180.00,4.00,0.00,30.31,1026.40,10.00,M,SCT,None,None,None,9000.00,M,M,M,M,KDCA 220852Z 18004KT 10SM SCT090 08/04 A3031 RMK AO2 SLP264 T00830044 58025,
DCA,2013-11-22 09:52,46.94,39.92,76.43,180.00,4.00,0.00,30.29,1025.80,10.00,M,FEW,BKN,None,None,1600.00,9000.00,M,M,M,KDCA 220952Z 18004KT 10SM FEW016 BKN090 08/04 A3029 RMK AO2 SLP258 T00830044,
DCA,2013-11-22 10:03,46.40,39.20,75.84,190.00,5.00,0.00,30.29,M,10.00,M,BKN,BKN,None,None,1600.00,8500.00,M,M,M,KDCA 221003Z 19005KT 10SM BKN016 BKN085 08/04 A3029 RMK AO2,
DCA,2013-11-22 10:28,46.40,39.20,75.84,180.00,7.00,0.00,30.27,M,10.00,M,SCT,OVC,None,None,1600.00,8000.00,M,M,M,KDCA 221028Z 18007KT 10SM SCT016 OVC080 08/04 A3027 RMK AO2,
DCA,2013-11-22 10:52,46.94,39.92,76.43,190.00,6.00,0.00,30.27,1025.00,10.00,M,FEW,None,None,None,8000.00,M,M,M,M,KDCA 221052Z 19006KT 10SM FEW080 08/04 A3027 RMK AO2 SLP250 T00830044,
DCA,2013-11-22 11:52,48.02,41.00,76.53,180.00,6.00,0.00,30.26,1024.70,10.00,M,FEW,SCT,OVC,None,2000.00,7000.00,12000.00,M,M,KDCA 221152Z 18006KT 10SM FEW020 SCT070 OVC120 09/05 A3026 RMK AO2 SLP247 T00890050 10089 20083 56017,
DCA,2013-11-22 12:52,48.92,42.98,79.86,180.00,7.00,0.00,30.25,1024.20,10.00,M,FEW,SCT,OVC,None,2800.00,7500.00,10000.00,M,M,KDCA 221252Z 18007KT 10SM FEW028 SCT075 OVC100 09/06 A3025 RMK AO2 RAB35E49 SLP242 BINOVC P0000 T00940061,
DCA,2013-11-22 13:52,51.08,44.06,76.80,180.00,7.00,0.00,30.23,1023.80,10.00,M,BKN,OVC,None,None,7500.00,10000.00,M,M,M,KDCA 221352Z 18007KT 10SM BKN075 OVC100 11/07 A3023 RMK AO2 SLP238 OCNL BINOVC T01060067,
DCA,2013-11-22 14:52,51.98,44.06,74.29,190.00,4.00,0.00,30.24,1023.90,10.00,M,BKN,OVC,None,None,6500.00,10000.00,M,M,M,KDCA 221452Z 19004KT 10SM BKN065 OVC100 11/07 A3024 RMK AO2 SLP239 60000 T01110067 55008,
DCA,2013-11-22 15:52,53.96,44.96,71.49,170.00,4.00,0.00,30.21,1022.80,10.00,M,BKN,OVC,None,None,7000.00,11000.00,M,M,M,KDCA 221552Z 17004KT 10SM BKN070 OVC110 12/07 A3021 RMK AO2 SLP228 T01220072,
DCA,2013-11-22 16:52,57.92,46.04,64.52,0.00,0.00,0.00,30.17,1021.50,10.00,M,BKN,OVC,None,None,6000.00,12000.00,M,M,M,KDCA 221652Z 00000KT 10SM BKN060 OVC120 14/08 A3017 RMK AO2 RAB28E39 SLP215 BINOVC P0000 T01440078,
DCA,2013-11-22 17:52,59.00,46.94,64.22,0.00,0.00,0.00,30.14,1020.50,10.00,M,FEW,BKN,OVC,None,8000.00,10000.00,12000.00,M,M,KDCA 221752Z 00000KT 10SM FEW080 BKN100 OVC120 15/08 A3014 RMK AO2 SLP205 60000 T01500083 10156 20089 56034,
DCA,2013-11-22 18:52,60.08,50.00,69.29,160.00,4.00,0.00,30.11,1019.50,10.00,M,FEW,BKN,OVC,None,6000.00,7500.00,12000.00,M,M,KDCA 221852Z 16004KT 10SM FEW060 BKN075 OVC120 16/10 A3011 RMK AO2 SLP195 T01560100,
DCA,2013-11-22 19:52,60.08,50.00,69.29,180.00,7.00,0.00,30.08,1018.60,10.00,M,SCT,OVC,None,None,5500.00,7000.00,M,M,M,KDCA 221952Z 18007KT 10SM SCT055 OVC070 16/10 A3008 RMK AO2 SLP186 T01560100,
DCA,2013-11-22 20:52,59.00,50.00,72.01,190.00,4.00,0.00,30.07,1018.30,10.00,M,SCT,BKN,OVC,None,6000.00,8000.00,9500.00,M,M,KDCA 222052Z 19004KT 10SM SCT060 BKN080 OVC095 15/10 A3007 RMK AO2 SLP183 T01500100 56022,
DCA,2013-11-22 21:52,59.00,50.00,72.01,180.00,4.00,0.00,30.05,1017.50,10.00,M,BKN,BKN,OVC,None,6500.00,9000.00,11000.00,M,M,KDCA 222152Z 18004KT 10SM BKN065 BKN090 OVC110 15/10 A3005 RMK AO2 RAB19E48 SLP175 P0000 T01500100,
DCA,2013-11-22 22:52,60.98,51.98,72.22,0.00,0.00,0.00,30.04,1017.10,10.00,M,OVC,None,None,None,6000.00,M,M,M,M,KDCA 222252Z 00000KT 10SM OVC060 16/11 A3004 RMK AO2 RAB15E24 SLP171 P0000 T01610111,
DCA,2013-11-22 23:52,57.02,51.08,80.49,0.00,0.00,0.00,30.02,1016.60,10.00,M,BKN,BKN,None,None,6000.00,9000.00,M,M,M,KDCA 222352Z 00000KT 10SM BKN060 BKN090 14/11 A3002 RMK AO2 SLP166 60000 T01390106 10161 20139 56017,
DCA,2013-11-23 00:52,57.02,51.98,83.21,0.00,0.00,0.00,30.01,1016.40,10.00,M,BKN,OVC,None,None,5500.00,7500.00,M,M,M,KDCA 230052Z 00000KT 10SM BKN055 OVC075 14/11 A3001 RMK AO2 SLP164 T01390111,
DCA,2013-11-23 01:52,59.00,51.08,74.96,350.00,4.00,0.00,30.03,1016.80,10.00,M,BKN,OVC,None,None,4700.00,5500.00,M,M,M,KDCA 230152Z 35004KT 10SM BKN047 OVC055 15/11 A3003 RMK AO2 SLP168 T01500106,
DCA,2013-11-23 02:52,57.02,50.00,77.32,0.00,0.00,0.00,30.03,1016.70,10.00,M,SCT,BKN,None,None,4500.00,9500.00,M,M,M,KDCA 230252Z 00000KT 10SM SCT045 BKN095 14/10 A3003 RMK AO2 SLP167 T01390100 53001,
DCA,2013-11-23 03:52,62.06,50.00,64.59,330.00,9.00,0.00,30.03,1016.70,10.00,M,FEW,OVC,None,None,4500.00,9500.00,M,M,M,KDCA 230352Z 33009KT 10SM FEW045 OVC095 17/10 A3003 RMK AO2 SLP167 T01670100,
DCA,2013-11-23 04:52,60.08,48.02,64.35,330.00,11.00,0.00,30.03,1016.90,10.00,24.00,FEW,BKN,None,None,4500.00,15000.00,M,M,M,KDCA 230452Z AUTO 33011G24KT 10SM FEW045 BKN150 16/09 A3003 RMK AO2 SLP169 T01560089 401720083,
DCA,2013-11-23 05:52,57.02,44.96,63.97,330.00,20.00,0.00,30.05,1017.60,10.00,27.00,FEW,SCT,None,None,4500.00,15000.00,M,M,M,KDCA 230552Z 33020G27KT 10SM FEW045 SCT150 14/07 A3005 RMK AO2 PK WND 34027/0552 SLP176 T01390072 10172 20128 53009,
DCA,2013-11-23 06:52,53.96,41.00,61.41,330.00,18.00,0.00,30.08,1018.60,10.00,24.00,FEW,SCT,None,None,3000.00,10000.00,M,M,M,KDCA 230652Z 33018G24KT 10SM FEW030 SCT100 12/05 A3008 RMK AO2 PK WND 32028/0609 SLP186 T01220050,
DCA,2013-11-23 07:52,51.98,37.94,58.62,340.00,15.00,0.00,30.09,1019.00,10.00,24.00,FEW,BKN,None,None,7000.00,15000.00,M,M,M,KDCA 230752Z 34015G24KT 10SM FEW070 BKN150 11/03 A3009 RMK AO2 PK WND 34031/0725 SLP190 T01110033,
DCA,2013-11-23 08:52,50.00,33.98,53.92,330.00,17.00,0.00,30.10,1019.10,10.00,25.00,SCT,None,None,None,15000.00,M,M,M,M,KDCA 230852Z 33017G25KT 10SM SCT150 10/01 A3010 RMK AO2 PK WND 32029/0832 SLP191 T01000011 51014,
DCA,2013-11-23 09:52,48.02,30.02,49.50,330.00,17.00,0.00,30.11,1019.70,10.00,23.00,FEW,BKN,None,None,15000.00,25000.00,M,M,M,KDCA 230952Z 33017G23KT 10SM FEW150 BKN250 09/M01 A3011 RMK AO2 PK WND 33027/0921 SLP197 T00891011,
DCA,2013-11-23 10:52,44.96,28.94,53.17,330.00,13.00,0.00,30.13,1020.30,10.00,21.00,FEW,BKN,None,None,15000.00,25000.00,M,M,M,KDCA 231052Z 33013G21KT 10SM FEW150 BKN250 07/M02 A3013 RMK AO2 PK WND 33026/1039 SLP203 T00721017,
DCA,2013-11-23 11:52,44.06,26.96,50.73,340.00,12.00,0.00,30.15,1021.00,10.00,21.00,SCT,SCT,None,None,15000.00,25000.00,M,M,M,KDCA 231152Z 34012G21KT 10SM SCT150 SCT250 07/M03 A3015 RMK AO2 SLP210 T00671028 10139 20067 53019,
DCA,2013-11-23 12:52,42.98,26.96,52.87,340.00,12.00,0.00,30.17,1021.50,10.00,20.00,FEW,SCT,None,None,15000.00,25000.00,M,M,M,KDCA 231252Z 34012G20KT 10SM FEW150 SCT250 06/M03 A3017 RMK AO2 SLP215 T00611028,
DCA,2013-11-23 13:52,44.96,26.06,47.23,340.00,12.00,0.00,30.17,1021.60,10.00,M,FEW,SCT,None,None,15000.00,25000.00,M,M,M,KDCA 231352Z 34012KT 10SM FEW150 SCT250 07/M03 A3017 RMK AO2 SLP216 T00721033,
DCA,2013-11-23 14:52,48.02,24.98,40.22,320.00,12.00,0.00,30.16,1021.30,10.00,M,SCT,BKN,None,None,15000.00,25000.00,M,M,M,KDCA 231452Z 32012KT 10SM SCT150 BKN250 09/M04 A3016 RMK AO2 SLP213 T00891039 50003,
DCA,2013-11-23 15:52,48.02,23.00,37.03,330.00,13.00,0.00,30.15,1021.00,10.00,18.00,SCT,BKN,None,None,15000.00,25000.00,M,M,M,KDCA 231552Z 33013G18KT 10SM SCT150 BKN250 09/M05 A3015 RMK AO2 SLP210 T00891050,
DCA,2013-11-23 16:52,50.00,23.00,34.39,330.00,13.00,0.00,30.13,1020.10,10.00,20.00,FEW,BKN,None,None,15000.00,25000.00,M,M,M,KDCA 231652Z 33013G20KT 10SM FEW150 BKN250 10/M05 A3013 RMK AO2 SLP201 T01001050,
DCA,2013-11-23 17:52,50.00,23.00,34.39,330.00,11.00,0.00,30.09,1019.00,10.00,M,BKN,BKN,None,None,15000.00,25000.00,M,M,M,KDCA 231752Z 33011KT 10SM BKN150 BKN250 10/M05 A3009 RMK AO2 SLP190 T01001050 10100 20056 58022,
DCA,2013-11-23 18:52,51.08,19.04,27.93,290.00,12.00,0.00,30.06,1018.00,10.00,17.00,BKN,BKN,None,None,15000.00,25000.00,M,M,M,KDCA 231852Z 29012G17KT 10SM BKN150 BKN250 11/M07 A3006 RMK AO2 SLP180 T01061072,
DCA,2013-11-23 19:52,48.92,21.02,32.93,330.00,14.00,0.00,30.06,1018.00,10.00,19.00,FEW,BKN,BKN,None,5000.00,14000.00,18000.00,M,M,KDCA 231952Z 33014G19KT 10SM FEW050 BKN140 BKN180 09/M06 A3006 RMK AO2 SLP180 T00941061,
DCA,2013-11-23 20:52,48.02,23.00,37.03,320.00,9.00,0.00,30.06,1017.80,10.00,M,FEW,SCT,BKN,None,5000.00,14000.00,19000.00,M,M,KDCA 232052Z 32009KT 10SM FEW050 SCT140 BKN190 09/M05 A3006 RMK AO2 SLP178 T00891050 56012,
DCA,2013-11-23 21:52,46.94,19.94,33.88,330.00,16.00,0.00,30.06,1017.80,10.00,24.00,FEW,BKN,None,None,5000.00,18000.00,M,M,M,KDCA 232152Z 33016G24KT 10SM FEW050 BKN180 08/M07 A3006 RMK AO2 SLP178 T00831067,
DCA,2013-11-23 22:52,46.04,19.04,33.73,320.00,15.00,0.00,30.08,1018.50,10.00,24.00,SCT,BKN,None,None,18000.00,25000.00,M,M,M,KDCA 232252Z 32015G24KT 10SM SCT180 BKN250 08/M07 A3008 RMK AO2 SLP185 T00781072,
DCA,2013-11-23 23:52,44.96,15.08,29.61,310.00,18.00,0.00,30.10,1019.30,10.00,27.00,FEW,BKN,None,None,18000.00,24000.00,M,M,M,KDCA 232352Z 31018G27KT 10SM FEW180 BKN240 07/M09 A3010 RMK AO2 PK WND 32034/2312 SLP193 T00721094 10111 20072 53014,
DCA,2013-11-24 00:52,42.98,17.06,34.81,310.00,11.00,0.00,30.12,1019.90,10.00,20.00,SCT,BKN,None,None,5000.00,23000.00,M,M,M,KDCA 240052Z 31011G20KT 10SM SCT050 BKN230 06/M08 A3012 RMK AO2 PK WND 29032/0024 SLP199 T00611083,
DCA,2013-11-24 01:52,41.00,17.96,39.05,290.00,16.00,0.00,30.14,1020.50,10.00,23.00,FEW,OVC,None,None,6000.00,8500.00,M,M,M,KDCA 240152Z 29016G23KT 10SM FEW060 OVC085 05/M08 A3014 RMK AO2 PK WND 29030/0122 SLP205 T00501078,
DCA,2013-11-24 02:34,37.40,23.00,55.68,340.00,17.00,0.00,30.17,M,10.00,28.00,FEW,SCT,BKN,None,5000.00,6000.00,9000.00,M,-SN,KDCA 240234Z 34017G28KT 10SM -SN FEW050 SCT060 BKN090 03/M05 A3017 RMK AO2 PK WND 35028/0225 SNB33 P0000,
DCA,2013-11-24 02:52,35.96,24.98,64.03,340.00,17.00,0.00,30.18,1021.90,5.00,30.00,SCT,BKN,OVC,None,4000.00,5000.00,6000.00,M,-SN,KDCA 240252Z 34017G30KT 5SM -SN SCT040 BKN050 OVC060 02/M04 A3018 RMK AO2 PK WND 35030/0246 SNB33 SLP219 P0000 60000 T00221039 53027,
DCA,2013-11-24 03:00,35.60,24.80,64.46,330.00,14.00,0.00,30.18,M,10.00,21.00,SCT,BKN,OVC,None,3500.00,4200.00,9000.00,M,M,KDCA 240300Z 33014G21KT 10SM SCT035 BKN042 OVC090 02/M04 A3018 RMK AO2 SNE0259 P0000,
DCA,2013-11-24 03:52,35.06,15.08,43.52,320.00,15.00,0.00,30.21,1022.70,10.00,23.00,FEW,SCT,None,None,4600.00,9000.00,M,M,M,KDCA 240352Z 32015G23KT 10SM FEW046 SCT090 02/M09 A3021 RMK AO2 PK WND 35028/0307 SNE0259 SLP227 P0000 T00171094,
DCA,2013-11-24 04:52,33.98,10.94,37.86,330.00,15.00,0.00,30.23,1023.50,10.00,24.00,SCT,SCT,None,None,4600.00,8000.00,M,M,M,KDCA 240452Z 33015G24KT 10SM SCT046 SCT080 01/M12 A3023 RMK AO2 PK WND 33028/0434 SLP235 T00111117 401500011,
DCA,2013-11-24 05:52,32.00,6.98,34.31,330.00,21.00,0.00,30.23,1023.50,10.00,29.00,FEW,None,None,None,6000.00,M,M,M,M,KDCA 240552Z 33021G29KT 10SM FEW060 00/M14 A3023 RMK AO2 PK WND 32035/0507 SLP235 60000 T00001139 10072 20000 51016,
DCA,2013-11-24 06:52,30.92,6.08,34.40,310.00,18.00,0.00,30.26,1024.70,10.00,28.00,FEW,None,None,None,6000.00,M,M,M,M,KDCA 240652Z 31018G28KT 10SM FEW060 M01/M14 A3026 RMK AO2 PK WND 33033/0602 SLP247 T10061144,
DCA,2013-11-24 07:52,28.94,-0.04,28.10,320.00,20.00,0.00,30.28,1025.40,10.00,30.00,CLR,None,None,None,M,M,M,M,M,KDCA 240752Z 32020G30KT 10SM CLR M02/M18 A3028 RMK AO2 PK WND 33037/0710 SLP254 T10171178,
DCA,2013-11-24 08:52,28.04,1.04,30.67,320.00,12.00,0.00,30.29,1025.50,10.00,19.00,CLR,None,None,None,M,M,M,M,M,KDCA 240852Z 32012G19KT 10SM CLR M02/M17 A3029 RMK AO2 PK WND 32032/0802 SLP255 T10221172 51020,
DCA,2013-11-24 09:52,26.96,1.04,32.06,320.00,12.00,0.00,30.31,1026.10,10.00,25.00,CLR,None,None,None,M,M,M,M,M,KDCA 240952Z 32012G25KT 10SM CLR M03/M17 A3031 RMK AO2 PK WND 29028/0903 SLP261 T10281172,
DCA,2013-11-24 10:52,26.96,3.02,35.15,320.00,14.00,0.00,30.33,1027.00,10.00,25.00,FEW,None,None,None,5000.00,M,M,M,M,KDCA 241052Z 32014G25KT 10SM FEW050 M03/M16 A3033 RMK AO2 PK WND 34037/1002 SLP270 T10281161,
DCA,2013-11-24 11:52,26.06,3.02,36.48,320.00,10.00,0.00,30.37,1028.20,10.00,22.00,FEW,None,None,None,4000.00,M,M,M,M,KDCA 241152Z 32010G22KT 10SM FEW040 M03/M16 A3037 RMK AO2 PK WND 33027/1106 SLP282 T10331161 10000 21033 53026,
DCA,2013-11-24 12:52,26.96,3.92,36.64,300.00,13.00,0.00,30.38,1028.70,10.00,24.00,FEW,None,None,None,4500.00,M,M,M,M,KDCA 241252Z 30013G24KT 10SM FEW045 M03/M16 A3038 RMK AO2 SLP287 T10281156,
DCA,2013-11-24 13:52,28.04,5.00,36.83,310.00,13.00,0.00,30.41,1029.70,10.00,27.00,SCT,None,None,None,4500.00,M,M,M,M,KDCA 241352Z 31013G27KT 10SM SCT045 M02/M15 A3041 RMK AO2 PK WND 31027/1345 SLP297 T10221150,
DCA,2013-11-24 14:52,30.02,5.00,33.97,330.00,15.00,0.00,30.43,1030.20,10.00,34.00,BKN,None,None,None,4500.00,M,M,M,M,KDCA 241452Z 33015G34KT 10SM BKN045 M01/M15 A3043 RMK AO2 PK WND 29034/1450 SLP302 T10111150 53021,
DCA,2013-11-24 15:52,32.00,3.92,29.83,330.00,16.00,0.00,30.43,1030.20,10.00,29.00,BKN,None,None,None,5000.00,M,M,M,M,KDCA 241552Z 33016G29KT 10SM BKN050 00/M16 A3043 RMK AO2 PK WND 33030/1538 SLP302 T00001156,
DCA,2013-11-24 16:52,33.98,5.00,28.96,320.00,13.00,0.00,30.42,1029.90,10.00,29.00,BKN,None,None,None,6000.00,M,M,M,M,KDCA 241652Z 32013G29KT 10SM BKN060 01/M15 A3042 RMK AO2 PK WND 34034/1632 SLP299 T00111150,
DCA,2013-11-24 17:52,33.08,3.92,28.57,330.00,17.00,0.00,30.41,1029.80,10.00,24.00,BKN,None,None,None,6500.00,M,M,M,M,KDCA 241752Z 33017G24KT 10SM BKN065 01/M16 A3041 RMK AO2 PK WND 32030/1727 SLP298 T00061156 10011 21033 58005,
DCA,2013-11-24 18:52,33.08,3.02,27.40,320.00,18.00,0.00,30.41,1029.60,10.00,28.00,FEW,None,None,None,6500.00,M,M,M,M,KDCA 241852Z 32018G28KT 10SM FEW065 01/M16 A3041 RMK AO2 PK WND 33031/1824 SLP296 T00061161,
DCA,2013-11-24 19:52,32.00,3.92,29.83,320.00,14.00,0.00,30.42,1030.00,10.00,33.00,BKN,None,None,None,6500.00,M,M,M,M,KDCA 241952Z 32014G33KT 10SM BKN065 00/M16 A3042 RMK AO2 PK WND 31033/1946 SLP300 T00001156,
DCA,2013-11-24 20:52,30.92,3.92,31.16,320.00,18.00,0.00,30.44,1030.70,10.00,28.00,BKN,None,None,None,7000.00,M,M,M,M,KDCA 242052Z 32018G28KT 10SM BKN070 M01/M16 A3044 RMK AO2 PK WND 31028/2048 SLP307 VIRGA NW-NE AND OHD T10061156 53009,
DCA,2013-11-24 21:52,30.02,6.08,35.68,320.00,13.00,0.00,30.46,1031.30,10.00,M,SCT,None,None,None,7000.00,M,M,M,M,KDCA 242152Z 32013KT 10SM SCT070 M01/M14 A3046 RMK AO2 SLP313 T10111144,
DCA,2013-11-24 22:52,30.02,5.00,33.97,320.00,6.00,0.00,30.49,1032.30,10.00,M,FEW,None,None,None,7000.00,M,M,M,M,KDCA 242252Z 32006KT 10SM FEW070 M01/M15 A3049 RMK AO2 SLP323 T10111150,
DCA,2013-11-24 23:52,28.94,5.00,35.50,310.00,10.00,0.00,30.51,1032.90,10.00,18.00,CLR,None,None,None,M,M,M,M,M,KDCA 242352Z 31010G18KT 10SM CLR M02/M15 A3051 RMK AO2 SLP329 T10171150 10011 21017 53022,
DCA,2013-11-25 00:52,28.94,5.00,35.50,310.00,9.00,0.00,30.53,1033.70,10.00,M,CLR,None,None,None,M,M,M,M,M,KDCA 250052Z 31009KT 10SM CLR M02/M15 A3053 RMK AO2 SLP337 T10171150,
DCA,2013-11-25 01:52,28.04,6.08,38.69,300.00,9.00,0.00,30.53,1033.70,10.00,17.00,CLR,None,None,None,M,M,M,M,M,KDCA 250152Z 30009G17KT 10SM CLR M02/M14 A3053 RMK AO2 SLP337 T10221144,
DCA,2013-11-25 02:52,26.96,6.98,42.14,270.00,5.00,0.00,30.54,1034.20,10.00,M,CLR,None,None,None,M,M,M,M,M,KDCA 250252Z 27005KT 10SM CLR M03/M14 A3054 RMK AO2 SLP342 T10281139 51013,
DCA,2013-11-25 03:52,26.96,6.08,40.45,M,5.00,0.00,30.55,1034.30,10.00,M,CLR,None,None,None,M,M,M,M,M,KDCA 250352Z VRB05KT 10SM CLR M03/M14 A3055 RMK AO2 SLP343 T10281144,
DCA,2013-11-25 04:52,26.96,6.08,40.45,300.00,11.00,0.00,30.54,1033.90,10.00,M,CLR,None,None,None,M,M,M,M,M,KDCA 250452Z 30011KT 10SM CLR M03/M14 A3054 RMK AO2 SLP339 T10281144 400111033,
DCA,2013-11-25 05:52,26.06,6.08,41.98,290.00,6.00,0.00,30.53,1033.80,10.00,M,CLR,None,None,None,M,M,M,M,M,KDCA 250552Z 29006KT 10SM CLR M03/M14 A3053 RMK AO2 SLP338 T10331144 11011 21039 58004,
DCA,2013-11-25 06:52,26.06,6.08,41.98,290.00,7.00,0.00,30.54,1034.00,10.00,M,CLR,None,None,None,M,M,M,M,M,KDCA 250652Z 29007KT 10SM CLR M03/M14 A3054 RMK AO2 SLP340 T10331144,
DCA,2013-11-25 07:52,24.98,6.08,43.91,330.00,8.00,0.00,30.53,1033.60,10.00,M,CLR,None,None,None,M,M,M,M,M,KDCA 250752Z 33008KT 10SM CLR M04/M14 A3053 RMK AO2 SLP336 T10391144,
DCA,2013-11-25 08:52,24.98,6.08,43.91,300.00,8.00,0.00,30.56,1034.60,10.00,M,CLR,None,None,None,M,M,M,M,M,KDCA 250852Z 30008KT 10SM CLR M04/M14 A3056 RMK AO2 SLP346 T10391144 53008,
DCA,2013-11-25 09:52,24.08,6.08,45.59,290.00,7.00,0.00,30.55,1034.30,10.00,M,CLR,None,None,None,M,M,M,M,M,KDCA 250952Z 29007KT 10SM CLR M04/M14 A3055 RMK AO2 SLP343 T10441144,
DCA,2013-11-25 10:52,24.08,6.08,45.59,290.00,5.00,0.00,30.56,1034.80,10.00,M,CLR,None,None,None,M,M,M,M,M,KDCA 251052Z 29005KT 10SM CLR M04/M14 A3056 RMK AO2 SLP348 T10441144,
DCA,2013-11-25 11:52,24.98,6.08,43.91,310.00,7.00,0.00,30.57,1035.10,10.00,M,SCT,BKN,None,None,16000.00,20000.00,M,M,M,KDCA 251152Z 31007KT 10SM SCT160 BKN200 M04/M14 A3057 RMK AO2 SLP351 T10391144 11033 21044 53005,
DCA,2013-11-25 12:52,26.96,5.00,38.50,330.00,4.00,0.00,30.59,1035.60,10.00,M,SCT,BKN,None,None,16000.00,20000.00,M,M,M,KDCA 251252Z 33004KT 10SM SCT160 BKN200 M03/M15 A3059 RMK AO2 SLP356 T10281150,
DCA,2013-11-25 13:52,28.94,6.08,37.29,200.00,3.00,0.00,30.60,1036.20,10.00,M,SCT,OVC,None,None,20000.00,25000.00,M,M,M,KDCA 251352Z 20003KT 10SM SCT200 OVC250 M02/M14 A3060 RMK AO2 SLP362 T10171144,
DCA,2013-11-25 14:52,28.94,6.98,38.85,0.00,0.00,0.00,30.59,1035.70,10.00,M,OVC,None,None,None,24000.00,M,M,M,M,KDCA 251452Z 00000KT 10SM OVC240 M02/M14 A3059 RMK AO2 SLP357 T10171139 50006,
DCA,2013-11-25 15:52,32.00,6.08,32.93,230.00,3.00,0.00,30.57,1035.10,10.00,M,SCT,OVC,None,None,16000.00,24000.00,M,M,M,KDCA 251552Z 23003KT 10SM SCT160 OVC240 00/M14 A3057 RMK AO2 SLP351 T00001144,
DCA,2013-11-25 16:52,33.98,8.96,34.65,160.00,4.00,0.00,30.53,1033.90,10.00,M,SCT,BKN,None,None,16000.00,24000.00,M,M,M,KDCA 251652Z 16004KT 10SM SCT160 BKN240 01/M13 A3053 RMK AO2 SLP339 T00111128,
DCA,2013-11-25 17:52,35.06,8.96,33.19,160.00,7.00,0.00,30.50,1032.60,10.00,M,FEW,SCT,None,None,17000.00,25000.00,M,M,M,KDCA 251752Z 16007KT 10SM FEW170 SCT250 02/M13 A3050 RMK AO2 SLP326 T00171128 10017 21039 58031,
DCA,2013-11-25 18:52,35.96,8.96,32.03,170.00,10.00,0.00,30.47,1031.70,10.00,M,FEW,SCT,BKN,None,13000.00,19000.00,25000.00,M,M,KDCA 251852Z 17010KT 10SM FEW130 SCT190 BKN250 02/M13 A3047 RMK AO2 SLP317 T00221128,
DCA,2013-11-25 19:52,37.04,8.06,29.47,210.00,10.00,0.00,30.45,1031.10,10.00,M,FEW,OVC,None,None,14000.00,25000.00,M,M,M,KDCA 251952Z 21010KT 10SM FEW140 OVC250 03/M13 A3045 RMK AO2 SLP311 T00281133,
DCA,2013-11-25 20:52,37.04,10.04,32.21,180.00,9.00,0.00,30.45,1031.00,10.00,M,FEW,BKN,None,None,15000.00,25000.00,M,M,M,KDCA 252052Z 18009KT 10SM FEW150 BKN250 03/M12 A3045 RMK AO2 SLP310 T00281122 56016,
DCA,2013-11-25 21:52,35.96,10.94,34.99,170.00,9.00,0.00,30.43,1030.20,10.00,M,FEW,BKN,None,None,15000.00,25000.00,M,M,M,KDCA 252152Z 17009KT 10SM FEW150 BKN250 02/M12 A3043 RMK AO2 SLP302 T00221117,
DCA,2013-11-25 22:52,35.96,10.04,33.61,200.00,12.00,0.00,30.42,1030.00,10.00,M,FEW,BKN,None,None,15000.00,25000.00,M,M,M,KDCA 252252Z 20012KT 10SM FEW150 BKN250 02/M12 A3042 RMK AO2 SLP300 T00221122,
DCA,2013-11-25 23:52,35.06,10.04,34.84,200.00,11.00,0.00,30.44,1030.60,10.00,M,FEW,BKN,None,None,15000.00,25000.00,M,M,M,KDCA 252352Z 20011KT 10SM FEW150 BKN250 02/M12 A3044 RMK AO2 PRESRR SLP306 T00171122 10033 20017 55004,
DCA,2013-11-26 00:52,35.06,10.04,34.84,200.00,10.00,0.00,30.41,1029.80,10.00,M,SCT,BKN,None,None,17000.00,25000.00,M,M,M,KDCA 260052Z 20010KT 10SM SCT170 BKN250 02/M12 A3041 RMK AO2 SLP298 T00171122,
DCA,2013-11-26 01:52,35.06,10.04,34.84,200.00,10.00,0.00,30.38,1028.80,10.00,M,FEW,BKN,None,None,17000.00,23000.00,M,M,M,KDCA 260152Z 20010KT 10SM FEW170 BKN230 02/M12 A3038 RMK AO2 SLP288 T00171122,
DCA,2013-11-26 02:52,35.96,10.94,34.99,190.00,9.00,0.00,30.38,1028.70,10.00,M,BKN,BKN,None,None,12000.00,23000.00,M,M,M,KDCA 260252Z 19009KT 10SM BKN120 BKN230 02/M12 A3038 RMK AO2 SLP287 T00221117 56019,
DCA,2013-11-26 03:52,35.96,12.02,36.71,190.00,9.00,0.00,30.38,1028.70,10.00,M,BKN,BKN,None,None,11000.00,20000.00,M,M,M,KDCA 260352Z 19009KT 10SM BKN110 BKN200 02/M11 A3038 RMK AO2 SLP287 T00221111,
DCA,2013-11-26 04:52,37.04,12.92,36.60,190.00,9.00,0.00,30.37,1028.20,10.00,M,BKN,OVC,None,None,10000.00,20000.00,M,M,M,KDCA 260452Z 19009KT 10SM BKN100 OVC200 03/M11 A3037 RMK AO2 SLP282 T00281106 400331044,
DCA,2013-11-26 05:52,37.04,12.02,35.17,200.00,8.00,0.00,30.35,1027.70,10.00,M,FEW,OVC,None,None,8000.00,10000.00,M,M,M,KDCA 260552Z 20008KT 10SM FEW080 OVC100 03/M11 A3035 RMK AO2 SLP277 T00281111 10028 20017 58010,
DCA,2013-11-26 06:52,35.96,12.92,38.20,190.00,8.00,0.00,30.34,1027.40,10.00,M,FEW,None,None,None,12000.00,M,M,M,M,KDCA 260652Z 19008KT 10SM FEW120 02/M11 A3034 RMK AO2 SLP274 T00221106,
DCA,2013-11-26 07:52,37.04,14.00,38.38,200.00,8.00,0.00,30.34,1027.20,10.00,M,SCT,OVC,None,None,6000.00,11000.00,M,M,M,KDCA 260752Z 20008KT 10SM SCT060 OVC110 03/M10 A3034 RMK AO2 SLP272 T00281100,
DCA,2013-11-26 08:52,37.94,15.08,38.84,180.00,7.00,0.00,30.30,1026.10,10.00,M,BKN,OVC,None,None,9000.00,12000.00,M,M,M,KDCA 260852Z 18007KT 10SM BKN090 OVC120 03/M09 A3030 RMK AO2 SLP261 T00331094 58016,
DCA,2013-11-26 09:48,37.40,14.00,37.84,210.00,6.00,0.00,30.30,M,10.00,M,OVC,None,None,None,5500.00,M,M,M,-RAPL,KDCA 260948Z 21006KT 10SM -RAPL OVC055 03/M10 A3030 RMK AO2 RAB04E25B48SNB06E21PLB48 P0000,
DCA,2013-11-26 09:52,37.94,15.98,40.39,210.00,7.00,0.00,30.30,1026.10,10.00,M,OVC,None,None,None,5500.00,M,M,M,-RAPL,KDCA 260952Z 21007KT 10SM -RAPL OVC055 03/M09 A3030 RMK AO2 RAB04E25B48SNB06E21PLB48 SLP261 P0000 T00331089,
DCA,2013-11-26 09:53,37.40,15.80,40.93,220.00,7.00,0.00,30.30,M,10.00,M,OVC,None,None,None,5500.00,M,M,M,-RA,KDCA 260953Z 22007KT 10SM -RA OVC055 03/M09 A3030 RMK AO2 PLE53 P0000,
DCA,2013-11-26 10:52,37.94,15.98,40.39,180.00,4.00,0.00,30.29,1025.70,10.00,M,OVC,None,None,None,4600.00,M,M,M,M,KDCA 261052Z 18004KT 10SM OVC046 03/M09 A3029 RMK AO2 RAE38PLE0953SNB11E18 SLP257 P0000 T00331089,
DCA,2013-11-26 11:52,39.02,17.06,40.57,190.00,4.00,0.00,30.32,1026.50,10.00,M,OVC,None,None,None,4100.00,M,M,M,M,KDCA 261152Z 19004KT 10SM OVC041 04/M08 A3032 RMK AO2 SLP265 60000 T00391083 10039 20022 53004,
DCA,2013-11-26 12:52,37.94,19.94,47.89,170.00,7.00,0.00,30.31,1026.10,10.00,M,SCT,OVC,None,None,3200.00,4500.00,M,M,-RA,KDCA 261252Z AUTO 17007KT 10SM -RA SCT032 OVC045 03/M07 A3031 RMK AO2 RAB47 SLP261 P0000 T00331067,
DCA,2013-11-26 13:52,35.06,26.96,72.03,160.00,6.00,0.02,30.31,1026.30,7.00,M,OVC,None,None,None,4000.00,M,M,M,-RA,KDCA 261352Z 16006KT 7SM -RA OVC040 02/M03 A3031 RMK AO2 SLP263 P0002 T00171028,
DCA,2013-11-26 14:52,35.06,28.94,78.13,150.00,5.00,0.04,30.30,1025.90,7.00,M,FEW,OVC,None,None,3000.00,4700.00,M,M,-RA,KDCA 261452Z 15005KT 7SM -RA FEW030 OVC047 02/M02 A3030 RMK AO2 SLP259 P0004 60006 T00171017 58006,
DCA,2013-11-26 15:52,35.06,30.02,81.65,120.00,3.00,0.04,30.27,1024.90,7.00,M,SCT,BKN,OVC,None,2600.00,4500.00,8000.00,M,-RA,KDCA 261552Z 12003KT 7SM -RA SCT026 BKN045 OVC080 02/M01 A3027 RMK AO2 SLP249 P0004 T00171011,
DCA,2013-11-26 16:00,35.60,30.20,80.51,110.00,4.00,0.00,30.26,M,7.00,M,FEW,BKN,OVC,None,900.00,4500.00,8000.00,M,-RA,KDCA 261600Z 11004KT 7SM -RA FEW009 BKN045 OVC080 02/M01 A3026 RMK AO2 P0000,
DCA,2013-11-26 16:12,35.60,30.20,80.51,120.00,3.00,0.01,30.26,M,7.00,M,BKN,BKN,OVC,None,1000.00,6000.00,7500.00,M,-RA,KDCA 261612Z 12003KT 7SM -RA BKN010 BKN060 OVC075 02/M01 A3026 RMK AO2 BKN010 V SCT P0001,
DCA,2013-11-26 16:52,35.96,30.92,81.72,0.00,0.00,0.04,30.22,1023.20,6.00,M,BKN,BKN,OVC,None,900.00,5000.00,7500.00,M,-RA,KDCA 261652Z 00000KT 6SM -RA BKN009 BKN050 OVC075 02/M01 A3022 RMK AO2 SLP232 CIG 008V011 P0004 T00221006,
DCA,2013-11-26 17:29,35.60,32.00,86.59,70.00,3.00,0.03,30.21,M,6.00,M,BKN,BKN,OVC,None,700.00,2500.00,5000.00,M,-RA BR,KDCA 261729Z 07003KT 6SM -RA BR BKN007 BKN025 OVC050 02/00 A3021 RMK AO2 P0003,
DCA,2013-11-26 17:52,35.96,32.00,85.37,100.00,3.00,0.05,30.20,1022.50,4.00,M,BKN,OVC,None,None,800.00,3000.00,M,M,-RA BR,KDCA 261752Z 10003KT 4SM -RA BR BKN008 OVC030 02/00 A3020 RMK AO2 SLP225 CIG 007V010 P0005 60019 T00220000 10039 20017 56034,
DCA,2013-11-26 18:29,35.60,33.80,93.08,80.00,4.00,0.03,30.18,M,5.00,M,BKN,OVC,None,None,700.00,2500.00,M,M,-RA BR,KDCA 261829Z 08004KT 5SM -RA BR BKN007 OVC025 02/01 A3018 RMK AO2 P0003,
DCA,2013-11-26 18:52,37.04,33.98,88.57,100.00,3.00,0.05,30.17,1021.50,4.00,M,BKN,OVC,None,None,700.00,2500.00,M,M,-RA BR,KDCA 261852Z 10003KT 4SM -RA BR BKN007 OVC025 03/01 A3017 RMK AO2 SLP215 P0005 T00280011,
DCA,2013-11-26 19:52,37.94,33.98,85.49,80.00,4.00,0.03,30.12,1020.00,6.00,M,BKN,OVC,None,None,700.00,2200.00,M,M,-RA BR,KDCA 261952Z 08004KT 6SM -RA BR BKN007 OVC022 03/01 A3012 RMK AO2 SLP200 P0003 T00330011,
DCA,2013-11-26 19:55,37.40,33.80,86.69,80.00,3.00,0.00,30.12,M,6.00,M,SCT,OVC,None,None,700.00,2000.00,M,M,-RA BR,KDCA 261955Z 08003KT 6SM -RA BR SCT007 OVC020 03/01 A3012 RMK AO2 P0000,
DCA,2013-11-26 20:27,37.40,33.80,86.69,90.00,5.00,0.02,30.11,M,5.00,M,SCT,BKN,OVC,None,700.00,1200.00,1800.00,M,-RA BR,KDCA 262027Z 09005KT 5SM -RA BR SCT007 BKN012 OVC018 03/01 A3011 RMK AO2 P0002,
DCA,2013-11-26 20:30,37.40,35.60,93.14,70.00,5.00,0.03,30.10,M,5.00,M,SCT,OVC,None,None,900.00,1800.00,M,M,-RA BR,KDCA 262030Z 07005KT 5SM -RA BR SCT009 OVC018 03/02 A3010 RMK AO2 P0003,
DCA,2013-11-26 20:52,37.94,35.06,89.25,60.00,3.00,0.04,30.09,1018.70,5.00,M,SCT,OVC,None,None,700.00,1800.00,M,M,-RA BR,KDCA 262052Z 06003KT 5SM -RA BR SCT007 OVC018 03/02 A3009 RMK AO2 SLP187 P0004 60012 T00330017 58038,
DCA,2013-11-26 21:12,37.40,35.60,93.14,30.00,4.00,0.02,30.07,M,5.00,M,BKN,OVC,None,None,1000.00,1600.00,M,M,-RA BR,KDCA 262112Z 03004KT 5SM -RA BR BKN010 OVC016 03/02 A3007 RMK AO2 P0002,
DCA,2013-11-26 21:16,37.40,35.60,93.14,30.00,5.00,0.02,30.06,M,5.00,M,BKN,OVC,None,None,800.00,1400.00,M,M,-RA BR,KDCA 262116Z 03005KT 5SM -RA BR BKN008 OVC014 03/02 A3006 RMK AO2 P0002,
DCA,2013-11-26 21:52,39.02,35.06,85.55,40.00,6.00,0.04,30.04,1017.20,8.00,M,OVC,None,None,None,800.00,M,M,M,-RA,KDCA 262152Z 04006KT 8SM -RA OVC008 04/02 A3004 RMK AO2 SLP172 P0004 T00390017,
DCA,2013-11-26 22:52,39.02,35.96,88.66,50.00,9.00,0.07,29.99,1015.40,5.00,M,BKN,OVC,None,None,600.00,1000.00,M,M,-RA BR,KDCA 262252Z 05009KT 5SM -RA BR BKN006 OVC010 04/02 A2999 RMK AO2 SLP154 P0007 T00390022,
DCA,2013-11-26 23:52,39.02,35.96,88.66,50.00,11.00,0.07,29.92,1013.10,3.00,M,OVC,None,None,None,600.00,M,M,M,RA BR,KDCA 262352Z 05011KT 3SM RA BR OVC006 04/02 A2992 RMK AO2 SLP131 P0007 60030 T00390022 10039 20022 58056,
DCA,2013-11-27 00:52,41.00,37.94,88.76,30.00,9.00,0.12,29.82,1009.70,4.00,M,OVC,None,None,None,600.00,M,M,M,RA BR,KDCA 270052Z 03009KT 4SM RA BR OVC006 05/03 A2982 RMK AO2 PRESFR SLP097 P0012 T00500033,
DCA,2013-11-27 01:52,44.06,42.08,92.69,10.00,6.00,0.09,29.74,1007.00,2.50,M,OVC,None,None,None,600.00,M,M,M,RA BR,KDCA 270152Z 01006KT 2 1/2SM RA BR OVC006 07/06 A2974 RMK AO2 SLP070 P0009 T00670056,
DCA,2013-11-27 02:42,46.40,44.60,93.40,360.00,6.00,0.18,29.67,M,4.00,M,OVC,None,None,None,600.00,M,M,M,-RA BR,KDCA 270242Z 36006KT 4SM -RA BR OVC006 08/07 A2967 RMK AO2 P0018,
DCA,2013-11-27 02:52,48.02,44.96,89.08,330.00,8.00,0.20,29.66,1004.40,4.00,M,OVC,None,None,None,600.00,M,M,M,-RA BR,KDCA 270252Z 33008KT 4SM -RA BR OVC006 09/07 A2966 RMK AO2 SLP044 P0020 60041 T00890072 56086,
DCA,2013-11-27 03:09,48.20,46.40,93.45,340.00,10.00,0.05,29.64,M,2.50,M,OVC,None,None,None,600.00,M,M,M,+RA BR,KDCA 270309Z 34010KT 2 1/2SM +RA BR OVC006 09/08 A2964 RMK AO2 P0005,
DCA,2013-11-27 03:12,48.20,46.40,93.45,330.00,11.00,0.06,29.64,M,3.00,M,OVC,None,None,None,600.00,M,M,M,RA BR,KDCA 270312Z 33011KT 3SM RA BR OVC006 09/08 A2964 RMK AO2 P0006,
DCA,2013-11-27 03:36,48.20,46.40,93.45,M,5.00,0.14,29.63,M,2.50,M,OVC,None,None,None,600.00,M,M,M,+RA BR,KDCA 270336Z VRB05KT 2 1/2SM +RA BR OVC006 09/08 A2963 RMK AO2 P0014,
DCA,2013-11-27 03:41,48.20,46.40,93.45,330.00,3.00,0.17,29.62,M,1.75,M,OVC,None,None,None,600.00,M,M,M,+RA BR,KDCA 270341Z 33003KT 1 3/4SM R01/6000FT +RA BR OVC006 09/08 A2962 RMK AO2 P0017,
DCA,2013-11-27 03:46,48.20,46.40,93.45,300.00,5.00,0.23,29.63,M,1.25,M,OVC,None,None,None,400.00,M,M,M,+RA BR,KDCA 270346Z 30005KT 1 1/4SM R01/6000FT +RA BR OVC004 09/08 A2963 RMK AO2 P0023,
DCA,2013-11-27 03:52,48.02,44.96,89.08,320.00,8.00,0.32,29.61,1002.60,1.50,M,BKN,OVC,None,None,400.00,900.00,M,M,+RA BR,KDCA 270352Z 32008KT 1 1/2SM +RA BR BKN004 OVC009 09/07 A2961 RMK AO2 SLP026 P0032 T00890072,
DCA,2013-11-27 03:58,46.40,44.60,93.40,320.00,11.00,0.03,29.61,M,2.00,M,BKN,OVC,None,None,400.00,900.00,M,M,+RA BR,KDCA 270358Z 32011KT 2SM +RA BR BKN004 OVC009 08/07 A2961 RMK AO2 P0003,
DCA,2013-11-27 04:08,44.60,42.80,93.35,310.00,13.00,0.12,29.60,M,2.00,M,BKN,OVC,None,None,600.00,900.00,M,M,+RA BR,KDCA 270408Z 31013KT 2SM R01/6000FT +RA BR BKN006 OVC009 07/06 A2960 RMK AO2 P0012,
DCA,2013-11-27 04:26,41.00,39.20,93.24,320.00,11.00,0.00,29.61,M,3.00,18.00,OVC,None,None,None,600.00,M,M,M,RA BR,KDCA 270426Z 32011G18KT 3SM RA BR OVC006 05/04 A2961,
DCA,2013-11-27 04:43,39.20,37.40,93.19,320.00,10.00,0.23,29.61,M,3.00,18.00,OVC,None,None,None,800.00,M,M,M,-RA BR,KDCA 270443Z 32010G18KT 290V350 3SM -RA BR OVC008 04/03 A2961 RMK AO2 P0023,
DCA,2013-11-27 04:52,39.92,35.96,85.61,320.00,12.00,0.23,29.61,1002.50,4.00,M,OVC,None,None,None,1000.00,M,M,M,-RA BR,KDCA 270452Z 32012KT 4SM -RA BR OVC010 04/02 A2961 RMK AO2 SLP025 P0023 T00440022 400940017,
DCA,2013-11-27 05:16,39.20,35.60,86.79,330.00,8.00,0.03,29.59,M,5.00,18.00,BKN,OVC,None,None,900.00,1300.00,M,M,-RA BR,KDCA 270516Z 33008G18KT 5SM -RA BR BKN009 OVC013 04/02 A2959 RMK AO2 P0003,
DCA,2013-11-27 05:52,39.02,35.96,88.66,340.00,8.00,0.09,29.58,1001.80,6.00,M,SCT,OVC,None,None,900.00,1500.00,M,M,-RA BR,KDCA 270552Z 34008KT 6SM -RA BR SCT009 OVC015 04/02 A2958 RMK AO2 SLP018 P0009 60105 T00390022 10094 20039 58014,
DCA,2013-11-27 06:52,39.92,37.04,89.34,350.00,6.00,0.07,29.57,1001.30,3.00,M,FEW,BKN,OVC,None,600.00,1700.00,3600.00,M,RA BR,KDCA 270652Z 35006KT 3SM RA BR FEW006 BKN017 OVC036 04/03 A2957 RMK AO2 SLP013 P0007 T00440028,
DCA,2013-11-27 07:06,39.20,37.40,93.19,330.00,9.00,0.05,29.56,M,3.00,M,SCT,OVC,None,None,600.00,3400.00,M,M,+RA BR,KDCA 270706Z 33009KT 3SM +RA BR SCT006 OVC034 04/03 A2956 RMK AO2 P0005,
DCA,2013-11-27 07:52,39.92,37.04,89.34,330.00,8.00,0.25,29.55,1000.50,3.00,M,SCT,OVC,None,None,600.00,3400.00,M,M,-RA BR,KDCA 270752Z 33008KT 3SM -RA BR SCT006 OVC034 04/03 A2955 RMK AO2 SLP005 P0025 T00440028,
DCA,2013-11-27 08:52,41.00,37.04,85.67,320.00,11.00,0.07,29.54,1000.30,5.00,18.00,SCT,BKN,OVC,None,2000.00,3600.00,4300.00,M,-RA BR,KDCA 270852Z 32011G18KT 5SM -RA BR SCT020 BKN036 OVC043 05/03 A2954 RMK AO2 SLP003 P0007 60039 T00500028 56014,
DCA,2013-11-27 09:52,39.92,35.96,85.61,320.00,10.00,0.05,29.57,1001.30,7.00,17.00,FEW,OVC,None,None,2000.00,4200.00,M,M,-RA,KDCA 270952Z 32010G17KT 7SM -RA FEW020 OVC042 04/02 A2957 RMK AO2 SLP013 P0005 T00440022,
DCA,2013-11-27 10:52,39.92,35.96,85.61,360.00,13.00,0.06,29.53,999.90,7.00,M,FEW,BKN,OVC,None,2100.00,9000.00,11000.00,M,-RA,KDCA 271052Z 36013KT 7SM -RA FEW021 BKN090 OVC110 04/02 A2953 RMK AO2 PRESFR SLP999 P0006 T00440022,
DCA,2013-11-27 11:52,41.00,35.96,82.09,330.00,10.00,0.03,29.58,1001.60,6.00,20.00,FEW,BKN,OVC,None,2500.00,5000.00,10000.00,M,-RA,KDCA 271152Z 33010G20KT 6SM -RA FEW025 BKN050 OVC100 05/02 A2958 RMK AO2 SLP016 P0003 60053 70207 T00500022 10050 20039 53013,
DCA,2013-11-27 12:52,42.08,35.96,78.74,340.00,11.00,0.03,29.59,1001.90,10.00,17.00,SCT,OVC,None,None,1700.00,5000.00,M,M,-RA,KDCA 271252Z 34011G17KT 10SM -RA SCT017 OVC050 06/02 A2959 RMK AO2 SLP019 P0003 T00560022,
DCA,2013-11-27 13:52,42.08,35.06,75.98,320.00,17.00,0.00,29.61,1002.50,10.00,22.00,FEW,OVC,None,None,1900.00,5500.00,M,M,M,KDCA 271352Z 32017G22KT 10SM FEW019 OVC055 06/02 A2961 RMK AO2 PK WND 33027/1333 RAE25 SLP025 P0000 T00560017,
DCA,2013-11-27 14:41,42.80,33.80,70.28,340.00,17.00,0.00,29.57,M,10.00,27.00,FEW,OVC,None,None,2000.00,5000.00,M,M,-RA,KDCA 271441Z 34017G27KT 10SM -RA FEW020 OVC050 06/01 A2957 RMK AO2 PK WND 33027/1436 RAB04 PRESFR P0000,
DCA,2013-11-27 14:52,42.08,33.98,72.78,320.00,14.00,0.00,29.58,1001.70,8.00,22.00,SCT,OVC,None,None,2000.00,5000.00,M,M,-RA,KDCA 271452Z 32014G22KT 8SM -RA SCT020 OVC050 06/01 A2958 RMK AO2 PK WND 33027/1436 RAB04 SLP017 P0000 60003 T00560011 50001,
DCA,2013-11-27 15:52,41.00,33.08,73.19,340.00,15.00,0.01,29.58,1001.60,10.00,21.00,FEW,OVC,None,None,2000.00,5500.00,M,M,-RA,KDCA 271552Z 34015G21KT 10SM -RA FEW020 OVC055 05/01 A2958 RMK AO2 SLP016 P0001 T00500006,
DCA,2013-11-27 16:52,41.00,32.00,70.08,330.00,16.00,0.01,29.57,1001.30,10.00,24.00,FEW,OVC,None,None,2300.00,5500.00,M,M,-RA,KDCA 271652Z 33016G24KT 10SM -RA FEW023 OVC055 05/00 A2957 RMK AO2 PK WND 33027/1630 SLP013 P0001 T00500000,
DCA,2013-11-27 17:52,39.92,33.08,76.32,320.00,13.00,0.01,29.59,1001.90,10.00,21.00,FEW,OVC,None,None,2500.00,3200.00,M,M,-RA,KDCA 271752Z 32013G21KT 10SM -RA FEW025 OVC032 04/01 A2959 RMK AO2 SLP019 P0001 60006 T00440006 10056 20044 53002,
DCA,2013-11-27 18:10,39.20,33.80,80.79,330.00,20.00,0.02,29.57,M,8.00,25.00,BKN,OVC,None,None,2300.00,3000.00,M,M,-RA,KDCA 271810Z 33020G25KT 8SM -RA BKN023 OVC030 04/01 A2957 RMK AO2 P0002,
DCA,2013-11-27 18:52,39.02,33.98,81.95,310.00,14.00,0.05,29.60,1002.20,7.00,20.00,BKN,OVC,None,None,1300.00,2000.00,M,M,-RA,KDCA 271852Z 31014G20KT 7SM -RA BKN013 OVC020 04/01 A2960 RMK AO2 PRESRR SLP022 P0005 T00390011,
DCA,2013-11-27 19:05,39.20,33.80,80.79,320.00,12.00,0.00,29.58,M,8.00,M,BKN,OVC,None,None,1300.00,2000.00,M,M,-RASN,KDCA 271905Z 32012KT 8SM -RASN BKN013 OVC020 04/01 A2958 RMK AO2 SNB05 P0000,
DCA,2013-11-27 19:29,39.20,33.80,80.79,320.00,12.00,0.01,29.62,M,10.00,21.00,SCT,BKN,OVC,None,1500.00,2700.00,3500.00,M,-RA,KDCA 271929Z 32012G21KT 10SM -RA SCT015 BKN027 OVC035 04/01 A2962 RMK AO2 SNB05E23 PRESRR SCT V BKN P0001,
DCA,2013-11-27 19:42,39.20,33.80,80.79,320.00,12.00,0.01,29.62,M,10.00,17.00,FEW,BKN,OVC,None,1600.00,3200.00,4500.00,M,-RASN,KDCA 271942Z 32012G17KT 10SM -RASN FEW016 BKN032 OVC045 04/01 A2962 RMK AO2 SNB05E23B42 P0001,
DCA,2013-11-27 19:52,39.02,33.98,81.95,310.00,9.00,0.02,29.64,1003.50,10.00,16.00,SCT,BKN,OVC,None,1600.00,3500.00,4500.00,M,-RASN,KDCA 271952Z 31009G16KT 10SM -RASN SCT016 BKN035 OVC045 04/01 A2964 RMK AO2 SNB05E23B42 SLP035 P0002 T00390011,
DCA,2013-11-27 20:52,39.92,32.00,73.08,310.00,14.00,0.00,29.68,1005.10,10.00,21.00,FEW,SCT,OVC,None,2800.00,4700.00,7000.00,M,-RASN,KDCA 272052Z 31014G21KT 10SM -RASN FEW028 SCT047 OVC070 04/00 A2968 RMK AO2 SNE01B48 SLP051 P0000 60007 T00440000 53033,
DCA,2013-11-27 21:23,39.20,32.00,75.16,300.00,11.00,0.00,29.71,M,10.00,20.00,BKN,BKN,OVC,None,2400.00,4900.00,9000.00,M,-RA,KDCA 272123Z 30011G20KT 10SM -RA BKN024 BKN049 OVC090 04/00 A2971 RMK AO2 SNE14 PRESRR P0000,
DCA,2013-11-27 21:37,39.20,32.00,75.16,300.00,10.00,0.00,29.72,M,10.00,22.00,SCT,BKN,OVC,None,2200.00,5000.00,8500.00,M,-RA,KDCA 272137Z 30010G22KT 10SM -RA SCT022 BKN050 OVC085 04/00 A2972 RMK AO2 SNE14 P0000,
DCA,2013-11-27 21:52,39.02,32.00,75.69,320.00,14.00,0.00,29.72,1006.50,10.00,20.00,FEW,SCT,OVC,None,2200.00,5000.00,9000.00,M,-RA,KDCA 272152Z 32014G20KT 10SM -RA FEW022 SCT050 OVC090 04/00 A2972 RMK AO2 SNE14 SLP065 P0000 T00390000,
DCA,2013-11-27 22:16,39.20,30.20,69.88,330.00,14.00,0.00,29.74,M,10.00,20.00,FEW,OVC,None,None,2500.00,9000.00,M,M,M,KDCA 272216Z 33014G20KT 10SM FEW025 OVC090 04/M01 A2974 RMK AO2 RAE10 P0000,
DCA,2013-11-27 22:52,39.02,28.94,66.85,310.00,16.00,0.00,29.76,1007.70,10.00,21.00,FEW,SCT,OVC,None,2500.00,5000.00,9000.00,M,M,KDCA 272252Z 31016G21KT 10SM FEW025 SCT050 OVC090 04/M02 A2976 RMK AO2 RAE10 SLP077 P0000 T00391017,
DCA,2013-11-27 23:52,39.02,24.98,56.77,320.00,15.00,0.00,29.83,1009.90,10.00,23.00,FEW,OVC,None,None,3000.00,9500.00,M,M,M,KDCA 272352Z 32015G23KT 10SM FEW030 OVC095 04/M04 A2983 RMK AO2 PK WND 33029/2310 PRESRR SLP099 60007 T00391039 10044 20033 53048,
DCA,2013-11-28 00:52,37.94,23.00,54.51,310.00,12.00,0.00,29.87,1011.30,10.00,17.00,SCT,BKN,None,None,4600.00,6000.00,M,M,M,KDCA 280052Z 31012G17KT 10SM SCT046 BKN060 03/M05 A2987 RMK AO2 PK WND 33028/0018 SLP113 T00331050,
DCA,2013-11-28 01:19,37.40,21.20,51.61,300.00,15.00,0.00,29.89,M,10.00,30.00,BKN,OVC,None,None,4300.00,5500.00,M,M,-SN,KDCA 280119Z 30015G30KT 10SM -SN BKN043 OVC055 03/M06 A2989 RMK AO2 PK WND 31030/0113 SNB18 BINOVC P0000,
DCA,2013-11-28 01:52,35.96,17.96,47.57,300.00,19.00,0.00,29.92,1013.00,9.00,32.00,SCT,OVC,None,None,4100.00,5000.00,M,M,-SN,KDCA 280152Z 30019G32KT 9SM -SN SCT041 OVC050 02/M08 A2992 RMK AO2 PK WND 32033/0139 SNB18 SLP130 BINOVC P0000 T00221078,
DCA,2013-11-28 02:52,33.98,17.06,49.51,300.00,15.00,0.00,29.97,1014.90,9.00,24.00,FEW,SCT,None,None,4700.00,5500.00,M,M,M,KDCA 280252Z 30015G24KT 9SM FEW047 SCT055 01/M08 A2997 RMK AO2 PK WND 32034/0158 SNE48 SLP149 P0000 60000 T00111083 53050,
DCA,2013-11-28 03:52,32.00,15.08,49.19,290.00,11.00,0.00,30.02,1016.50,10.00,15.00,FEW,None,None,None,5000.00,M,M,M,M,KDCA 280352Z 29011G15KT 10SM FEW050 00/M09 A3002 RMK AO2 PK WND 30028/0256 SLP165 T00001094,
DCA,2013-11-28 04:52,30.92,12.92,46.74,280.00,9.00,0.00,30.06,1017.90,10.00,20.00,FEW,None,None,None,4000.00,M,M,M,M,KDCA 280452Z 28009G20KT 10SM FEW040 M01/M11 A3006 RMK AO2 SLP179 T10061106 400561006,
DCA,2013-11-28 05:52,30.92,12.02,44.92,290.00,12.00,0.00,30.10,1019.10,10.00,28.00,SCT,None,None,None,5000.00,M,M,M,M,KDCA 280552Z 29012G28KT 10SM SCT050 M01/M11 A3010 RMK AO2 PK WND 26028/0546 SLP191 60000 T10061111 10039 21006 51041,
DCA,2013-11-28 06:52,30.92,12.02,44.92,310.00,13.00,0.00,30.13,1020.30,10.00,19.00,SCT,None,None,None,5000.00,M,M,M,M,KDCA 280652Z 31013G19KT 10SM SCT050 M01/M11 A3013 RMK AO2 SLP203 T10061111,
DCA,2013-11-28 07:52,30.92,10.94,42.82,300.00,18.00,0.00,30.17,1021.50,10.00,31.00,FEW,None,None,None,4500.00,M,M,M,M,KDCA 280752Z 30018G31KT 10SM FEW045 M01/M12 A3017 RMK AO2 PK WND 29031/0744 SLP215 T10061117,
DCA,2013-11-28 08:52,30.92,12.02,44.92,310.00,12.00,0.00,30.20,1022.50,10.00,22.00,FEW,None,None,None,4500.00,M,M,M,M,KDCA 280852Z 31012G22KT 10SM FEW045 M01/M11 A3020 RMK AO2 PK WND 32027/0757 SLP225 T10061111 51034,
DCA,2013-11-28 09:52,30.02,10.94,44.41,280.00,5.00,0.00,30.25,1024.10,10.00,M,FEW,None,None,None,5000.00,M,M,M,M,KDCA 280952Z 28005KT 10SM FEW050 M01/M12 A3025 RMK AO2 SLP241 T10111117,
DCA,2013-11-28 10:52,30.02,10.94,44.41,290.00,10.00,0.00,30.28,1025.20,10.00,17.00,CLR,None,None,None,M,M,M,M,M,KDCA 281052Z 29010G17KT 10SM CLR M01/M12 A3028 RMK AO2 SLP252 T10111117,
DCA,2013-11-28 11:52,28.94,10.94,46.41,290.00,6.00,0.00,30.32,1026.50,10.00,M,FEW,None,None,None,10000.00,M,M,M,M,KDCA 281152Z 29006KT 10SM FEW100 M02/M12 A3032 RMK AO2 SLP265 70013 T10171117 11006 21022 51040,
DCA,2013-11-28 12:52,30.02,12.02,46.59,290.00,8.00,0.00,30.35,1027.60,10.00,M,CLR,None,None,None,M,M,M,M,M,KDCA 281252Z 29008KT 10SM CLR M01/M11 A3035 RMK AO2 SLP276 T10111111,
DCA,2013-11-28 13:52,32.00,12.92,44.74,280.00,12.00,0.00,30.38,1028.70,10.00,18.00,CLR,None,None,None,M,M,M,M,M,KDCA 281352Z 28012G18KT 10SM CLR 00/M11 A3038 RMK AO2 SLP287 T00001106,
DCA,2013-11-28 14:52,33.98,12.92,41.33,310.00,10.00,0.00,30.39,1029.10,10.00,M,SCT,None,None,None,25000.00,M,M,M,M,KDCA 281452Z 31010KT 10SM SCT250 01/M11 A3039 RMK AO2 SLP291 T00111106 51026,
DCA,2013-11-28 15:52,35.96,12.92,38.20,300.00,14.00,0.00,30.41,1029.60,10.00,M,FEW,SCT,None,None,6000.00,25000.00,M,M,M,KDCA 281552Z 30014KT 10SM FEW060 SCT250 02/M11 A3041 RMK AO2 SLP296 T00221106,
DCA,2013-11-28 16:52,37.04,12.92,36.60,340.00,11.00,0.00,30.40,1029.20,10.00,18.00,FEW,SCT,None,None,6000.00,17000.00,M,M,M,KDCA 281652Z 34011G18KT 10SM FEW060 SCT170 03/M11 A3040 RMK AO2 SLP292 T00281106,
DCA,2013-11-28 17:52,39.02,14.00,35.51,320.00,9.00,0.00,30.39,1028.90,10.00,M,FEW,None,None,None,17000.00,M,M,M,M,KDCA 281752Z 32009KT 270V340 10SM FEW170 04/M10 A3039 RMK AO2 SLP289 T00391100 10039 21017 58002,
DCA,2013-11-28 18:52,39.92,14.00,34.29,250.00,5.00,0.00,30.38,1028.70,10.00,M,FEW,None,None,None,16000.00,M,M,M,M,KDCA 281852Z 25005KT 10SM FEW160 04/M10 A3038 RMK AO2 SLP287 T00441100,
DCA,2013-11-28 19:52,39.02,14.00,35.51,290.00,6.00,0.00,30.39,1028.90,10.00,M,FEW,None,None,None,20000.00,M,M,M,M,KDCA 281952Z 29006KT 10SM FEW200 04/M10 A3039 RMK AO2 SLP289 T00391100,
DCA,2013-11-28 20:52,39.02,14.00,35.51,270.00,5.00,0.00,30.40,1029.50,10.00,M,FEW,None,None,None,20000.00,M,M,M,M,KDCA 282052Z 27005KT 10SM FEW200 04/M10 A3040 RMK AO2 SLP295 T00391100 53005,
DCA,2013-11-28 21:52,37.04,14.00,38.38,0.00,0.00,0.00,30.42,1030.10,10.00,M,FEW,SCT,None,None,15000.00,25000.00,M,M,M,KDCA 282152Z 00000KT 10SM FEW150 SCT250 03/M10 A3042 RMK AO2 SLP301 T00281100,
DCA,2013-11-28 22:52,35.06,15.98,45.26,350.00,3.00,0.00,30.44,1030.80,10.00,M,CLR,None,None,None,M,M,M,M,M,KDCA 282252Z 35003KT 10SM CLR 02/M09 A3044 RMK AO2 SLP308 T00171089,
DCA,2013-11-28 23:52,35.96,19.94,51.78,0.00,0.00,0.00,30.45,1031.10,10.00,M,FEW,SCT,None,None,10000.00,25000.00,M,M,M,KDCA 282352Z 00000KT 10SM FEW100 SCT250 02/M07 A3045 RMK AO2 SLP311 T00221067 10044 20017 51016,
DCA,2013-11-29 00:52,33.98,21.92,60.93,0.00,0.00,0.00,30.46,1031.40,10.00,M,FEW,None,None,None,10000.00,M,M,M,M,KDCA 290052Z 00000KT 10SM FEW100 01/M06 A3046 RMK AO2 SLP314 T00111056,
DCA,2013-11-29 01:52,33.98,21.92,60.93,0.00,0.00,0.00,30.48,1032.10,10.00,M,BKN,None,None,None,9500.00,M,M,M,M,KDCA 290152Z 00000KT 10SM BKN095 01/M06 A3048 RMK AO2 SLP321 T00111056,
DCA,2013-11-29 02:52,35.06,19.94,53.66,0.00,0.00,0.00,30.49,1032.30,10.00,M,OVC,None,None,None,9500.00,M,M,M,M,KDCA 290252Z 00000KT 10SM OVC095 02/M07 A3049 RMK AO2 SLP323 BINOVC T00171067 51013,
DCA,2013-11-29 03:52,35.06,17.96,49.30,130.00,3.00,0.00,30.50,1032.60,10.00,M,BKN,None,None,None,9500.00,M,M,M,M,KDCA 290352Z 13003KT 10SM BKN095 02/M08 A3050 RMK AO2 SLP326 T00171078,
DCA,2013-11-29 04:52,35.06,19.94,53.66,150.00,4.00,0.00,30.49,1032.50,10.00,M,BKN,None,None,None,8500.00,M,M,M,M,KDCA 290452Z 15004KT 10SM BKN085 02/M07 A3049 RMK AO2 SLP325 T00171067 400441022,
DCA,2013-11-29 05:52,35.06,21.02,56.18,190.00,5.00,0.00,30.48,1032.20,10.00,M,OVC,None,None,None,8000.00,M,M,M,M,KDCA 290552Z 19005KT 10SM OVC080 02/M06 A3048 RMK AO2 SLP322 T00171061 10022 20006 58001,
DCA,2013-11-29 06:52,33.08,21.92,63.17,150.00,4.00,0.00,30.48,1032.10,10.00,M,SCT,None,None,None,7500.00,M,M,M,M,KDCA 290652Z 15004KT 10SM SCT075 01/M06 A3048 RMK AO2 SLP321 T00061056,
DCA,2013-11-29 07:52,33.08,21.92,63.17,0.00,0.00,0.00,30.49,1032.30,10.00,M,FEW,None,None,None,7500.00,M,M,M,M,KDCA 290752Z 00000KT 10SM FEW075 01/M06 A3049 RMK AO2 SLP323 T00061056,
DCA,2013-11-29 08:52,30.92,24.08,75.46,0.00,0.00,0.00,30.49,1032.40,10.00,M,CLR,None,None,None,M,M,M,M,M,KDCA 290852Z 00000KT 10SM CLR M01/M04 A3049 RMK AO2 SLP324 T10061044 53002,
DCA,2013-11-29 09:52,30.02,21.92,71.48,240.00,3.00,0.00,30.51,1032.90,10.00,M,CLR,None,None,None,M,M,M,M,M,KDCA 290952Z 24003KT 10SM CLR M01/M06 A3051 RMK AO2 SLP329 T10111056,
DCA,2013-11-29 10:52,30.02,21.92,71.48,0.00,0.00,0.00,30.52,1033.50,10.00,M,CLR,None,None,None,M,M,M,M,M,KDCA 291052Z 00000KT 10SM CLR M01/M06 A3052 RMK AO2 SLP335 T10111056,
DCA,2013-11-29 11:52,30.02,21.02,68.81,350.00,6.00,0.00,30.56,1034.60,10.00,M,FEW,None,None,None,25000.00,M,M,M,M,KDCA 291152Z 35006KT 10SM FEW250 M01/M06 A3056 RMK AO2 SLP346 T10111061 10017 21017 53022,
DCA,2013-11-29 12:52,30.92,19.94,63.36,340.00,6.00,0.00,30.58,1035.60,10.00,M,FEW,None,None,None,20000.00,M,M,M,M,KDCA 291252Z 34006KT 10SM FEW200 M01/M07 A3058 RMK AO2 SLP356 T10061067 $,
DCA,2013-11-29 13:52,35.06,19.04,51.64,330.00,8.00,0.00,30.61,1036.40,10.00,M,FEW,None,None,None,25000.00,M,M,M,M,KDCA 291352Z 33008KT 10SM FEW250 02/M07 A3061 RMK AO2 SLP364 T00171072,
DCA,2013-11-29 14:52,37.94,19.94,47.89,330.00,11.00,0.00,30.63,1037.10,10.00,M,CLR,None,None,None,M,M,M,M,M,KDCA 291452Z 33011KT 10SM CLR 03/M07 A3063 RMK AO2 SLP371 T00331067 51025,
DCA,2013-11-29 15:52,41.00,21.02,44.51,320.00,8.00,0.00,30.64,1037.40,10.00,M,CLR,None,None,None,M,M,M,M,M,KDCA 291552Z 32008KT 10SM CLR 05/M06 A3064 RMK AO2 SLP374 T00501061,
DCA,2013-11-29 16:52,42.98,17.96,36.18,330.00,15.00,0.00,30.62,1036.90,10.00,20.00,FEW,None,None,None,5000.00,M,M,M,M,KDCA 291652Z 33015G20KT 10SM FEW050 06/M08 A3062 RMK AO2 SLP369 T00611078,
DCA,2013-11-29 17:52,44.06,17.96,34.72,330.00,16.00,0.00,30.61,1036.50,10.00,21.00,FEW,None,None,None,6000.00,M,M,M,M,KDCA 291752Z 33016G21KT 10SM FEW060 07/M08 A3061 RMK AO2 SLP365 T00671078 10067 21017 58005,
DCA,2013-11-29 18:52,44.06,19.04,36.36,350.00,12.00,0.00,30.60,1036.30,10.00,M,FEW,None,None,None,7000.00,M,M,M,M,KDCA 291852Z 35012KT 10SM FEW070 07/M07 A3060 RMK AO2 SLP363 T00671072,
DCA,2013-11-29 19:52,44.06,19.04,36.36,20.00,6.00,0.00,30.62,1036.70,10.00,M,FEW,SCT,None,None,5000.00,8000.00,M,M,M,KDCA 291952Z 02006KT 10SM FEW050 SCT080 07/M07 A3062 RMK AO2 SLP367 T00671072,
DCA,2013-11-29 20:52,42.08,17.96,37.46,360.00,8.00,0.00,30.64,1037.40,10.00,M,FEW,SCT,None,None,5000.00,25000.00,M,M,M,KDCA 292052Z 36008KT 10SM FEW050 SCT250 06/M08 A3064 RMK AO2 SLP374 T00561078 53008,
DCA,2013-11-29 21:52,39.02,17.96,42.18,350.00,10.00,0.00,30.66,1038.20,10.00,M,FEW,SCT,None,None,5000.00,25000.00,M,M,M,KDCA 292152Z 35010KT 10SM FEW050 SCT250 04/M08 A3066 RMK AO2 SLP382 T00391078,
DCA,2013-11-29 22:52,37.04,19.94,49.62,360.00,9.00,0.00,30.67,1038.70,10.00,M,FEW,None,None,None,25000.00,M,M,M,M,KDCA 292252Z 36009KT 10SM FEW250 03/M07 A3067 RMK AO2 SLP387 T00281067,
DCA,2013-11-29 23:52,37.04,19.94,49.62,360.00,11.00,0.00,30.70,1039.40,10.00,M,CLR,None,None,None,M,M,M,M,M,KDCA 292352Z 36011KT 10SM CLR 03/M07 A3070 RMK AO2 SLP394 T00281067 10067 20028 51020,
DCA,2013-11-30 00:52,37.04,19.04,47.75,20.00,12.00,0.00,30.71,1039.80,10.00,M,CLR,None,None,None,M,M,M,M,M,KDCA 300052Z 02012KT 10SM CLR 03/M07 A3071 RMK AO2 SLP398 T00281072,
DCA,2013-11-30 01:52,35.96,19.04,49.83,30.00,8.00,0.00,30.71,1039.90,10.00,M,CLR,None,None,None,M,M,M,M,M,KDCA 300152Z 03008KT 10SM CLR 02/M07 A3071 RMK AO2 SLP399 T00221072,
DCA,2013-11-30 02:52,33.98,19.94,56.02,40.00,8.00,0.00,30.73,1040.40,10.00,M,CLR,None,None,None,M,M,M,M,M,KDCA 300252Z 04008KT 10SM CLR 01/M07 A3073 RMK AO2 SLP404 T00111067 52010,
DCA,2013-11-30 03:52,33.08,19.94,58.08,60.00,7.00,0.00,30.74,1040.80,10.00,M,CLR,None,None,None,M,M,M,M,M,KDCA 300352Z 06007KT 10SM CLR 01/M07 A3074 RMK AO2 SLP408 T00061067,
DCA,2013-11-30 04:52,32.00,19.04,58.37,50.00,5.00,0.00,30.74,1040.90,10.00,M,CLR,None,None,None,M,M,M,M,M,KDCA 300452Z 05005KT 10SM CLR 00/M07 A3074 RMK AO2 SLP409 T00001072 400671017,
DCA,2013-11-30 05:52,30.92,17.96,58.21,30.00,6.00,0.00,30.74,1040.70,10.00,M,CLR,None,None,None,M,M,M,M,M,KDCA 300552Z 03006KT 10SM CLR M01/M08 A3074 RMK AO2 SLP407 T10061078 10028 21006 50003,
DCA,2013-11-30 06:52,30.92,17.96,58.21,30.00,5.00,0.00,30.74,1040.70,10.00,M,CLR,None,None,None,M,M,M,M,M,KDCA 300652Z 03005KT 10SM CLR M01/M08 A3074 RMK AO2 SLP407 T10061078,
DCA,2013-11-30 07:52,30.02,19.04,63.24,40.00,7.00,0.00,30.73,1040.70,10.00,M,CLR,None,None,None,M,M,M,M,M,KDCA 300752Z 04007KT 10SM CLR M01/M07 A3073 RMK AO2 SLP407 T10111072,
DCA,2013-11-30 08:52,28.94,17.96,63.10,20.00,5.00,0.00,30.73,1040.50,10.00,M,CLR,None,None,None,M,M,M,M,M,KDCA 300852Z 02005KT 10SM CLR M02/M08 A3073 RMK AO2 SLP405 T10171078 58002,
DCA,2013-11-30 09:52,28.94,17.96,63.10,40.00,7.00,0.00,30.72,1040.30,10.00,M,CLR,None,None,None,M,M,M,M,M,KDCA 300952Z 04007KT 10SM CLR M02/M08 A3072 RMK AO2 SLP403 T10171078,
DCA,2013-11-30 10:52,28.94,17.96,63.10,40.00,5.00,0.00,30.73,1040.50,10.00,M,CLR,None,None,None,M,M,M,M,M,KDCA 301052Z 04005KT 10SM CLR M02/M08 A3073 RMK AO2 SLP405 T10171078,
DCA,2013-11-30 11:52,28.94,17.96,63.10,40.00,7.00,0.00,30.73,1040.50,10.00,M,FEW,None,None,None,25000.00,M,M,M,M,KDCA 301152Z 04007KT 10SM FEW250 M02/M08 A3073 RMK AO2 SLP405 T10171078 10000 21022 55000,
DCA,2013-11-30 12:52,30.02,19.04,63.24,40.00,5.00,0.00,30.73,1040.60,10.00,M,BKN,None,None,None,25000.00,M,M,M,M,KDCA 301252Z 04005KT 10SM BKN250 M01/M07 A3073 RMK AO2 SLP406 T10111072,
DCA,2013-11-30 13:52,30.92,19.94,63.36,60.00,6.00,0.00,30.73,1040.60,10.00,M,BKN,None,None,None,25000.00,M,M,M,M,KDCA 301352Z 06006KT 10SM BKN250 M01/M07 A3073 RMK AO2 SLP406 T10061067,
DCA,2013-11-30 14:52,33.98,19.04,53.91,50.00,5.00,0.00,30.73,1040.40,10.00,M,OVC,None,None,None,25000.00,M,M,M,M,KDCA 301452Z 05005KT 10SM OVC250 01/M07 A3073 RMK AO2 SLP404 T00111072 58001,
DCA,2013-11-30 15:52,35.06,19.04,51.64,40.00,5.00,0.00,30.70,1039.50,10.00,M,OVC,None,None,None,25000.00,M,M,M,M,KDCA 301552Z 04005KT 10SM OVC250 02/M07 A3070 RMK AO2 SLP395 T00171072,
DCA,2013-11-30 16:52,37.04,17.96,45.58,30.00,4.00,0.00,30.66,1038.20,10.00,M,BKN,None,None,None,25000.00,M,M,M,M,KDCA 301652Z 03004KT 10SM BKN250 03/M08 A3066 RMK AO2 SLP382 T00281078,
DCA,2013-11-30 17:52,37.94,17.96,44.00,0.00,0.00,0.00,30.63,1037.30,10.00,M,BKN,None,None,None,25000.00,M,M,M,M,KDCA 301752Z 00000KT 10SM BKN250 03/M08 A3063 RMK AO2 SLP373 T00331078 10033 21022 58031,
DCA,2013-11-30 18:52,39.02,17.96,42.18,0.00,0.00,0.00,30.60,1036.20,10.00,M,OVC,None,None,None,25000.00,M,M,M,M,KDCA 301852Z 00000KT 10SM OVC250 04/M08 A3060 RMK AO2 SLP362 T00391078,
DCA,2013-11-30 19:52,39.02,19.04,44.18,0.00,0.00,0.00,30.57,1035.20,10.00,M,OVC,None,None,None,17000.00,M,M,M,M,KDCA 301952Z 00000KT 10SM OVC170 04/M07 A3057 RMK AO2 SLP352 T00391072,
DCA,2013-11-30 20:52,39.02,19.04,44.18,0.00,0.00,0.00,30.54,1034.20,10.00,M,FEW,OVC,None,None,10000.00,16000.00,M,M,M,KDCA 302052Z 00000KT 10SM FEW100 OVC160 04/M07 A3054 RMK AO2 SLP342 T00391072 56031,
DCA,2013-11-30 21:52,37.94,19.04,46.09,0.00,0.00,0.00,30.53,1033.60,10.00,M,FEW,BKN,None,None,10000.00,18000.00,M,M,M,KDCA 302152Z 00000KT 10SM FEW100 BKN180 03/M07 A3053 RMK AO2 SLP336 T00331072,
DCA,2013-11-30 22:04,37.40,19.40,47.80,0.00,0.00,0.00,30.52,M,10.00,M,BKN,OVC,None,None,3500.00,18000.00,M,M,M,KDCA 302204Z 00000KT 10SM BKN035 OVC180 03/M07 A3052 RMK AO2,
DCA,2013-11-30 22:52,37.94,21.92,52.09,0.00,0.00,0.00,30.51,1033.10,10.00,M,SCT,OVC,None,None,3300.00,17000.00,M,M,M,KDCA 302252Z 00000KT 10SM SCT033 OVC170 03/M06 A3051 RMK AO2 SLP331 T00331056,
DCA,2013-11-30 23:52,37.94,23.00,54.51,0.00,0.00,0.00,30.50,1032.80,10.00,M,BKN,OVC,None,None,3300.00,18000.00,M,M,M,KDCA 302352Z 00000KT 10SM BKN033 OVC180 03/M05 A3050 RMK AO2 SLP328 T00331050 10039 20028 56014,
DCA,2013-12-01 00:52,37.94,21.92,52.09,0.00,0.00,0.00,30.48,1031.90,10.00,M,BKN,None,None,None,3300.00,M,M,M,M,KDCA 010052Z 00000KT 10SM BKN033 03/M06 A3048 RMK AO2 SLP319 T00331056,
DCA,2013-12-01 01:52,37.04,21.92,53.97,0.00,0.00,0.00,30.46,1031.40,10.00,M,OVC,None,None,None,3300.00,M,M,M,M,KDCA 010152Z 00000KT 10SM OVC033 03/M06 A3046 RMK AO2 SLP314 BINOVC T00281056,
DCA,2013-12-01 02:52,37.04,23.00,56.48,0.00,0.00,0.00,30.45,1030.90,10.00,M,OVC,None,None,None,3100.00,M,M,M,M,KDCA 010252Z 00000KT 10SM OVC031 03/M05 A3045 RMK AO2 SLP309 BINOVC T00281050 56019,
DCA,2013-12-01 03:52,37.04,24.08,59.09,0.00,0.00,0.00,30.42,1030.20,10.00,M,OVC,None,None,None,3100.00,M,M,M,M,KDCA 010352Z 00000KT 10SM OVC031 03/M04 A3042 RMK AO2 SLP302 T00281044,
DCA,2013-12-01 04:11,37.40,24.80,60.04,0.00,0.00,0.00,30.42,M,10.00,M,OVC,None,None,None,2900.00,M,M,M,M,KDCA 010411Z 00000KT 10SM OVC029 03/M04 A3042 RMK AO2,
DCA,2013-12-01 04:52,35.96,24.08,61.67,0.00,0.00,0.00,30.40,1029.30,10.00,M,BKN,BKN,BKN,None,2800.00,13000.00,20000.00,M,M,KDCA 010452Z 00000KT 10SM BKN028 BKN130 BKN200 02/M04 A3040 RMK AO2 SLP293 T00221044 400391022,
DCA,2013-12-01 05:23,35.60,24.80,64.46,0.00,0.00,0.00,30.39,M,10.00,M,SCT,SCT,BKN,None,2900.00,13000.00,20000.00,M,M,KDCA 010523Z 00000KT 10SM SCT029 SCT130 BKN200 02/M04 A3039 RMK AO2,
DCA,2013-12-01 05:52,35.06,26.06,69.40,0.00,0.00,0.00,30.38,1028.50,10.00,M,SCT,SCT,BKN,None,2900.00,13000.00,20000.00,M,M,KDCA 010552Z 00000KT 10SM SCT029 SCT130 BKN200 02/M03 A3038 RMK AO2 SLP285 T00171033 10033 20011 58024,
DCA,2013-12-01 06:52,33.98,26.06,72.45,150.00,3.00,0.00,30.35,1027.60,10.00,M,FEW,None,None,None,20000.00,M,M,M,M,KDCA 010652Z 15003KT 10SM FEW200 01/M03 A3035 RMK AO2 SLP276 T00111033,
DCA,2013-12-01 07:52,32.00,24.98,75.00,0.00,0.00,0.00,30.33,1027.10,10.00,M,CLR,None,None,None,M,M,M,M,M,KDCA 010752Z 00000KT 10SM CLR 00/M04 A3033 RMK AO2 SLP271 T00001039,
DCA,2013-12-01 08:52,32.00,26.06,78.45,0.00,0.00,0.00,30.31,1026.30,10.00,M,FEW,None,None,None,13000.00,M,M,M,M,KDCA 010852Z 00000KT 10SM FEW130 00/M03 A3031 RMK AO2 SLP263 T00001033 56022,
DCA,2013-12-01 09:52,30.02,24.98,81.27,0.00,0.00,0.00,30.29,1025.70,9.00,M,FEW,None,None,None,13000.00,M,M,M,M,KDCA 010952Z 00000KT 9SM FEW130 M01/M04 A3029 RMK AO2 SLP257 T10111039,
DCA,2013-12-01 10:52,30.92,26.06,81.95,0.00,0.00,0.00,30.28,1025.20,9.00,M,FEW,None,None,None,13000.00,M,M,M,M,KDCA 011052Z 00000KT 9SM FEW130 M01/M03 A3028 RMK AO2 SLP252 T10061033,
DCA,2013-12-01 11:52,30.92,26.06,81.95,0.00,0.00,0.00,30.28,1025.20,7.00,M,FEW,None,None,None,20000.00,M,M,M,M,KDCA 011152Z 00000KT 7SM FEW200 M01/M03 A3028 RMK AO2 SLP252 T10061033 10017 21011 56010,
DCA,2013-12-01 12:52,30.92,26.06,81.95,0.00,0.00,0.00,30.27,1025.00,7.00,M,FEW,SCT,None,None,15000.00,25000.00,M,M,M,KDCA 011252Z 00000KT 7SM FEW150 SCT250 M01/M03 A3027 RMK AO2 SLP250 T10061033,
DCA,2013-12-01 13:52,33.98,28.04,78.62,0.00,0.00,0.00,30.27,1024.80,8.00,M,FEW,BKN,None,None,15000.00,25000.00,M,M,M,KDCA 011352Z 00000KT 8SM FEW150 BKN250 01/M02 A3027 RMK AO2 SLP248 T00111022,
DCA,2013-12-01 14:52,37.04,28.04,69.63,0.00,0.00,0.00,30.26,1024.50,10.00,M,SCT,SCT,None,None,10000.00,25000.00,M,M,M,KDCA 011452Z 00000KT 10SM SCT100 SCT250 03/M02 A3026 RMK AO2 SLP245 T00281022 58007,
DCA,2013-12-01 15:52,41.00,28.94,61.89,160.00,5.00,0.00,30.23,1023.60,10.00,M,FEW,SCT,None,None,10000.00,25000.00,M,M,M,KDCA 011552Z 16005KT 10SM FEW100 SCT250 05/M02 A3023 RMK AO2 SLP236 T00501017,
DCA,2013-12-01 16:52,42.98,28.94,57.35,170.00,7.00,0.00,30.19,1022.30,10.00,M,BKN,BKN,None,None,9500.00,25000.00,M,M,M,KDCA 011652Z 17007KT 10SM BKN095 BKN250 06/M02 A3019 RMK AO2 SLP223 T00611017,
DCA,2013-12-01 17:52,44.96,28.04,51.24,170.00,5.00,0.00,30.16,1021.20,10.00,M,BKN,None,None,None,9500.00,M,M,M,M,KDCA 011752Z 17005KT 10SM BKN095 07/M02 A3016 RMK AO2 SLP212 T00721022 10072 21011 58033,
DCA,2013-12-01 18:52,46.94,28.04,47.54,160.00,5.00,0.00,30.13,1020.20,10.00,M,FEW,SCT,None,None,9500.00,25000.00,M,M,M,KDCA 011852Z 16005KT 10SM FEW095 SCT250 08/M02 A3013 RMK AO2 SLP202 T00831022,
DCA,2013-12-01 19:52,46.94,26.96,45.48,170.00,5.00,0.00,30.12,1019.80,10.00,M,FEW,SCT,None,None,10000.00,25000.00,M,M,M,KDCA 011952Z 17005KT 10SM FEW100 SCT250 08/M03 A3012 RMK AO2 SLP198 T00831028,
DCA,2013-12-01 20:52,46.94,28.94,49.33,180.00,3.00,0.00,30.11,1019.60,10.00,M,FEW,BKN,None,None,10000.00,20000.00,M,M,M,KDCA 012052Z 18003KT 10SM FEW100 BKN200 08/M02 A3011 RMK AO2 SLP196 T00831017 56016,
DCA,2013-12-01 21:52,46.94,28.04,47.54,190.00,4.00,0.00,30.10,1019.30,10.00,M,BKN,BKN,None,None,9500.00,20000.00,M,M,M,KDCA 012152Z 19004KT 10SM BKN095 BKN200 08/M02 A3010 RMK AO2 SLP193 T00831022,
DCA,2013-12-01 22:52,42.08,32.00,67.22,180.00,5.00,0.00,30.10,1019.10,10.00,M,SCT,BKN,None,None,10000.00,20000.00,M,M,M,KDCA 012252Z 18005KT 10SM SCT100 BKN200 06/00 A3010 RMK AO2 SLP191 T00560000,
DCA,2013-12-01 23:52,44.06,30.02,57.50,180.00,4.00,0.00,30.09,1018.80,10.00,M,BKN,BKN,None,None,6500.00,9000.00,M,M,M,KDCA 012352Z 18004KT 10SM BKN065 BKN090 07/M01 A3009 RMK AO2 SLP188 T00671011 10089 20056 58008,
DCA,2013-12-02 00:52,44.06,30.92,59.64,0.00,0.00,0.00,30.08,1018.50,10.00,M,OVC,None,None,None,6500.00,M,M,M,M,KDCA 020052Z 00000KT 10SM OVC065 07/M01 A3008 RMK AO2 SLP185 T00671006,
DCA,2013-12-02 01:52,44.06,30.92,59.64,180.00,4.00,0.00,30.07,1018.10,10.00,M,OVC,None,None,None,7000.00,M,M,M,M,KDCA 020152Z 18004KT 10SM OVC070 07/M01 A3007 RMK AO2 SLP181 BINOVC T00671006,
DCA,2013-12-02 02:52,42.98,32.00,64.93,170.00,4.00,0.00,30.06,1017.90,10.00,M,OVC,None,None,None,7000.00,M,M,M,M,KDCA 020252Z 17004KT 10SM OVC070 06/00 A3006 RMK AO2 SLP179 BINOVC T00610000 56009,
DCA,2013-12-02 03:52,44.06,30.02,57.50,0.00,0.00,0.00,30.05,1017.60,10.00,M,OVC,None,None,None,6000.00,M,M,M,M,KDCA 020352Z 00000KT 10SM OVC060 07/M01 A3005 RMK AO2 SLP176 T00671011,
DCA,2013-12-02 04:52,42.98,30.92,62.16,0.00,0.00,0.00,30.04,1017.10,10.00,M,BKN,OVC,None,None,6000.00,7500.00,M,M,M,KDCA 020452Z 00000KT 10SM BKN060 OVC075 06/M01 A3004 RMK AO2 SLP171 T00611006 400891011,
DCA,2013-12-02 05:52,42.08,33.08,70.20,180.00,4.00,0.00,30.02,1016.50,10.00,M,OVC,None,None,None,7000.00,M,M,M,M,KDCA 020552Z 18004KT 10SM OVC070 06/01 A3002 RMK AO2 SLP165 T00560006 10072 20056 58014,
DCA,2013-12-02 06:52,41.00,33.98,75.88,180.00,3.00,0.00,30.01,1016.30,10.00,M,OVC,None,None,None,7000.00,M,M,M,M,KDCA 020652Z 18003KT 10SM OVC070 05/01 A3001 RMK AO2 SLP163 T00500011,
DCA,2013-12-02 07:52,42.08,33.08,70.20,0.00,0.00,0.00,30.00,1015.70,10.00,M,OVC,None,None,None,7000.00,M,M,M,M,KDCA 020752Z 00000KT 10SM OVC070 06/01 A3000 RMK AO2 SLP157 T00560006,
DCA,2013-12-02 08:52,42.08,33.08,70.20,0.00,0.00,0.00,29.98,1015.20,10.00,M,OVC,None,None,None,7000.00,M,M,M,M,KDCA 020852Z 00000KT 10SM OVC070 06/01 A2998 RMK AO2 SLP152 T00560006 58013,
DCA,2013-12-02 09:52,42.98,33.08,67.81,0.00,0.00,0.00,29.97,1014.70,10.00,M,OVC,None,None,None,6500.00,M,M,M,M,KDCA 020952Z 00000KT 10SM OVC065 06/01 A2997 RMK AO2 SLP147 T00610006,
DCA,2013-12-02 10:52,42.08,33.98,72.78,50.00,4.00,0.00,29.97,1014.80,10.00,M,OVC,None,None,None,6500.00,M,M,M,M,KDCA 021052Z 05004KT 10SM OVC065 06/01 A2997 RMK AO2 SLP148 T00560011,
DCA,2013-12-02 11:52,42.08,33.98,72.78,0.00,0.00,0.00,29.96,1014.60,10.00,M,OVC,None,None,None,6500.00,M,M,M,M,KDCA 021152Z 00000KT 10SM OVC065 06/01 A2996 RMK AO2 SLP146 T00560011 10061 20050 56006,
DCA,2013-12-02 12:52,42.08,35.06,75.98,50.00,3.00,0.00,29.98,1015.00,10.00,M,BKN,OVC,None,None,6500.00,14000.00,M,M,M,KDCA 021252Z 05003KT 10SM BKN065 OVC140 06/02 A2998 RMK AO2 SLP150 T00560017,
DCA,2013-12-02 13:52,44.06,35.06,70.42,40.00,3.00,0.00,29.98,1015.10,10.00,M,BKN,OVC,None,None,6500.00,23000.00,M,M,M,KDCA 021352Z 04003KT 10SM BKN065 OVC230 07/02 A2998 RMK AO2 SLP151 T00670017,
DCA,2013-12-02 14:52,44.96,35.96,70.52,50.00,3.00,0.00,29.98,1015.30,9.00,M,BKN,OVC,None,None,6500.00,23000.00,M,M,M,KDCA 021452Z 05003KT 9SM BKN065 OVC230 07/02 A2998 RMK AO2 SLP153 T00720022 51007,
DCA,2013-12-02 15:52,44.96,37.04,73.59,40.00,4.00,0.00,29.97,1014.80,8.00,M,OVC,None,None,None,6500.00,M,M,M,M,KDCA 021552Z 04004KT 8SM OVC065 07/03 A2997 RMK AO2 SLP148 T00720028,
DCA,2013-12-02 16:52,46.94,37.94,70.74,M,M,0.00,29.93,1013.50,8.00,M,OVC,None,None,None,6500.00,M,M,M,M,KDCA 021652Z 8SM OVC065 08/03 A2993 RMK AO2 SLP135 T00830033 PNO $,
DCA,2013-12-02 17:52,48.02,39.02,70.86,20.00,3.00,0.00,29.90,1012.40,8.00,M,OVC,None,None,None,7000.00,M,M,M,M,KDCA 021752Z 02003KT 8SM OVC070 09/04 A2990 RMK AO2 SLP124 T00890039 10089 20056 58029,
DCA,2013-12-02 18:52,48.92,39.02,68.51,0.00,0.00,0.00,29.90,1012.50,8.00,M,OVC,None,None,None,7000.00,M,M,M,M,KDCA 021852Z 00000KT 8SM OVC070 09/04 A2990 RMK AO2 SLP125 T00940039,
DCA,2013-12-02 19:52,48.92,39.92,70.95,0.00,0.00,0.00,29.90,1012.40,9.00,M,OVC,None,None,None,7000.00,M,M,M,M,KDCA 021952Z 00000KT 9SM OVC070 09/04 A2990 RMK AO2 SLP124 T00940044,
DCA,2013-12-02 20:52,48.92,39.02,68.51,10.00,5.00,0.00,29.90,1012.50,10.00,M,OVC,None,None,None,6500.00,M,M,M,M,KDCA 022052Z 01005KT 10SM OVC065 09/04 A2990 RMK AO2 SLP125 T00940039 53001,
DCA,2013-12-02 21:52,46.94,37.04,68.28,60.00,8.00,0.00,29.89,1012.10,10.00,M,OVC,None,None,None,6500.00,M,M,M,M,KDCA 022152Z 06008KT 10SM OVC065 08/03 A2989 RMK AO2 SLP121 T00830028,
DCA,2013-12-02 22:52,46.94,35.96,65.43,50.00,6.00,0.00,29.90,1012.40,10.00,M,OVC,None,None,None,6500.00,M,M,M,M,KDCA 022252Z 05006KT 10SM OVC065 08/02 A2990 RMK AO2 SLP124 T00830022,
DCA,2013-12-02 23:52,46.94,35.06,63.13,50.00,3.00,0.00,29.89,1012.20,10.00,M,OVC,None,None,None,6500.00,M,M,M,M,KDCA 022352Z 05003KT 10SM OVC065 08/02 A2989 RMK AO2 SLP122 T00830017 10100 20078 56003,
DCA,2013-12-03 00:52,44.96,35.06,68.05,70.00,4.00,0.00,29.89,1012.20,10.00,M,OVC,None,None,None,6500.00,M,M,M,M,KDCA 030052Z 07004KT 10SM OVC065 07/02 A2989 RMK AO2 SLP122 T00720017,
DCA,2013-12-03 01:52,44.96,35.06,68.05,60.00,5.00,0.00,29.89,1012.30,10.00,M,OVC,None,None,None,6500.00,M,M,M,M,KDCA 030152Z 06005KT 10SM OVC065 07/02 A2989 RMK AO2 SLP123 T00720017,
DCA,2013-12-03 02:52,44.96,33.98,65.18,40.00,3.00,0.00,29.90,1012.40,10.00,M,OVC,None,None,None,6500.00,M,M,M,M,KDCA 030252Z 04003KT 10SM OVC065 07/01 A2990 RMK AO2 SLP124 T00720011 53002,
DCA,2013-12-03 03:52,44.06,35.06,70.42,40.00,3.00,0.00,29.90,1012.40,10.00,M,OVC,None,None,None,6500.00,M,M,M,M,KDCA 030352Z 04003KT 10SM OVC065 07/02 A2990 RMK AO2 SLP124 T00670017,
DCA,2013-12-03 04:52,44.96,33.08,62.87,0.00,0.00,0.00,29.90,1012.60,10.00,M,OVC,None,None,None,7000.00,M,M,M,M,KDCA 030452Z 00000KT 10SM OVC070 07/01 A2990 RMK AO2 SLP126 T00720006 401000050,
DCA,2013-12-03 05:52,44.96,33.08,62.87,0.00,0.00,0.00,29.90,1012.50,10.00,M,OVC,None,None,None,7000.00,M,M,M,M,KDCA 030552Z 00000KT 10SM OVC070 07/01 A2990 RMK AO2 SLP125 T00720006 10083 20067 50001,
DCA,2013-12-03 06:52,44.96,35.06,68.05,0.00,0.00,0.00,29.90,1012.60,10.00,M,OVC,None,None,None,7500.00,M,M,M,M,KDCA 030652Z 00000KT 10SM OVC075 07/02 A2990 RMK AO2 SLP126 T00720017,
DCA,2013-12-03 07:52,44.06,33.98,67.45,0.00,0.00,0.00,29.91,1012.80,10.00,M,OVC,None,None,None,7500.00,M,M,M,M,KDCA 030752Z 00000KT 10SM OVC075 07/01 A2991 RMK AO2 SLP128 T00670011,
DCA,2013-12-03 08:52,42.98,35.06,73.39,0.00,0.00,0.00,29.91,1012.80,10.00,M,OVC,None,None,None,8000.00,M,M,M,M,KDCA 030852Z 00000KT 10SM OVC080 06/02 A2991 RMK AO2 SLP128 T00610017 51003,
DCA,2013-12-03 09:52,42.98,33.98,70.30,0.00,0.00,0.00,29.91,1012.70,10.00,M,OVC,None,None,None,8000.00,M,M,M,M,KDCA 030952Z 00000KT 10SM OVC080 06/01 A2991 RMK AO2 SLP127 T00610011,
DCA,2013-12-03 10:52,42.98,35.96,76.06,0.00,0.00,0.00,29.92,1013.00,9.00,M,OVC,None,None,None,8000.00,M,M,M,M,KDCA 031052Z 00000KT 9SM OVC080 06/02 A2992 RMK AO2 SLP130 T00610022,
DCA,2013-12-03 11:52,41.00,35.96,82.09,0.00,0.00,0.00,29.93,1013.50,9.00,M,OVC,None,None,None,8000.00,M,M,M,M,KDCA 031152Z 00000KT 9SM OVC080 05/02 A2993 RMK AO2 SLP135 T00500022 10078 20050 53007,
DCA,2013-12-03 12:52,44.06,35.96,72.98,0.00,0.00,0.00,29.96,1014.40,9.00,M,OVC,None,None,None,8000.00,M,M,M,M,KDCA 031252Z 00000KT 9SM OVC080 07/02 A2996 RMK AO2 SLP144 T00670022,
DCA,2013-12-03 13:52,44.96,35.96,70.52,0.00,0.00,0.00,29.97,1014.90,8.00,M,BKN,None,None,None,8000.00,M,M,M,M,KDCA 031352Z 00000KT 8SM BKN080 07/02 A2997 RMK AO2 SLP149 T00720022,
DCA,2013-12-03 14:52,48.02,35.96,62.82,0.00,0.00,0.00,29.97,1014.80,8.00,M,BKN,BKN,None,None,8500.00,11000.00,M,M,M,KDCA 031452Z 00000KT 8SM BKN085 BKN110 09/02 A2997 RMK AO2 SLP148 T00890022 50013,
DCA,2013-12-03 15:52,50.00,37.04,60.89,180.00,4.00,0.00,29.96,1014.60,9.00,M,BKN,BKN,None,None,8500.00,11000.00,M,M,M,KDCA 031552Z 18004KT 9SM BKN085 BKN110 10/03 A2996 RMK AO2 SLP146 T01000028,
DCA,2013-12-03 16:16,51.80,37.40,57.77,170.00,5.00,0.00,29.96,M,9.00,M,FEW,SCT,None,None,8500.00,11000.00,M,M,M,KDCA 031616Z 17005KT 9SM FEW085 SCT110 11/03 A2996 RMK AO2,
DCA,2013-12-03 16:52,51.98,37.94,58.62,170.00,4.00,0.00,29.95,1014.00,10.00,M,FEW,None,None,None,11000.00,M,M,M,M,KDCA 031652Z 17004KT 10SM FEW110 11/03 A2995 RMK AO2 SLP140 T01110033,
DCA,2013-12-03 17:52,53.96,37.04,52.61,150.00,3.00,0.00,29.93,1013.50,10.00,M,CLR,None,None,None,M,M,M,M,M,KDCA 031752Z 15003KT 10SM CLR 12/03 A2993 RMK AO2 SLP135 T01220028 10122 20050 58013,
DCA,2013-12-03 18:52,55.04,37.94,52.40,170.00,7.00,0.00,29.93,1013.60,10.00,M,CLR,None,None,None,M,M,M,M,M,KDCA 031852Z 17007KT 10SM CLR 13/03 A2993 RMK AO2 SLP136 T01280033,
DCA,2013-12-03 19:52,55.94,37.04,48.95,180.00,5.00,0.00,29.92,1013.10,10.00,M,FEW,None,None,None,13000.00,M,M,M,M,KDCA 031952Z 18005KT 10SM FEW130 13/03 A2992 RMK AO2 SLP131 T01330028,
DCA,2013-12-03 20:52,53.06,37.04,54.38,180.00,8.00,0.00,29.95,1014.20,10.00,M,FEW,None,None,None,14000.00,M,M,M,M,KDCA 032052Z 18008KT 10SM FEW140 12/03 A2995 RMK AO2 SLP142 T01170028 53006,
DCA,2013-12-03 21:52,50.00,37.04,60.89,180.00,6.00,0.00,29.96,1014.50,10.00,M,FEW,None,None,None,15000.00,M,M,M,M,KDCA 032152Z 18006KT 10SM FEW150 10/03 A2996 RMK AO2 SLP145 T01000028,
DCA,2013-12-03 22:52,48.92,37.04,63.39,0.00,0.00,0.00,29.97,1014.70,10.00,M,CLR,None,None,None,M,M,M,M,M,KDCA 032252Z 00000KT 10SM CLR 09/03 A2997 RMK AO2 SLP147 T00940028,
DCA,2013-12-03 23:52,46.94,37.04,68.28,0.00,0.00,0.00,29.97,1014.80,10.00,M,CLR,None,None,None,M,M,M,M,M,KDCA 032352Z 00000KT 10SM CLR 08/03 A2997 RMK AO2 SLP148 T00830028 10133 20078 51006,
DCA,2013-12-04 00:52,46.04,37.04,70.64,0.00,0.00,0.00,29.98,1015.10,10.00,M,CLR,None,None,None,M,M,M,M,M,KDCA 040052Z 00000KT 10SM CLR 08/03 A2998 RMK AO2 SLP151 T00780028,
DCA,2013-12-04 01:52,44.96,37.04,73.59,0.00,0.00,0.00,30.00,1015.70,10.00,M,CLR,None,None,None,M,M,M,M,M,KDCA 040152Z 00000KT 10SM CLR 07/03 A3000 RMK AO2 SLP157 T00720028,
DCA,2013-12-04 02:52,42.98,37.04,79.38,0.00,0.00,0.00,30.00,1015.90,10.00,M,CLR,None,None,None,M,M,M,M,M,KDCA 040252Z 00000KT 10SM CLR 06/03 A3000 RMK AO2 SLP159 T00610028 51011,
DCA,2013-12-04 03:52,42.98,37.94,82.24,0.00,0.00,0.00,30.00,1015.90,10.00,M,BKN,None,None,None,20000.00,M,M,M,M,KDCA 040352Z 00000KT 10SM BKN200 06/03 A3000 RMK AO2 SLP159 T00610033,
DCA,2013-12-04 04:52,42.98,37.04,79.38,0.00,0.00,0.00,30.00,1016.00,10.00,M,BKN,None,None,None,20000.00,M,M,M,M,KDCA 040452Z 00000KT 10SM BKN200 06/03 A3000 RMK AO2 SLP160 T00610028 401330050,
DCA,2013-12-04 05:52,42.98,37.04,79.38,0.00,0.00,0.00,30.01,1016.30,10.00,M,BKN,None,None,None,20000.00,M,M,M,M,KDCA 040552Z 00000KT 10SM BKN200 06/03 A3001 RMK AO2 SLP163 T00610028 10100 20056 53004,
DCA,2013-12-04 06:52,42.08,37.04,82.17,0.00,0.00,0.00,30.02,1016.40,8.00,M,OVC,None,None,None,20000.00,M,M,M,M,KDCA 040652Z 00000KT 8SM OVC200 06/03 A3002 RMK AO2 SLP164 T00560028,
DCA,2013-12-04 07:52,42.08,37.94,85.13,0.00,0.00,0.00,30.03,1017.00,9.00,M,SCT,BKN,OVC,None,3900.00,8000.00,20000.00,M,M,KDCA 040752Z 00000KT 9SM SCT039 BKN080 OVC200 06/03 A3003 RMK AO2 SLP170 T00560033,
DCA,2013-12-04 08:52,42.98,37.94,82.24,0.00,0.00,0.00,30.03,1017.00,7.00,M,OVC,None,None,None,3500.00,M,M,M,M,KDCA 040852Z 00000KT 7SM OVC035 06/03 A3003 RMK AO2 SLP170 T00610033 51007,
DCA,2013-12-04 09:52,42.98,35.96,76.06,50.00,6.00,0.00,30.04,1017.00,10.00,M,FEW,BKN,None,None,3500.00,20000.00,M,M,M,KDCA 040952Z 05006KT 10SM FEW035 BKN200 06/02 A3004 RMK AO2 SLP170 T00610022,
DCA,2013-12-04 10:52,42.08,35.96,78.74,0.00,0.00,0.00,30.03,1016.90,9.00,M,BKN,OVC,None,None,4100.00,20000.00,M,M,M,KDCA 041052Z 00000KT 9SM BKN041 OVC200 06/02 A3003 RMK AO2 SLP169 T00560022,
DCA,2013-12-04 11:52,39.92,35.96,85.61,50.00,4.00,0.00,30.05,1017.60,8.00,M,FEW,BKN,BKN,None,4000.00,10000.00,20000.00,M,M,KDCA 041152Z 05004KT 8SM FEW040 BKN100 BKN200 04/02 A3005 RMK AO2 SLP176 T00440022 10067 20044 53006,
DCA,2013-12-04 12:01,42.80,37.40,81.07,50.00,5.00,0.00,30.06,M,8.00,M,BKN,BKN,OVC,None,4500.00,11000.00,20000.00,M,M,KDCA 041201Z 05005KT 8SM BKN045 BKN110 OVC200 06/03 A3006 RMK AO2,
DCA,2013-12-04 12:52,42.08,37.04,82.17,0.00,0.00,0.00,30.07,1018.20,8.00,M,SCT,SCT,BKN,None,4500.00,11000.00,23000.00,M,M,KDCA 041252Z 00000KT 8SM SCT045 SCT110 BKN230 06/03 A3007 RMK AO2 SLP182 T00560028,
DCA,2013-12-04 13:52,44.96,39.02,79.54,0.00,0.00,0.00,30.08,1018.50,7.00,M,BKN,OVC,None,None,4900.00,9000.00,M,M,M,KDCA 041352Z 00000KT 7SM BKN049 OVC090 07/04 A3008 RMK AO2 SLP185 T00720039,
DCA,2013-12-04 14:52,48.92,41.00,73.99,0.00,0.00,0.00,30.09,1019.10,7.00,M,BKN,OVC,None,None,2000.00,4900.00,M,M,M,KDCA 041452Z 00000KT 7SM BKN020 OVC049 09/05 A3009 RMK AO2 SLP191 T00940050 51015,
DCA,2013-12-04 15:52,48.92,41.00,73.99,0.00,0.00,0.00,30.10,1019.20,7.00,M,BKN,OVC,None,None,2000.00,4500.00,M,M,M,KDCA 041552Z 00000KT 7SM BKN020 OVC045 09/05 A3010 RMK AO2 SLP192 T00940050,
DCA,2013-12-04 16:52,53.06,42.98,68.50,0.00,0.00,0.00,30.08,1018.50,9.00,M,BKN,BKN,OVC,None,2000.00,5000.00,12000.00,M,M,KDCA 041652Z 00000KT 9SM BKN020 BKN050 OVC120 12/06 A3008 RMK AO2 SLP185 BINOVC T01170061,
DCA,2013-12-04 17:50,53.60,44.60,71.45,90.00,3.00,0.00,30.06,M,8.00,M,SCT,BKN,OVC,None,2400.00,3300.00,5000.00,M,M,KDCA 041750Z 09003KT 8SM SCT024 BKN033 OVC050 12/07 A3006 RMK AO2,
DCA,2013-12-04 17:52,53.06,44.06,71.40,0.00,0.00,0.00,30.06,1017.90,8.00,M,SCT,BKN,OVC,None,2400.00,3300.00,5000.00,M,M,KDCA 041752Z 00000KT 8SM SCT024 BKN033 OVC050 12/07 A3006 RMK AO2 SLP179 T01170067 10122 20050 56014,
DCA,2013-12-04 18:52,55.94,44.96,66.52,0.00,0.00,0.00,30.04,1017.20,8.00,M,OVC,None,None,None,3300.00,M,M,M,M,KDCA 041852Z 00000KT 8SM OVC033 13/07 A3004 RMK AO2 SLP172 BINOVC T01330072,
DCA,2013-12-04 19:52,55.04,46.04,71.60,40.00,3.00,0.00,30.03,1016.90,8.00,M,BKN,OVC,None,None,3500.00,23000.00,M,M,M,KDCA 041952Z 04003KT 8SM BKN035 OVC230 13/08 A3003 RMK AO2 SLP169 T01280078,
DCA,2013-12-04 20:52,57.02,46.04,66.65,0.00,0.00,0.00,30.03,1016.80,8.00,M,OVC,None,None,None,3000.00,M,M,M,M,KDCA 042052Z 00000KT 8SM OVC030 14/08 A3003 RMK AO2 SLP168 T01390078 56010,
DCA,2013-12-04 21:22,57.20,44.60,62.69,0.00,0.00,0.00,30.03,M,8.00,M,OVC,None,None,None,2600.00,M,M,M,M,KDCA 042122Z 00000KT 8SM OVC026 14/07 A3003 RMK AO2,
DCA,2013-12-04 21:52,55.04,44.96,68.73,0.00,0.00,0.00,30.03,1017.00,9.00,M,OVC,None,None,None,2400.00,M,M,M,M,KDCA 042152Z 00000KT 9SM OVC024 13/07 A3003 RMK AO2 SLP170 T01280072,
DCA,2013-12-04 22:52,53.06,46.04,76.98,60.00,4.00,0.00,30.06,1018.00,10.00,M,OVC,None,None,None,2400.00,M,M,M,M,KDCA 042252Z 06004KT 10SM OVC024 12/08 A3006 RMK AO2 SLP180 T01170078,
DCA,2013-12-04 23:52,51.98,46.04,80.10,50.00,6.00,0.00,30.07,1018.10,10.00,M,OVC,None,None,None,2400.00,M,M,M,M,KDCA 042352Z 05006KT 10SM OVC024 11/08 A3007 RMK AO2 SLP181 T01110078 10139 20111 51013,
DCA,2013-12-05 00:52,53.06,46.94,79.64,50.00,5.00,0.00,30.07,1018.20,10.00,M,OVC,None,None,None,2400.00,M,M,M,M,KDCA 050052Z 05005KT 10SM OVC024 12/08 A3007 RMK AO2 SLP182 T01170083,
DCA,2013-12-05 01:52,51.98,46.94,82.87,70.00,3.00,0.00,30.09,1018.80,10.00,M,OVC,None,None,None,2200.00,M,M,M,M,KDCA 050152Z 07003KT 10SM OVC022 11/08 A3009 RMK AO2 SLP188 T01110083,
DCA,2013-12-05 02:52,53.06,48.02,82.94,0.00,0.00,0.00,30.10,1019.10,10.00,M,BKN,OVC,None,None,2200.00,3000.00,M,M,M,KDCA 050252Z 00000KT 10SM BKN022 OVC030 12/09 A3010 RMK AO2 SLP191 T01170089 53010,
DCA,2013-12-05 03:52,53.06,48.02,82.94,0.00,0.00,0.00,30.08,1018.60,10.00,M,OVC,None,None,None,2200.00,M,M,M,M,KDCA 050352Z 00000KT 10SM OVC022 12/09 A3008 RMK AO2 SLP186 T01170089,
DCA,2013-12-05 04:52,51.98,48.02,86.30,0.00,0.00,0.00,30.08,1018.70,8.00,M,FEW,OVC,None,None,2000.00,2900.00,M,M,M,KDCA 050452Z 00000KT 8SM FEW020 OVC029 11/09 A3008 RMK AO2 SLP187 T01110089 401390044,
DCA,2013-12-05 05:52,53.96,48.92,83.00,0.00,0.00,0.00,30.08,1018.50,8.00,M,SCT,OVC,None,None,2300.00,3600.00,M,M,M,KDCA 050552Z 00000KT 8SM SCT023 OVC036 12/09 A3008 RMK AO2 SLP185 T01220094 10122 20111 56007,
DCA,2013-12-05 06:52,50.00,46.94,89.17,0.00,0.00,0.00,30.06,1018.00,7.00,M,SCT,OVC,None,None,2500.00,3800.00,M,M,M,KDCA 050652Z 00000KT 7SM SCT025 OVC038 10/08 A3006 RMK AO2 SLP180 T01000083 $,
DCA,2013-12-05 07:52,51.98,48.02,86.30,0.00,0.00,0.00,30.07,1018.20,8.00,M,FEW,OVC,None,None,2200.00,3900.00,M,M,M,KDCA 050752Z 00000KT 8SM FEW022 OVC039 11/09 A3007 RMK AO2 SLP182 T01110089 $,
DCA,2013-12-05 08:08,51.80,48.20,87.47,0.00,0.00,0.00,30.06,M,7.00,M,BKN,OVC,None,None,1800.00,3900.00,M,M,M,KDCA 050808Z 00000KT 7SM BKN018 OVC039 11/09 A3006 RMK AO2 $,
DCA,2013-12-05 08:35,51.80,48.20,87.47,0.00,0.00,0.00,30.06,M,7.00,M,OVC,None,None,None,1400.00,M,M,M,M,KDCA 050835Z 00000KT 7SM OVC014 11/09 A3006 RMK AO2 $,
DCA,2013-12-05 08:52,53.06,50.00,89.31,0.00,0.00,0.00,30.06,1018.00,7.00,M,OVC,None,None,None,1400.00,M,M,M,M,KDCA 050852Z 00000KT 7SM OVC014 12/10 A3006 RMK AO2 SLP180 T01170100 56004 $,
DCA,2013-12-05 09:52,53.96,51.08,89.95,0.00,0.00,0.00,30.05,1017.60,7.00,M,OVC,None,None,None,1200.00,M,M,M,M,KDCA 050952Z 00000KT 7SM OVC012 12/11 A3005 RMK AO2 SLP176 T01220106 $,
DCA,2013-12-05 10:52,51.98,50.00,92.93,0.00,0.00,0.00,30.05,1017.40,6.00,M,OVC,None,None,None,800.00,M,M,M,BR,KDCA 051052Z 00000KT 6SM BR OVC008 11/10 A3005 RMK AO2 SLP174 T01110100 $,
DCA,2013-12-05 11:52,51.98,50.00,92.93,200.00,6.00,0.00,30.05,1017.60,5.00,M,OVC,None,None,None,800.00,M,M,M,BR MIFG,KDCA 051152Z 20006KT 5SM BR MIFG OVC008 11/10 A3005 RMK AO2 SLP176 PATCHY MIFG E-SE ON FIELD T01110100 10133 20094 55004,
DCA,2013-12-05 12:52,53.96,51.98,92.99,180.00,7.00,0.00,30.06,1017.90,4.00,M,OVC,None,None,None,800.00,M,M,M,BR MIFG,KDCA 051252Z 18007KT 4SM BR MIFG OVC008 12/11 A3006 RMK AO2 SLP179 MIFG E ALONG RIVER T01220111,
DCA,2013-12-05 13:52,55.04,51.98,89.40,180.00,5.00,0.00,30.07,1018.30,4.00,M,OVC,None,None,None,800.00,M,M,M,BR,KDCA 051352Z 18005KT 4SM BR OVC008 13/11 A3007 RMK AO2 SLP183 T01280111,
DCA,2013-12-05 14:14,55.40,53.60,93.65,180.00,6.00,0.00,30.07,M,5.00,M,BKN,OVC,None,None,900.00,1500.00,M,M,BR,KDCA 051414Z 18006KT 5SM BR BKN009 OVC015 13/12 A3007 RMK AO2 BKN V SCT,
DCA,2013-12-05 14:25,55.40,51.80,87.65,170.00,7.00,0.00,30.07,M,4.00,M,OVC,None,None,None,1100.00,M,M,M,BR,KDCA 051425Z 17007KT 4SM BR OVC011 13/11 A3007 RMK AO2 CIG 009V012,
DCA,2013-12-05 14:52,55.94,53.06,90.03,180.00,7.00,0.00,30.07,1018.10,5.00,M,OVC,None,None,None,1100.00,M,M,M,BR,KDCA 051452Z 18007KT 5SM BR OVC011 13/12 A3007 RMK AO2 SLP181 CIG 009V012 T01330117 50005,
DCA,2013-12-05 15:52,59.00,53.96,83.34,190.00,8.00,0.00,30.05,1017.50,9.00,M,OVC,None,None,None,1200.00,M,M,M,M,KDCA 051552Z 19008KT 9SM OVC012 15/12 A3005 RMK AO2 SLP175 T01500122,
DCA,2013-12-05 16:52,59.00,53.06,80.64,180.00,9.00,0.00,30.01,1016.10,9.00,M,BKN,BKN,BKN,None,1600.00,16000.00,25000.00,M,M,KDCA 051652Z 18009KT 9SM BKN016 BKN160 BKN250 15/12 A3001 RMK AO2 SLP161 T01500117,
DCA,2013-12-05 17:23,64.40,55.40,72.56,200.00,10.00,0.00,29.99,M,10.00,19.00,SCT,SCT,OVC,None,2000.00,16000.00,25000.00,M,M,KDCA 051723Z 20010G19KT 10SM SCT020 SCT160 OVC250 18/13 A2999 RMK AO2,
DCA,2013-12-05 17:52,69.08,55.94,62.93,200.00,14.00,0.00,29.98,1015.30,10.00,M,SCT,SCT,OVC,None,2300.00,16000.00,25000.00,M,M,KDCA 051752Z 20014KT 10SM SCT023 SCT160 OVC250 21/13 A2998 RMK AO2 SLP153 T02060133 10206 20111 57027,
DCA,2013-12-05 18:52,68.00,55.94,65.31,190.00,11.00,0.00,29.97,1014.90,10.00,M,SCT,SCT,BKN,None,2800.00,16000.00,25000.00,M,M,KDCA 051852Z 19011KT 10SM SCT028 SCT160 BKN250 20/13 A2997 RMK AO2 SLP149 T02000133,
DCA,2013-12-05 19:24,66.20,55.40,68.15,190.00,10.00,0.00,29.96,M,10.00,19.00,BKN,BKN,None,None,2800.00,25000.00,M,M,M,KDCA 051924Z 19010G19KT 10SM BKN028 BKN250 19/13 A2996 RMK AO2,
DCA,2013-12-05 19:52,62.96,55.04,75.33,190.00,11.00,0.00,29.97,1014.70,10.00,M,OVC,None,None,None,2400.00,M,M,M,M,KDCA 051952Z 19011KT 10SM OVC024 17/13 A2997 RMK AO2 SLP147 BINOVC T01720128,
DCA,2013-12-05 20:52,66.02,57.92,75.12,200.00,17.00,0.00,29.97,1014.80,10.00,22.00,OVC,None,None,None,2200.00,M,M,M,M,KDCA 052052Z 20017G22KT 10SM OVC022 19/14 A2997 RMK AO2 SLP148 T01890144 55005,
DCA,2013-12-05 21:52,62.96,57.02,80.93,190.00,9.00,0.00,29.97,1014.70,10.00,M,OVC,None,None,None,1800.00,M,M,M,M,KDCA 052152Z 19009KT 10SM OVC018 17/14 A2997 RMK AO2 SLP147 T01720139,
DCA,2013-12-05 22:52,62.96,57.02,80.93,210.00,10.00,0.00,29.98,1015.20,10.00,M,OVC,None,None,None,1800.00,M,M,M,M,KDCA 052252Z 21010KT 10SM OVC018 17/14 A2998 RMK AO2 SLP152 T01720139,
DCA,2013-12-05 23:52,62.96,57.02,80.93,200.00,7.00,0.00,29.99,1015.40,10.00,M,OVC,None,None,None,1800.00,M,M,M,M,KDCA 052352Z 20007KT 10SM OVC018 17/14 A2999 RMK AO2 SLP154 BINOVC T01720139 10206 20156 53005,
DCA,2013-12-06 00:52,60.08,55.04,83.41,190.00,8.00,0.00,29.98,1015.30,10.00,M,OVC,None,None,None,2000.00,M,M,M,M,KDCA 060052Z 19008KT 10SM OVC020 16/13 A2998 RMK AO2 RAB33E42 SLP153 P0000 T01560128,
DCA,2013-12-06 01:52,59.00,55.04,86.69,200.00,9.00,0.00,29.97,1014.90,10.00,M,OVC,None,None,None,2000.00,M,M,M,M,KDCA 060152Z 20009KT 10SM OVC020 15/13 A2997 RMK AO2 SLP149 T01500128,
DCA,2013-12-06 02:21,60.80,57.20,87.92,200.00,8.00,0.00,29.97,M,10.00,M,OVC,None,None,None,1600.00,M,M,M,-RA,KDCA 060221Z 20008KT 10SM -RA OVC016 16/14 A2997 RMK AO2 RAB21 P0000,
DCA,2013-12-06 02:32,62.60,57.20,82.50,200.00,9.00,0.00,29.97,M,10.00,M,OVC,None,None,None,1400.00,M,M,M,-RA,KDCA 060232Z 20009KT 10SM -RA OVC014 17/14 A2997 RMK AO2 RAB21 P0000,
DCA,2013-12-06 02:52,60.08,57.02,89.61,180.00,10.00,0.00,29.94,1014.00,9.00,M,OVC,None,None,None,1400.00,M,M,M,-RA,KDCA 060252Z 18010KT 9SM -RA OVC014 16/14 A2994 RMK AO2 RAB21 PRESFR SLP140 P0000 60000 T01560139 58014,
DCA,2013-12-06 03:52,62.06,57.92,86.29,210.00,10.00,0.00,29.96,1014.50,10.00,M,OVC,None,None,None,1200.00,M,M,M,M,KDCA 060352Z 21010KT 10SM OVC012 17/14 A2996 RMK AO2 RAE37 SLP145 P0000 T01670144,
DCA,2013-12-06 04:41,60.80,57.20,87.92,190.00,9.00,0.00,29.96,M,8.00,M,OVC,None,None,None,1800.00,M,M,M,M,KDCA 060441Z 19009KT 8SM OVC018 16/14 A2996 RMK AO2,
DCA,2013-12-06 04:52,60.98,57.92,89.65,190.00,8.00,0.00,29.95,1014.10,9.00,M,OVC,None,None,None,1800.00,M,M,M,M,KDCA 060452Z 19008KT 9SM OVC018 16/14 A2995 RMK AO2 SLP141 T01610144 402060094,
DCA,2013-12-06 05:52,59.00,57.02,93.13,190.00,9.00,0.00,29.93,1013.50,9.00,M,BKN,OVC,None,None,2200.00,11000.00,M,M,M,KDCA 060552Z 19009KT 9SM BKN022 OVC110 15/14 A2993 RMK AO2 RAB0456E39 SLP135 P0000 60000 T01500139 10178 20144 58004,
DCA,2013-12-06 06:52,60.98,57.92,89.65,190.00,10.00,0.02,29.92,1013.10,9.00,M,BKN,OVC,None,None,2300.00,10000.00,M,M,-RA,KDCA 060652Z 19010KT 9SM -RA BKN023 OVC100 16/14 A2992 RMK AO2 RAB17 SLP131 P0002 T01610144,
DCA,2013-12-06 07:01,60.80,57.20,87.92,200.00,9.00,0.00,29.93,M,8.00,M,SCT,OVC,None,None,2300.00,10000.00,M,M,-RA,KDCA 060701Z 20009KT 8SM -RA SCT023 OVC100 16/14 A2993 RMK AO2 P0000,
DCA,2013-12-06 07:09,60.80,57.20,87.92,180.00,10.00,0.00,29.91,M,8.00,M,BKN,BKN,OVC,None,2300.00,7000.00,10000.00,M,-RA,KDCA 060709Z 18010KT 8SM -RA BKN023 BKN070 OVC100 16/14 A2991 RMK AO2 P0000,
DCA,2013-12-06 07:18,57.20,55.40,93.69,180.00,10.00,0.00,29.91,M,8.00,M,BKN,BKN,OVC,None,2300.00,2800.00,10000.00,M,-RA MIFG,KDCA 060718Z 18010KT 8SM R01/2600VP6000FT -RA MIFG BKN023 BKN028 OVC100 14/13 A2991 RMK AO2 MIFG E-SE ALONG RIVER P0000,
DCA,2013-12-06 07:37,60.80,57.20,87.92,200.00,10.00,0.01,29.90,M,8.00,M,SCT,BKN,OVC,None,2100.00,4600.00,7500.00,M,-RA MIFG,KDCA 060737Z 20010KT 8SM R01/3000VP6000FT -RA MIFG SCT021 BKN046 OVC075 16/14 A2990 RMK AO2 MIFG E-SE ALONG RIVER P0001,
DCA,2013-12-06 07:52,64.04,60.98,89.78,200.00,10.00,0.01,29.90,1012.40,8.00,M,SCT,BKN,OVC,None,1800.00,8000.00,11000.00,M,-RA MIFG,KDCA 060752Z 20010KT 8SM -RA MIFG SCT018 BKN080 OVC110 18/16 A2990 RMK AO2 SLP124 MIFG E-SE ALONG RIVER P0001 T01780161,
DCA,2013-12-06 08:14,59.00,57.20,93.74,190.00,9.00,0.00,29.91,M,7.00,M,BKN,OVC,None,None,1400.00,1900.00,M,M,-RA MIFG,KDCA 060814Z 19009KT 7SM R01/2600VP6000FT -RA MIFG BKN014 OVC019 15/14 A2991 RMK AO2 RAE0755B14 MIFG NE-SE ALONG RIVER P0000,
DCA,2013-12-06 08:25,59.00,57.20,93.74,190.00,9.00,0.00,29.90,M,7.00,M,FEW,OVC,None,None,1000.00,1500.00,M,M,BCFG,KDCA 060825Z 19009KT 7SM R01/2000V5000FT BCFG FEW010 OVC015 15/14 A2990 RMK AO2 RAE0755B14E21 BCFG NE-SE ALONG RIVER P0000,
DCA,2013-12-06 08:37,60.80,57.20,87.92,190.00,9.00,0.00,29.90,M,7.00,M,OVC,None,None,None,1300.00,M,M,M,BCFG,KDCA 060837Z 19009KT 7SM R01/2600VP6000FT BCFG OVC013 16/14 A2990 RMK AO2 RAE0755B14E21 BCFG NE-SE ALONG RIVER P0000,
DCA,2013-12-06 08:52,60.98,57.92,89.65,200.00,9.00,0.00,29.91,1012.60,8.00,M,OVC,None,None,None,1300.00,M,M,M,BCFG,KDCA 060852Z 20009KT 8SM BCFG OVC013 16/14 A2991 RMK AO2 RAE0755B14E21 SLP126 BCFG NE-SE ALONG RIVER P0000 60003 T01610144 55009,
DCA,2013-12-06 09:52,60.98,59.00,93.19,190.00,8.00,0.00,29.91,1012.60,8.00,M,OVC,None,None,None,1400.00,M,M,M,MIFG,KDCA 060952Z 19008KT 8SM MIFG OVC014 16/15 A2991 RMK AO2 SLP126 MIFG NE-SE ALONG RIVER T01610150,
DCA,2013-12-06 10:42,60.80,59.00,93.79,180.00,7.00,0.00,29.90,M,7.00,M,OVC,None,None,None,1400.00,M,M,M,MIFG,KDCA 061042Z 18007KT 7SM R01/1600VP6000FT MIFG OVC014 16/15 A2990 RMK AO2 MIFG NE-S ALONG RIVER AND ON AP,
DCA,2013-12-06 10:52,60.98,59.00,93.19,190.00,8.00,0.00,29.91,1012.60,7.00,M,FEW,OVC,None,None,1000.00,1400.00,M,M,MIFG,KDCA 061052Z 19008KT 7SM R01/1600VP6000FT MIFG FEW010 OVC014 16/15 A2991 RMK AO2 SLP126 MIFG NE-S ALONG RIVER AND ON AP T01610150,
DCA,2013-12-06 11:29,62.60,59.00,88.00,200.00,7.00,0.00,29.92,M,5.00,M,OVC,None,None,None,1400.00,M,M,M,-RA BR MIFG,KDCA 061129Z 20007KT 5SM R01/3500VP6000FT -RA BR MIFG OVC014 17/15 A2992 RMK AO2 RAB26 MIFG NE-S ALONG RIVER P0000,
DCA,2013-12-06 11:52,62.06,60.08,93.22,M,5.00,0.00,29.95,1014.00,5.00,M,OVC,None,None,None,1400.00,M,M,M,BR MIFG,KDCA 061152Z VRB05KT 5SM BR MIFG OVC014 17/16 A2995 RMK AO2 RAB26E48 PRESRR SLP140 MIFG E-SE ALONG RIVER P0000 60003 70003 T01670156 10178 20139 53014,
DCA,2013-12-06 11:55,62.60,60.80,93.83,330.00,16.00,0.00,29.94,M,5.00,26.00,FEW,OVC,None,None,800.00,1400.00,M,M,-RA BR,KDCA 061155Z 33016G26KT 5SM -RA BR FEW008 OVC014 17/16 A2994 RMK AO2 PK WND 33026/1154 RAB53 PRESRR P0000,
DCA,2013-12-06 12:10,57.20,53.60,87.74,330.00,15.00,0.01,29.97,M,4.00,23.00,BKN,OVC,None,None,800.00,1400.00,M,M,-RA BR,KDCA 061210Z 33015G23KT 4SM -RA BR BKN008 OVC014 14/12 A2997 RMK AO2 PK WND 33026/1154 WSHFT 1154 RAB1153 P0001,
DCA,2013-12-06 12:19,55.40,53.60,93.65,310.00,15.00,0.01,29.97,M,2.50,22.00,BKN,OVC,None,None,800.00,1400.00,M,M,-RA BR,KDCA 061219Z 31015G22KT 2 1/2SM -RA BR BKN008 OVC014 13/12 A2997 RMK AO2 PK WND 33026/1154 WSHFT 1154 RAB1153 VIS N-E 3 P0001,
DCA,2013-12-06 12:37,55.40,51.80,87.65,330.00,9.00,0.02,29.98,M,3.00,20.00,SCT,OVC,None,None,900.00,1800.00,M,M,-RA BR,KDCA 061237Z 33009G20KT 3SM -RA BR SCT009 OVC018 13/11 A2998 RMK AO2 PK WND 33026/1154 WSHFT 1154 RAB1153 P0002,
DCA,2013-12-06 12:52,55.04,51.08,86.47,320.00,9.00,0.02,29.99,1015.40,4.00,M,SCT,OVC,None,None,900.00,1600.00,M,M,-RA BR,KDCA 061252Z 32009KT 4SM -RA BR SCT009 OVC016 13/11 A2999 RMK AO2 PK WND 33026/1154 WSHFT 1154 RAB1153 SLP154 SCT V BKN P0002 T01280106,
DCA,2013-12-06 13:11,55.40,51.80,87.65,330.00,9.00,0.00,30.00,M,5.00,M,BKN,OVC,None,None,900.00,1800.00,M,M,-RA BR,KDCA 061311Z 33009KT 5SM -RA BR BKN009 OVC018 13/11 A3000 RMK AO2 RAE1255B11 P0000,
DCA,2013-12-06 13:45,53.60,50.00,87.56,330.00,15.00,0.00,30.03,M,5.00,21.00,SCT,BKN,OVC,None,900.00,1400.00,2000.00,M,-DZ BR,KDCA 061345Z 33015G21KT 5SM -DZ BR SCT009 BKN014 OVC020 12/10 A3003 RMK AO2 RAE1255B11E41DZB41 P0000,
DCA,2013-12-06 13:52,53.96,50.00,86.41,310.00,15.00,0.00,30.05,1017.70,3.00,22.00,BKN,OVC,None,None,1100.00,1800.00,M,M,-DZ BR,KDCA 061352Z 31015G22KT 3SM -DZ BR BKN011 OVC018 12/10 A3005 RMK AO2 RAE1255B11E41DZB41 PRESRR SLP177 BKN V SCT P0000 T01220100,
DCA,2013-12-06 14:02,53.60,48.20,81.87,320.00,13.00,0.00,30.06,M,2.50,20.00,BKN,OVC,None,None,1000.00,1800.00,M,M,-DZ BR,KDCA 061402Z 32013G20KT 2 1/2SM -DZ BR BKN010 OVC018 12/09 A3006 RMK AO2 P0000,
DCA,2013-12-06 14:16,51.80,48.20,87.47,330.00,17.00,0.00,30.06,M,2.50,21.00,BKN,OVC,None,None,900.00,1300.00,M,M,-RA BR,KDCA 061416Z 33017G21KT 2 1/2SM -RA BR BKN009 OVC013 11/09 A3006 RMK AO2 DZE12RAB12 P0000,
DCA,2013-12-06 14:50,51.80,46.40,81.74,330.00,12.00,0.01,30.07,M,4.00,M,BKN,OVC,None,None,1100.00,1500.00,M,M,-RA BR,KDCA 061450Z 33012KT 4SM -RA BR BKN011 OVC015 11/08 A3007 RMK AO2 DZE12RAB12 P0001,
DCA,2013-12-06 14:52,51.08,46.94,85.67,330.00,10.00,0.01,30.07,1018.30,4.00,M,BKN,OVC,None,None,1100.00,1500.00,M,M,-RA BR,KDCA 061452Z 33010KT 4SM -RA BR BKN011 OVC015 11/08 A3007 RMK AO2 DZE12RAB12 SLP183 P0001 60003 T01060083 51029,
DCA,2013-12-06 15:52,51.08,46.94,85.67,310.00,8.00,0.00,30.10,1019.10,10.00,M,SCT,BKN,OVC,None,900.00,1300.00,2000.00,M,-RA,KDCA 061552Z 31008KT 10SM -RA SCT009 BKN013 OVC020 11/08 A3010 RMK AO2 SLP191 P0000 T01060083,
DCA,2013-12-06 16:52,50.00,46.04,86.19,30.00,5.00,0.03,30.03,1017.00,6.00,M,BKN,OVC,None,None,1400.00,3000.00,M,M,-RA BR,KDCA 061652Z 03005KT 6SM -RA BR BKN014 OVC030 10/08 A3003 RMK AO2 RAE23B39 PRESFR SLP170 BKN V SCT P0003 T01000078,
DCA,2013-12-06 17:03,50.00,46.40,87.37,20.00,4.00,0.01,30.04,M,1.50,M,BKN,OVC,None,None,1400.00,3300.00,M,M,+RA BR,KDCA 061703Z 02004KT 1 1/2SM R01/4000VP6000FT +RA BR BKN014 OVC033 10/08 A3004 RMK AO2 P0001,
DCA,2013-12-06 17:10,50.00,46.40,87.37,350.00,8.00,0.10,30.05,M,3.00,M,BKN,OVC,None,None,1200.00,3300.00,M,M,-RA BR,KDCA 061710Z 35008KT 3SM R01/4000VP6000FT -RA BR BKN012 OVC033 10/08 A3005 RMK AO2 P0010,
DCA,2013-12-06 17:18,50.00,46.40,87.37,360.00,7.00,0.11,30.04,M,5.00,M,BKN,OVC,None,None,1200.00,3300.00,M,M,-RA BR,KDCA 061718Z 36007KT 5SM -RA BR BKN012 OVC033 10/08 A3004 RMK AO2 P0011,
DCA,2013-12-06 17:52,50.00,44.96,82.73,350.00,10.00,0.11,30.04,1017.40,10.00,M,BKN,OVC,None,None,1200.00,3000.00,M,M,M,KDCA 061752Z 35010KT 10SM BKN012 OVC030 10/07 A3004 RMK AO2 RAE38 SLP174 P0011 60017 T01000072 10172 20100 58009,
DCA,2013-12-06 18:52,48.92,44.96,86.13,340.00,12.00,0.01,30.05,1017.70,8.00,M,OVC,None,None,None,1200.00,M,M,M,-RA,KDCA 061852Z 34012KT 8SM -RA OVC012 09/07 A3005 RMK AO2 RAB1755 SLP177 P0001 T00940072,
DCA,2013-12-06 19:14,48.20,44.60,87.28,340.00,14.00,0.03,30.06,M,2.50,M,OVC,None,None,None,1200.00,M,M,M,+RA,KDCA 061914Z 34014KT 2 1/2SM R01/5000VP6000FT +RA OVC012 09/07 A3006 RMK AO2 P0003,
DCA,2013-12-06 19:34,48.20,44.60,87.28,20.00,11.00,0.09,30.02,M,3.00,M,BKN,OVC,None,None,1200.00,3500.00,M,M,-RA BR,KDCA 061934Z 02011KT 3SM -RA BR BKN012 OVC035 09/07 A3002 RMK AO2 PRESFR P0009,
DCA,2013-12-06 19:45,48.20,44.60,87.28,30.00,9.00,0.10,30.02,M,4.00,M,SCT,OVC,None,None,1200.00,4000.00,M,M,-RA BR,KDCA 061945Z 03009KT 4SM -RA BR SCT012 OVC040 09/07 A3002 RMK AO2 P0010,
DCA,2013-12-06 19:52,48.02,44.06,86.08,20.00,5.00,0.10,30.03,1017.00,8.00,M,FEW,OVC,None,None,1100.00,4200.00,M,M,-RA,KDCA 061952Z 02005KT 8SM -RA FEW011 OVC042 09/07 A3003 RMK AO2 SLP170 P0010 T00890067,
DCA,2013-12-06 20:01,48.20,44.60,87.28,20.00,10.00,0.00,30.04,M,2.00,M,SCT,OVC,None,None,1500.00,3800.00,M,M,-RA BR,KDCA 062001Z 02010KT 2SM -RA BR SCT015 OVC038 09/07 A3004 RMK AO2 P0000,
DCA,2013-12-06 20:06,48.20,44.60,87.28,20.00,8.00,0.01,30.04,M,1.50,M,FEW,BKN,OVC,None,900.00,1500.00,4200.00,M,-RA BR,KDCA 062006Z 02008KT 1 1/2SM -RA BR FEW009 BKN015 OVC042 09/07 A3004 RMK AO2 P0001,
DCA,2013-12-06 20:25,46.40,44.60,93.40,10.00,10.00,0.04,30.04,M,2.00,M,SCT,OVC,None,None,900.00,1700.00,M,M,-RA BR,KDCA 062025Z 01010KT 2SM -RA BR SCT009 OVC017 08/07 A3004 RMK AO2 P0004,
DCA,2013-12-06 20:52,46.94,44.06,89.65,20.00,8.00,0.06,30.05,1017.60,3.00,M,FEW,BKN,OVC,None,900.00,1600.00,2100.00,M,-RA BR,KDCA 062052Z 02008KT 3SM -RA BR FEW009 BKN016 OVC021 08/07 A3005 RMK AO2 SLP176 P0006 60017 T00830067 53002,
DCA,2013-12-06 21:31,46.40,42.80,87.19,20.00,12.00,0.01,30.05,M,4.00,M,BKN,OVC,None,None,1000.00,1700.00,M,M,-RA BR,KDCA 062131Z 02012KT 4SM -RA BR BKN010 OVC017 08/06 A3005 RMK AO2 P0001,
DCA,2013-12-06 21:44,46.40,42.80,87.19,40.00,12.00,0.02,30.05,M,4.00,20.00,SCT,BKN,OVC,None,1000.00,1600.00,2600.00,M,-RA BR,KDCA 062144Z 04012G20KT 4SM -RA BR SCT010 BKN016 OVC026 08/06 A3005 RMK AO2 P0002,
DCA,2013-12-06 21:52,46.04,42.08,85.97,40.00,9.00,0.02,30.05,1017.40,2.50,M,SCT,BKN,OVC,None,1000.00,1600.00,3200.00,M,-RA BR,KDCA 062152Z 04009KT 2 1/2SM -RA BR SCT010 BKN016 OVC032 08/06 A3005 RMK AO2 SLP174 P0002 T00780056,
DCA,2013-12-06 22:06,46.40,42.80,87.19,30.00,8.00,0.00,30.05,M,4.00,M,SCT,BKN,OVC,None,800.00,1300.00,2800.00,M,-RA BR,KDCA 062206Z 03008KT 4SM -RA BR SCT008 BKN013 OVC028 08/06 A3005 RMK AO2 P0000,
DCA,2013-12-06 22:52,46.04,42.98,88.99,350.00,15.00,0.03,30.09,1019.00,4.00,18.00,OVC,None,None,None,1100.00,M,M,M,-RA BR,KDCA 062252Z 35015G18KT 4SM -RA BR OVC011 08/06 A3009 RMK AO2 SLP190 P0003 T00780061,
DCA,2013-12-06 23:52,44.96,41.00,85.90,30.00,12.00,0.03,30.08,1018.60,10.00,M,SCT,BKN,OVC,None,1100.00,2100.00,3000.00,M,-RA,KDCA 062352Z 03012KT 10SM -RA SCT011 BKN021 OVC030 07/05 A3008 RMK AO2 SLP186 P0003 60025 T00720050 10100 20072 50010,
DCA,2013-12-07 00:10,44.60,39.20,81.20,360.00,12.00,0.00,30.11,M,10.00,M,BKN,BKN,OVC,None,1300.00,2100.00,3000.00,M,M,KDCA 070010Z 36012KT 10SM BKN013 BKN021 OVC030 07/04 A3011 RMK AO2 RAE2356 PRESRR P0000,
DCA,2013-12-07 00:52,44.96,41.00,85.90,360.00,14.00,0.00,30.11,1019.60,4.00,M,OVC,None,None,None,1300.00,M,M,M,-RA BR,KDCA 070052Z 36014KT 4SM -RA BR OVC013 07/05 A3011 RMK AO2 RAE2356B22 SLP196 P0000 T00720050,
DCA,2013-12-07 01:26,44.60,41.00,87.09,30.00,9.00,0.01,30.09,M,7.00,M,SCT,OVC,None,None,1100.00,1700.00,M,M,-RA,KDCA 070126Z 03009KT 7SM -RA SCT011 OVC017 07/05 A3009 RMK AO2 P0001,
DCA,2013-12-07 01:31,44.60,41.00,87.09,30.00,8.00,0.01,30.10,M,7.00,M,FEW,OVC,None,None,900.00,1500.00,M,M,-RA,KDCA 070131Z 03008KT 7SM -RA FEW009 OVC015 07/05 A3010 RMK AO2 P0001,
DCA,2013-12-07 01:38,44.60,41.00,87.09,350.00,11.00,0.01,30.12,M,9.00,M,OVC,None,None,None,1300.00,M,M,M,-RA,KDCA 070138Z 35011KT 9SM -RA OVC013 07/05 A3012 RMK AO2 PRESRR P0001,
DCA,2013-12-07 01:52,44.06,39.92,85.25,10.00,12.00,0.01,30.11,1019.50,10.00,M,FEW,OVC,None,None,900.00,1300.00,M,M,-RA,KDCA 070152Z 01012KT 10SM -RA FEW009 OVC013 07/04 A3011 RMK AO2 SLP195 P0001 T00670044,
DCA,2013-12-07 02:07,44.60,39.20,81.20,20.00,8.00,0.00,30.10,M,5.00,M,BKN,OVC,None,None,1300.00,1800.00,M,M,-RA BR,KDCA 070207Z 02008KT 5SM -RA BR BKN013 OVC018 07/04 A3010 RMK AO2 P0000,
DCA,2013-12-07 02:29,44.60,39.20,81.20,360.00,11.00,0.00,30.13,M,10.00,M,BKN,OVC,None,None,1200.00,3500.00,M,M,-RA,KDCA 070229Z 36011KT 10SM -RA BKN012 OVC035 07/04 A3013 RMK AO2 PRESRR P0000,
DCA,2013-12-07 02:52,42.98,39.92,88.85,350.00,11.00,0.02,30.15,1020.80,3.00,M,FEW,BKN,OVC,None,900.00,1200.00,3600.00,M,RA BR,KDCA 070252Z 35011KT 3SM RA BR FEW009 BKN012 OVC036 06/04 A3015 RMK AO2 SLP208 P0002 60003 T00610044 53022,
DCA,2013-12-07 03:15,42.80,39.20,86.99,340.00,14.00,0.07,30.19,M,5.00,M,SCT,BKN,OVC,None,1100.00,1600.00,4900.00,M,RA BR,KDCA 070315Z 34014KT 5SM RA BR SCT011 BKN016 OVC049 06/04 A3019 RMK AO2 P0007 $,
DCA,2013-12-07 03:35,42.80,37.40,81.07,10.00,12.00,0.10,30.13,M,4.00,M,FEW,BKN,OVC,None,1100.00,4900.00,6500.00,M,-RA BR,KDCA 070335Z 01012KT 4SM -RA BR FEW011 BKN049 OVC065 06/03 A3013 RMK AO2 P0010 $,
DCA,2013-12-07 03:42,42.80,37.40,81.07,20.00,11.00,0.10,30.13,M,4.00,M,BKN,BKN,OVC,None,1100.00,1900.00,6000.00,M,-RA BR,KDCA 070342Z 02011KT 4SM -RA BR BKN011 BKN019 OVC060 06/03 A3013 RMK AO2 P0010 $,
DCA,2013-12-07 03:52,42.08,37.94,85.13,10.00,14.00,0.11,30.16,1021.10,4.00,M,BKN,BKN,OVC,None,1100.00,1600.00,6500.00,M,-RA BR,KDCA 070352Z 01014KT 4SM -RA BR BKN011 BKN016 OVC065 06/03 A3016 RMK AO2 PRESRR SLP211 P0011 T00560033 $,
DCA,2013-12-07 04:45,41.00,35.60,80.93,10.00,13.00,0.03,30.14,M,10.00,M,SCT,OVC,None,None,1100.00,3000.00,M,M,-RA,KDCA 070445Z 01013KT 10SM -RA SCT011 OVC030 05/02 A3014 RMK AO2 P0003 $,
DCA,2013-12-07 04:52,41.00,37.04,85.67,20.00,12.00,0.03,30.14,1020.70,10.00,M,SCT,OVC,None,None,1300.00,3000.00,M,M,-RA,KDCA 070452Z 02012KT 10SM -RA SCT013 OVC030 05/03 A3014 RMK AO2 SLP207 P0003 T00500028 401780050 $,
DCA,2013-12-07 05:21,41.00,37.40,86.89,350.00,10.00,0.02,30.17,M,8.00,M,BKN,OVC,None,None,1500.00,3000.00,M,M,RA,KDCA 070521Z 35010KT 8SM RA BKN015 OVC030 05/03 A3017 RMK AO2 P0002 $,
DCA,2013-12-07 05:52,39.92,35.96,85.61,350.00,9.00,0.06,30.17,1021.50,5.00,M,OVC,None,None,None,1300.00,M,M,M,RA BR,KDCA 070552Z 35009KT 5SM RA BR OVC013 04/02 A3017 RMK AO2 SLP215 P0006 60023 T00440022 10072 20044 53007 $,
DCA,2013-12-07 06:11,39.20,35.60,86.79,360.00,11.00,0.07,30.16,M,8.00,M,BKN,OVC,None,None,1500.00,1900.00,M,M,-RA,KDCA 070611Z 36011KT 8SM -RA BKN015 OVC019 04/02 A3016 RMK AO2 P0007 $,
DCA,2013-12-07 06:21,39.20,35.60,86.79,360.00,12.00,0.07,30.17,M,10.00,M,BKN,OVC,None,None,1300.00,2100.00,M,M,-RA,KDCA 070621Z 36012KT 10SM -RA BKN013 OVC021 04/02 A3017 RMK AO2 P0007 $,
DCA,2013-12-07 06:52,39.92,35.96,85.61,360.00,8.00,0.11,30.18,1022.00,10.00,M,SCT,BKN,OVC,None,1300.00,2300.00,3200.00,M,-RA,KDCA 070652Z 36008KT 10SM -RA SCT013 BKN023 OVC032 04/02 A3018 RMK AO2 SLP220 P0011 T00440022 $,
DCA,2013-12-07 07:03,39.20,35.60,86.79,340.00,11.00,0.00,30.20,M,10.00,M,BKN,BKN,OVC,None,1300.00,2100.00,3400.00,M,-RA,KDCA 070703Z 34011KT 10SM -RA BKN013 BKN021 OVC034 04/02 A3020 RMK AO2 P0000 $,
DCA,2013-12-07 07:14,39.20,35.60,86.79,350.00,12.00,0.00,30.20,M,10.00,M,SCT,OVC,None,None,1300.00,3400.00,M,M,M,KDCA 070714Z 35012KT 10SM SCT013 OVC034 04/02 A3020 RMK AO2 RAE04 P0000 $,
DCA,2013-12-07 07:24,39.20,35.60,86.79,360.00,14.00,0.00,30.20,M,10.00,M,SCT,BKN,OVC,None,1500.00,1900.00,3200.00,M,M,KDCA 070724Z 36014KT 10SM SCT015 BKN019 OVC032 04/02 A3020 RMK AO2 RAE04 P0000 $,
DCA,2013-12-07 07:31,39.20,35.60,86.79,350.00,9.00,0.00,30.21,M,10.00,M,SCT,OVC,None,None,1500.00,3200.00,M,M,M,KDCA 070731Z 35009KT 10SM SCT015 OVC032 04/02 A3021 RMK AO2 RAE04 P0000 $,
DCA,2013-12-07 07:45,39.20,35.60,86.79,340.00,14.00,0.00,30.23,M,10.00,M,BKN,BKN,OVC,None,1300.00,2000.00,3000.00,M,M,KDCA 070745Z 34014KT 10SM BKN013 BKN020 OVC030 04/02 A3023 RMK AO2 RAE04 P0000 $,
DCA,2013-12-07 07:52,39.92,35.06,82.60,350.00,17.00,0.00,30.22,1023.30,8.00,M,BKN,OVC,None,None,1500.00,3000.00,M,M,M,KDCA 070752Z 35017KT 8SM BKN015 OVC030 04/02 A3022 RMK AO2 RAE04 SLP233 P0000 T00440017 $,
DCA,2013-12-07 07:57,39.20,35.60,86.79,350.00,13.00,0.00,30.22,M,4.00,M,FEW,BKN,OVC,None,1000.00,1500.00,1900.00,M,-DZ BR,KDCA 070757Z 35013KT 4SM -DZ BR FEW010 BKN015 OVC019 04/02 A3022 RMK AO2 RAB54E55DZB55 DZB53 P0000 $,
DCA,2013-12-07 08:10,39.20,35.60,86.79,350.00,13.00,0.00,30.23,M,4.00,M,BKN,OVC,None,None,1300.00,2000.00,M,M,-DZ BR,KDCA 070810Z 35013KT 4SM -DZ BR BKN013 OVC020 04/02 A3023 RMK AO2 DZB53 P0000 $,
DCA,2013-12-07 08:22,39.20,35.60,86.79,350.00,15.00,0.00,30.23,M,8.00,M,BKN,OVC,None,None,1200.00,1800.00,M,M,M,KDCA 070822Z 35015KT 8SM BKN012 OVC018 04/02 A3023,
DCA,2013-12-07 08:36,39.20,33.80,80.79,360.00,16.00,0.00,30.23,M,10.00,20.00,SCT,BKN,OVC,None,1200.00,3000.00,3500.00,M,M,KDCA 070836Z 36016G20KT 10SM SCT012 BKN030 OVC035 04/01 A3023 RMK AO2 DZB0753E20 P0000 $,
DCA,2013-12-07 08:52,39.02,33.98,81.95,350.00,11.00,0.00,30.23,1023.60,10.00,18.00,BKN,OVC,None,None,1400.00,3300.00,M,M,M,KDCA 070852Z 35011G18KT 10SM BKN014 OVC033 04/01 A3023 RMK AO2 SLP236 DZB0753E20 P0000 60011 T00390011 51021 $,
DCA,2013-12-07 09:09,39.20,33.80,80.79,360.00,12.00,0.00,30.23,M,10.00,M,BKN,OVC,None,None,1600.00,3300.00,M,M,M,KDCA 070909Z 36012KT 10SM BKN016 OVC033 04/01 A3023 RMK AO2 $,
DCA,2013-12-07 09:52,39.02,33.98,81.95,10.00,13.00,0.00,30.26,1024.50,10.00,M,BKN,BKN,OVC,None,1600.00,5000.00,6000.00,M,M,KDCA 070952Z 01013KT 10SM BKN016 BKN050 OVC060 04/01 A3026 RMK AO2 SLP245 T00390011 $,
DCA,2013-12-07 10:11,39.20,33.80,80.79,350.00,11.00,0.00,30.26,M,10.00,M,SCT,BKN,OVC,None,1600.00,4800.00,6000.00,M,M,KDCA 071011Z 35011KT 10SM SCT016 BKN048 OVC060 04/01 A3026 RMK AO2 $,
DCA,2013-12-07 10:52,39.02,33.08,79.05,360.00,14.00,0.00,30.29,1025.50,10.00,19.00,SCT,OVC,None,None,1600.00,5500.00,M,M,M,KDCA 071052Z 36014G19KT 10SM SCT016 OVC055 04/01 A3029 RMK AO2 SLP255 T00390006 $,
DCA,2013-12-07 11:04,39.20,33.80,80.79,360.00,11.00,0.00,30.29,M,10.00,M,FEW,BKN,BKN,None,1600.00,6000.00,25000.00,M,M,KDCA 071104Z 36011KT 10SM FEW016 BKN060 BKN250 04/01 A3029 RMK AO2 $,
DCA,2013-12-07 11:52,37.94,32.00,78.96,350.00,14.00,0.00,30.31,1026.40,10.00,M,SCT,SCT,None,None,6000.00,25000.00,M,M,M,KDCA 071152Z 35014KT 10SM SCT060 SCT250 03/00 A3031 RMK AO2 SLP264 60011 70076 T00330000 10044 20033 51027 $,
DCA,2013-12-07 12:52,37.94,30.92,75.58,350.00,12.00,0.00,30.35,1027.70,10.00,M,FEW,SCT,BKN,None,2500.00,7000.00,25000.00,M,M,KDCA 071252Z 35012KT 10SM FEW025 SCT070 BKN250 03/M01 A3035 RMK AO2 SLP277 T00331006 $,
DCA,2013-12-07 13:52,39.02,32.00,75.69,350.00,11.00,0.00,30.38,1028.70,10.00,M,FEW,SCT,BKN,None,3500.00,8000.00,25000.00,M,M,KDCA 071352Z 35011KT 10SM FEW035 SCT080 BKN250 04/00 A3038 RMK AO2 SLP287 T00390000 $,
DCA,2013-12-07 14:52,42.08,33.08,70.20,350.00,8.00,0.00,30.40,1029.20,10.00,M,SCT,SCT,BKN,BKN,2100.00,2800.00,7000.00,25000.00,M,KDCA 071452Z 35008KT 10SM SCT021 SCT028 BKN070 BKN250 06/01 A3040 RMK AO2 SLP292 T00560006 51029 $,
DCA,2013-12-07 14:56,42.80,33.80,70.28,340.00,9.00,0.00,30.40,M,10.00,M,SCT,BKN,OVC,None,2100.00,2800.00,7000.00,M,M,KDCA 071456Z 34009KT 10SM SCT021 BKN028 OVC070 06/01 A3040 RMK AO2 $,
DCA,2013-12-07 15:01,42.80,33.80,70.28,350.00,7.00,0.00,30.40,M,10.00,M,SCT,SCT,BKN,BKN,2100.00,2800.00,7000.00,25000.00,M,KDCA 071501Z 35007KT 10SM SCT021 SCT028 BKN070 BKN250 06/01 A3040 RMK AO2 $,
DCA,2013-12-07 15:17,42.80,32.00,65.38,330.00,12.00,0.00,30.41,M,10.00,M,SCT,BKN,BKN,BKN,2200.00,2900.00,7000.00,25000.00,M,KDCA 071517Z 33012KT 10SM SCT022 BKN029 BKN070 BKN250 06/00 A3041 RMK AO2 $,
DCA,2013-12-07 15:35,42.80,33.80,70.28,320.00,9.00,0.00,30.42,M,10.00,M,SCT,BKN,BKN,None,2400.00,3000.00,25000.00,M,M,KDCA 071535Z 32009KT 10SM SCT024 BKN030 BKN250 06/01 A3042 RMK AO2 $,
DCA,2013-12-07 15:38,42.80,33.80,70.28,310.00,10.00,0.00,30.42,M,10.00,M,BKN,BKN,BKN,None,2400.00,3000.00,25000.00,M,M,KDCA 071538Z 31010KT 10SM BKN024 BKN030 BKN250 06/01 A3042 RMK AO2 $,
DCA,2013-12-07 15:52,42.08,32.00,67.22,340.00,12.00,0.00,30.42,1030.00,10.00,M,BKN,BKN,None,None,2400.00,20000.00,M,M,M,KDCA 071552Z 34012KT 10SM BKN024 BKN200 06/00 A3042 RMK AO2 SLP300 T00560000 $,
DCA,2013-12-07 16:27,44.60,30.20,56.74,340.00,16.00,0.00,30.41,M,10.00,M,BKN,BKN,None,None,3000.00,25000.00,M,M,M,KDCA 071627Z 34016KT 10SM BKN030 BKN250 07/M01 A3041 RMK AO2 $,
DCA,2013-12-07 16:52,44.06,30.02,57.50,320.00,8.00,0.00,30.41,1029.60,10.00,M,BKN,BKN,None,None,3400.00,25000.00,M,M,M,KDCA 071652Z 32008KT 10SM BKN034 BKN250 07/M01 A3041 RMK AO2 SLP296 T00671011 $,
DCA,2013-12-07 17:52,44.06,28.94,55.02,330.00,13.00,0.00,30.41,1029.60,10.00,M,BKN,BKN,None,None,3600.00,25000.00,M,M,M,KDCA 071752Z 33013KT 10SM BKN036 BKN250 07/M02 A3041 RMK AO2 SLP296 T00671017 10072 20033 51004 $,
DCA,2013-12-07 18:52,42.98,28.04,55.27,350.00,10.00,0.00,30.40,1029.40,10.00,M,BKN,BKN,None,None,3800.00,25000.00,M,M,M,KDCA 071852Z 35010KT 10SM BKN038 BKN250 06/M02 A3040 RMK AO2 SLP294 T00611022 $,
DCA,2013-12-07 19:52,42.08,26.96,54.73,330.00,12.00,0.00,30.41,1029.70,10.00,M,BKN,BKN,None,None,3800.00,25000.00,M,M,M,KDCA 071952Z 33012KT 10SM BKN038 BKN250 06/M03 A3041 RMK AO2 SLP297 T00561028 $,
DCA,2013-12-07 20:52,41.00,26.06,54.97,320.00,11.00,0.00,30.42,1030.20,10.00,M,SCT,OVC,None,None,3800.00,25000.00,M,M,M,KDCA 072052Z 32011KT 10SM SCT038 OVC250 05/M03 A3042 RMK AO2 SLP302 T00501033 53006 $,
DCA,2013-12-07 21:52,39.92,24.08,52.79,330.00,13.00,0.00,30.44,1030.90,10.00,M,OVC,None,None,None,25000.00,M,M,M,M,KDCA 072152Z 33013KT 10SM OVC250 04/M04 A3044 RMK AO2 SLP309 T00441044 $,
DCA,2013-12-07 22:52,39.02,23.00,52.26,320.00,8.00,0.00,30.47,1031.90,10.00,M,BKN,None,None,None,25000.00,M,M,M,M,KDCA 072252Z 32008KT 10SM BKN250 04/M05 A3047 RMK AO2 SLP319 T00391050 $,
DCA,2013-12-07 23:52,37.04,21.02,51.95,350.00,9.00,0.00,30.51,1033.10,10.00,19.00,SCT,BKN,None,None,15000.00,25000.00,M,M,M,KDCA 072352Z 35009G19KT 10SM SCT150 BKN250 03/M06 A3051 RMK AO2 SLP331 T00281061 10067 20028 53029 $,
DCA,2013-12-08 00:52,37.04,19.94,49.62,330.00,11.00,0.00,30.53,1033.60,10.00,M,BKN,None,None,None,25000.00,M,M,M,M,KDCA 080052Z 33011KT 10SM BKN250 03/M07 A3053 RMK AO2 SLP336 T00281067 $,
DCA,2013-12-08 01:52,37.04,19.94,49.62,340.00,12.00,0.00,30.53,1033.90,10.00,M,SCT,None,None,None,25000.00,M,M,M,M,KDCA 080152Z 34012KT 10SM SCT250 03/M07 A3053 RMK AO2 SLP339 T00281067 $,
DCA,2013-12-08 02:52,35.96,19.94,51.78,330.00,9.00,0.00,30.56,1034.70,10.00,M,BKN,None,None,None,25000.00,M,M,M,M,KDCA 080252Z 33009KT 10SM BKN250 02/M07 A3056 RMK AO2 SLP347 T00221067 53015 $,
DCA,2013-12-08 03:52,33.98,19.94,56.02,330.00,8.00,0.00,30.55,1034.40,10.00,M,BKN,None,None,None,25000.00,M,M,M,M,KDCA 080352Z 33008KT 10SM BKN250 01/M07 A3055 RMK AO2 SLP344 T00111067 $,
DCA,2013-12-08 04:52,33.08,19.94,58.08,350.00,8.00,0.00,30.56,1034.90,10.00,M,BKN,None,None,None,25000.00,M,M,M,M,KDCA 080452Z 35008KT 10SM BKN250 01/M07 A3056 RMK AO2 SLP349 T00061067 400720006 $,
DCA,2013-12-08 05:52,33.08,19.04,55.89,350.00,10.00,0.00,30.56,1034.80,10.00,M,OVC,None,None,None,25000.00,M,M,M,M,KDCA 080552Z 35010KT 10SM OVC250 01/M07 A3056 RMK AO2 SLP348 T00061072 10028 20006 53001 $,
DCA,2013-12-08 06:52,32.00,19.04,58.37,360.00,10.00,0.00,30.57,1034.90,10.00,M,BKN,None,None,None,25000.00,M,M,M,M,KDCA 080652Z 36010KT 10SM BKN250 00/M07 A3057 RMK AO2 SLP349 T00001072 $,
DCA,2013-12-08 07:52,32.00,19.04,58.37,360.00,9.00,0.00,30.57,1034.90,10.00,M,BKN,None,None,None,25000.00,M,M,M,M,KDCA 080752Z 36009KT 10SM BKN250 00/M07 A3057 RMK AO2 SLP349 T00001072 $,
DCA,2013-12-08 08:52,32.00,19.04,58.37,30.00,10.00,0.00,30.56,1034.60,10.00,M,FEW,OVC,None,None,15000.00,20000.00,M,M,M,KDCA 080852Z 03010KT 10SM FEW150 OVC200 00/M07 A3056 RMK AO2 SLP346 T00001072 58001 $,
DCA,2013-12-08 09:52,32.00,19.04,58.37,20.00,10.00,0.00,30.56,1034.80,10.00,M,FEW,OVC,None,None,12000.00,15000.00,M,M,M,KDCA 080952Z 02010KT 10SM FEW120 OVC150 00/M07 A3056 RMK AO2 PRESRR SLP348 T00001072 $,
DCA,2013-12-08 10:52,32.00,19.04,58.37,10.00,12.00,0.00,30.58,1035.50,10.00,M,BKN,OVC,None,None,9000.00,13000.00,M,M,M,KDCA 081052Z 01012KT 10SM BKN090 OVC130 00/M07 A3058 RMK AO2 SLP355 T00001072 $,
DCA,2013-12-08 11:40,32.00,19.40,59.27,10.00,10.00,0.00,30.59,M,10.00,M,BKN,OVC,None,None,7000.00,9500.00,M,M,-SN,KDCA 081140Z 01010KT 10SM -SN BKN070 OVC095 00/M07 A3059 RMK AO2 SNB40 P0000 $,
DCA,2013-12-08 11:52,32.00,19.04,58.37,20.00,10.00,0.00,30.58,1035.40,9.00,M,SCT,BKN,OVC,None,7000.00,9500.00,11000.00,M,M,KDCA 081152Z 02010KT 9SM SCT070 BKN095 OVC110 00/M07 A3058 RMK AO2 SNB40E51 SLP354 P0000 60000 T00001072 10006 21006 50008 $,
DCA,2013-12-08 12:52,30.92,19.04,60.97,20.00,8.00,0.00,30.56,1034.70,10.00,M,SCT,BKN,OVC,None,6500.00,9000.00,11000.00,M,M,KDCA 081252Z 02008KT 10SM SCT065 BKN090 OVC110 M01/M07 A3056 RMK AO2 SLP347 T10061072 $,
DCA,2013-12-08 13:52,30.92,21.92,68.92,50.00,11.00,0.00,30.58,1035.40,4.00,M,BKN,OVC,None,None,3500.00,6000.00,M,M,-SN,KDCA 081352Z 05011KT 4SM -SN BKN035 OVC060 M01/M06 A3058 RMK AO2 SNB37 SLP354 P0000 T10061056 $,
DCA,2013-12-08 14:02,30.20,23.00,74.26,30.00,10.00,0.00,30.58,M,2.50,M,BKN,OVC,None,None,3500.00,5500.00,M,M,-SN,KDCA 081402Z 03010KT 2 1/2SM -SN BKN035 OVC055 M01/M05 A3058,
DCA,2013-12-08 14:13,30.20,24.80,80.07,20.00,9.00,0.00,30.58,M,5.00,M,BKN,OVC,None,None,3500.00,5500.00,M,M,-SN BR,KDCA 081413Z 02009KT 5SM -SN BR BKN035 OVC055 M01/M04 A3058 RMK AO2 P0000 $,
DCA,2013-12-08 14:30,30.20,23.00,74.26,40.00,7.00,0.00,30.59,M,10.00,M,FEW,OVC,None,None,3500.00,5500.00,M,M,M,KDCA 081430Z 04007KT 10SM FEW035 OVC055 M01/M05 A3059 RMK AO2 SNE16 P0000 $,
DCA,2013-12-08 14:52,30.02,21.92,71.48,30.00,9.00,0.00,30.59,1035.70,9.00,M,FEW,OVC,None,None,3500.00,5500.00,M,M,-SN,KDCA 081452Z 03009KT 9SM -SN FEW035 OVC055 M01/M06 A3059 RMK AO2 SNE16B47 SLP357 P0000 60000 T10111056 53003 $,
DCA,2013-12-08 15:52,30.02,23.00,74.81,70.00,7.00,0.01,30.57,1035.00,4.00,M,FEW,BKN,OVC,None,3300.00,5500.00,7000.00,M,-SN,KDCA 081552Z 07007KT 4SM -SN FEW033 BKN055 OVC070 M01/M05 A3057 RMK AO2 SLP350 P0001 T10111050 $,
DCA,2013-12-08 16:11,30.20,24.80,80.07,50.00,4.00,0.01,30.56,M,2.50,M,BKN,OVC,None,None,3300.00,5000.00,M,M,-SN,KDCA 081611Z 05004KT 2 1/2SM -SN BKN033 OVC050 M01/M04 A3056 RMK AO2 P0001 $,
DCA,2013-12-08 16:29,30.20,23.00,74.26,30.00,8.00,0.01,30.55,M,3.00,M,BKN,OVC,None,None,3300.00,5000.00,M,M,-SN,KDCA 081629Z 03008KT 3SM -SN BKN033 OVC050 M01/M05 A3055 RMK AO2 P0001 $,
DCA,2013-12-08 16:31,30.20,23.00,74.26,30.00,8.00,0.01,30.54,M,2.00,M,BKN,OVC,None,None,3300.00,5000.00,M,M,-SN,KDCA 081631Z 03008KT 2SM -SN BKN033 OVC050 M01/M05 A3054 RMK AO2 P0001 $,
DCA,2013-12-08 16:36,30.20,24.80,80.07,10.00,8.00,0.01,30.55,M,1.00,M,BKN,OVC,None,None,3300.00,5000.00,M,M,-SN,KDCA 081636Z 01008KT 1SM R01/P6000FT -SN BKN033 OVC050 M01/M04 A3055 RMK AO2 P0001 $,
DCA,2013-12-08 16:43,30.20,24.80,80.07,360.00,9.00,0.02,30.57,M,0.75,M,BKN,OVC,None,None,2000.00,5500.00,M,M,-SN BR,KDCA 081643Z 36009KT 3/4SM R01/5500VP6000FT -SN BR BKN020 OVC055 M01/M04 A3057 RMK AO2 P0002 $,
DCA,2013-12-08 16:52,30.02,24.98,81.27,20.00,8.00,0.02,30.56,1034.70,0.75,M,BKN,OVC,None,None,2000.00,5500.00,M,M,-SN BR,KDCA 081652Z 02008KT 3/4SM R01/5000VP6000FT -SN BR BKN020 OVC055 M01/M04 A3056 RMK AO2 SLP347 P0002 T10111039 $,
DCA,2013-12-08 17:52,30.02,24.98,81.27,70.00,5.00,0.05,30.53,1033.60,0.75,M,SCT,BKN,OVC,None,1400.00,2000.00,5500.00,M,-SN BR,KDCA 081752Z 07005KT 3/4SM R01/4000V6000FT -SN BR SCT014 BKN020 OVC055 M01/M04 A3053 RMK AO2 SLP336 4/001 P0005 60008 T10111039 10000 21017 58022 $,
DCA,2013-12-08 18:30,30.20,24.80,80.07,40.00,7.00,0.04,30.49,M,0.75,M,SCT,OVC,None,None,600.00,1500.00,M,M,-SN BR,KDCA 081830Z 04007KT 3/4SM R01/5000V6000FT -SN BR SCT006 OVC015 M01/M04 A3049 RMK AO2 P0004 $,
DCA,2013-12-08 18:44,30.20,26.60,86.28,50.00,5.00,0.07,30.49,M,1.00,M,SCT,BKN,None,None,600.00,3300.00,M,M,-SN BR,KDCA 081844Z 05005KT 1SM R01/P6000FT -SN BR SCT006 BKN033 M01/M03 A3049 RMK AO2 P0007 $,
DCA,2013-12-08 18:52,30.02,26.06,85.00,30.00,5.00,0.07,30.50,1032.60,1.75,M,SCT,BKN,None,None,600.00,3300.00,M,M,UP BR,KDCA 081852Z 03005KT 1 3/4SM UP BR SCT006 BKN033 M01/M03 A3050 RMK AO2 UPB49SNE49 SLP326 P0007 T10111033 $,
DCA,2013-12-08 19:06,30.20,24.80,80.07,60.00,8.00,0.02,30.46,M,2.00,M,BKN,BKN,OVC,None,600.00,2000.00,6000.00,M,-PL BR,KDCA 081906Z 06008KT 2SM -PL BR BKN006 BKN020 OVC060 M01/M04 A3046 RMK AO2 PRESFR SNEPLB02 P0002 $,
DCA,2013-12-08 19:44,30.20,26.60,86.28,60.00,7.00,0.06,30.45,M,2.00,M,BKN,BKN,OVC,None,600.00,2000.00,6000.00,M,-FZRAPL BR,KDCA 081944Z 06007KT 2SM -FZRAPL BR BKN006 BKN020 OVC060 M01/M03 A3045 RMK AO2 SNEPLB02FZRAB38 P0006 $,
DCA,2013-12-08 19:52,30.92,26.06,81.95,60.00,7.00,0.07,30.46,1031.50,2.00,M,BKN,BKN,OVC,None,600.00,2000.00,6000.00,M,-FZRAPL BR,KDCA 081952Z 06007KT 2SM -FZRAPL BR BKN006 BKN020 OVC060 M01/M03 A3046 RMK AO2 SLP315 SNEPLB02FZRAB38 P0007 T10061033 $,
DCA,2013-12-08 20:12,30.20,24.80,80.07,60.00,7.00,0.01,30.47,M,4.00,M,BKN,BKN,OVC,None,600.00,1500.00,3500.00,M,-FZRA BR,KDCA 082012Z 06007KT 4SM -FZRA BR BKN006 BKN015 OVC035 M01/M04 A3047 RMK AO2 PLE04 P0001 $,
DCA,2013-12-08 20:29,30.20,26.60,86.28,20.00,6.00,0.04,30.48,M,4.00,M,BKN,BKN,OVC,None,600.00,1500.00,3500.00,M,FZRA BR,KDCA 082029Z 02006KT 4SM FZRA BR BKN006 BKN015 OVC035 M01/M03 A3048 RMK AO2 PLE04 P0004 $,
DCA,2013-12-08 20:41,30.20,26.60,86.28,40.00,6.00,0.07,30.47,M,3.00,M,OVC,None,None,None,1100.00,M,M,M,FZRA BR,KDCA 082041Z 04006KT 3SM FZRA BR OVC011 M01/M03 A3047 RMK AO2 PLE04 P0007 $,
DCA,2013-12-08 20:52,30.92,26.96,85.05,10.00,5.00,0.10,30.50,1032.60,3.00,M,OVC,None,None,None,1100.00,M,M,M,FZRA BR,KDCA 082052Z 01005KT 3SM FZRA BR OVC011 M01/M03 A3050 RMK AO2 SLP326 PLE04 P0010 60024 T10061028 55009 $,
DCA,2013-12-08 20:59,30.20,26.60,86.28,20.00,6.00,0.03,30.49,M,3.00,M,BKN,OVC,None,None,900.00,1400.00,M,M,FZRA BR,KDCA 082059Z 02006KT 3SM FZRA BR BKN009 OVC014 M01/M03 A3049 RMK AO2 P0003 $,
DCA,2013-12-08 21:01,30.20,26.60,86.28,20.00,6.00,0.03,30.48,M,3.00,M,SCT,BKN,OVC,None,900.00,1400.00,1900.00,M,FZRA BR,KDCA 082101Z 02006KT 3SM FZRA BR SCT009 BKN014 OVC019 M01/M03 A3048 RMK AO2 P0003 $,
DCA,2013-12-08 21:14,32.00,28.40,86.39,40.00,7.00,0.06,30.46,M,3.00,M,BKN,BKN,OVC,None,900.00,1400.00,2000.00,M,FZRA BR,KDCA 082114Z 04007KT 3SM FZRA BR BKN009 BKN014 OVC020 00/M02 A3046 RMK AO2 PRESFR P0006 $,
DCA,2013-12-08 21:16,32.00,28.40,86.39,40.00,7.00,0.06,30.46,M,3.00,M,BKN,OVC,None,None,1100.00,1700.00,M,M,FZRA BR,KDCA 082116Z 04007KT 3SM FZRA BR BKN011 OVC017 00/M02 A3046 RMK AO2 P0006 $,
DCA,2013-12-08 21:20,32.00,26.60,80.22,30.00,9.00,0.07,30.45,M,3.00,M,SCT,BKN,OVC,None,800.00,1300.00,2000.00,M,FZRA,KDCA 082120Z 03009KT 3SM FZRA SCT008 BKN013 OVC020 00/M03 A3045 RMK AO2 PRESFR P0007 $,
DCA,2013-12-08 21:29,32.00,28.40,86.39,30.00,9.00,0.09,30.45,M,3.00,M,BKN,BKN,OVC,None,1000.00,1700.00,3200.00,M,-FZRA BR,KDCA 082129Z 03009KT 3SM -FZRA BR BKN010 BKN017 OVC032 00/M02 A3045 RMK AO2 P0009 $,
DCA,2013-12-08 21:37,32.00,28.40,86.39,30.00,7.00,0.10,30.46,M,5.00,M,BKN,BKN,OVC,None,1000.00,1900.00,2500.00,M,FZRA BR,KDCA 082137Z 03007KT 5SM FZRA BR BKN010 BKN019 OVC025 00/M02 A3046 RMK AO2 P0010 $,
DCA,2013-12-08 21:44,32.00,28.40,86.39,30.00,4.00,0.12,30.46,M,4.00,M,FEW,BKN,OVC,None,700.00,1000.00,2500.00,M,FZRA BR,KDCA 082144Z 03004KT 4SM FZRA BR FEW007 BKN010 OVC025 00/M02 A3046 RMK AO2 P0012 $,
DCA,2013-12-08 21:52,32.00,28.04,85.12,30.00,4.00,0.13,30.46,1031.30,5.00,M,BKN,BKN,OVC,None,900.00,1600.00,2400.00,M,-FZRA BR,KDCA 082152Z 03004KT 5SM -FZRA BR BKN009 BKN016 OVC024 00/M02 A3046 RMK AO2 SLP313 P0013 T00001022 $,
DCA,2013-12-08 22:00,32.00,28.40,86.39,50.00,6.00,0.01,30.46,M,4.00,M,BKN,OVC,None,None,900.00,1800.00,M,M,FZRA BR,KDCA 082200Z 05006KT 4SM FZRA BR BKN009 OVC018 00/M02 A3046 RMK AO2 P0001 $,
DCA,2013-12-08 22:05,32.00,28.40,86.39,20.00,11.00,0.02,30.46,M,4.00,M,BKN,OVC,None,None,900.00,1900.00,M,M,-FZRA BR,KDCA 082205Z 02011KT 4SM -FZRA BR BKN009 OVC019 00/M02 A3046 RMK AO2 P0002 $,
DCA,2013-12-08 22:07,32.00,28.40,86.39,10.00,12.00,0.02,30.46,M,4.00,M,BKN,BKN,OVC,None,700.00,1100.00,1900.00,M,-FZRA BR,KDCA 082207Z 01012KT 4SM -FZRA BR BKN007 BKN011 OVC019 00/M02 A3046 RMK AO2 P0002 $,
DCA,2013-12-08 22:13,32.00,28.40,86.39,30.00,10.00,0.02,30.46,M,5.00,M,BKN,OVC,None,None,900.00,1600.00,M,M,-FZRA BR,KDCA 082213Z 03010KT 5SM -FZRA BR BKN009 OVC016 00/M02 A3046 RMK AO2 P0002 $,
DCA,2013-12-08 22:18,32.00,28.40,86.39,30.00,9.00,0.02,30.46,M,5.00,M,SCT,OVC,None,None,700.00,1100.00,M,M,-FZRA BR,KDCA 082218Z 03009KT 5SM -FZRA BR SCT007 OVC011 00/M02 A3046 RMK AO2 P0002 $,
DCA,2013-12-08 22:24,30.20,26.60,86.28,40.00,9.00,0.02,30.46,M,4.00,M,BKN,OVC,None,None,700.00,1100.00,M,M,-FZRA BR,KDCA 082224Z 04009KT 4SM -FZRA BR BKN007 OVC011 M01/M03 A3046 RMK AO2 P0002 $,
DCA,2013-12-08 22:31,30.20,26.60,86.28,40.00,10.00,0.03,30.45,M,4.00,M,BKN,OVC,None,None,900.00,1500.00,M,M,-FZRA BR,KDCA 082231Z 04010KT 4SM -FZRA BR BKN009 OVC015 M01/M03 A3045 RMK AO2 P0003 $,
DCA,2013-12-08 22:39,30.20,26.60,86.28,40.00,9.00,0.04,30.45,M,4.00,M,SCT,OVC,None,None,700.00,1500.00,M,M,-FZRA BR,KDCA 082239Z 04009KT 4SM -FZRA BR SCT007 OVC015 M01/M03 A3045 RMK AO2 P0004 $,
DCA,2013-12-08 22:52,30.92,26.96,85.05,30.00,9.00,0.04,30.46,1031.30,4.00,M,SCT,OVC,None,None,700.00,1500.00,M,M,-FZRA BR,KDCA 082252Z 03009KT 4SM -FZRA BR SCT007 OVC015 M01/M03 A3046 RMK AO2 SLP313 P0004 T10061028 $,
DCA,2013-12-08 23:15,30.20,26.60,86.28,30.00,7.00,0.01,30.45,M,5.00,M,BKN,OVC,None,None,700.00,1700.00,M,M,-FZRA BR,KDCA 082315Z 03007KT 5SM -FZRA BR BKN007 OVC017 M01/M03 A3045 RMK AO2 P0001 $,
DCA,2013-12-08 23:21,30.20,26.60,86.28,20.00,8.00,0.01,30.45,M,6.00,M,BKN,OVC,None,None,700.00,1700.00,M,M,-FZDZ BR,KDCA 082321Z 02008KT 6SM -FZDZ BR BKN007 OVC017 M01/M03 A3045 RMK AO2 FZRAE18FZDZB18 P0001 $,
DCA,2013-12-08 23:50,30.20,26.60,86.28,40.00,7.00,0.01,30.44,M,9.00,M,BKN,OVC,None,None,700.00,1700.00,M,M,M,KDCA 082350Z 04007KT 9SM BKN007 OVC017 M01/M03 A3044 RMK AO2 FZRAE18FZDZB18E48 P0001 $,
DCA,2013-12-08 23:52,30.92,26.96,85.05,50.00,7.00,0.01,30.44,1030.50,9.00,M,BKN,OVC,None,None,700.00,1700.00,M,M,M,KDCA 082352Z 05007KT 9SM BKN007 OVC017 M01/M03 A3044 RMK AO2 PRESFR SLP305 FZRAE18FZDZB18E48 P0001 60042 T10061028 10000 21017 58007 $,
DCA,2013-12-09 00:07,30.20,28.40,92.92,40.00,7.00,0.00,30.43,M,5.00,M,OVC,None,None,None,700.00,M,M,M,-FZDZ BR,KDCA 090007Z 04007KT 5SM -FZDZ BR OVC007 M01/M02 A3043 RMK AO2 FZDZB06 P0000 $,
DCA,2013-12-09 00:52,30.92,28.04,88.92,40.00,7.00,0.00,30.41,1029.50,4.00,M,OVC,None,None,None,700.00,M,M,M,-FZDZ BR,KDCA 090052Z 04007KT 4SM -FZDZ BR OVC007 M01/M02 A3041 RMK AO2 FZDZB06 SLP295 P0000 T10061022 $,
DCA,2013-12-09 01:24,30.20,28.40,92.92,50.00,5.00,0.00,30.39,M,2.50,M,OVC,None,None,None,700.00,M,M,M,-FZDZ BR,KDCA 090124Z 05005KT 2 1/2SM -FZDZ BR OVC007 M01/M02 A3039 RMK AO2 PRESFR P0000 $,
DCA,2013-12-09 01:32,32.00,28.40,86.39,20.00,4.00,0.01,30.39,M,3.00,M,OVC,None,None,None,500.00,M,M,M,-FZDZ BR,KDCA 090132Z 02004KT 3SM -FZDZ BR OVC005 00/M02 A3039 RMK AO2 P0001 $,
DCA,2013-12-09 01:52,32.00,28.94,88.32,30.00,4.00,0.01,30.38,1028.60,3.00,M,OVC,None,None,None,500.00,M,M,M,-FZDZ BR,KDCA 090152Z 03004KT 3SM -FZDZ BR OVC005 00/M02 A3038 RMK AO2 SLP286 P0001 T00001017 $,
DCA,2013-12-09 02:05,32.00,28.40,86.39,20.00,5.00,0.00,30.37,M,2.50,M,OVC,None,None,None,500.00,M,M,M,-FZDZ BR,KDCA 090205Z 02005KT 2 1/2SM -FZDZ BR OVC005 00/M02 A3037 RMK AO2 P0000 $,
DCA,2013-12-09 02:34,32.00,28.40,86.39,350.00,5.00,0.01,30.39,M,3.00,M,OVC,None,None,None,500.00,M,M,M,-FZDZ BR,KDCA 090234Z 35005KT 3SM -FZDZ BR OVC005 00/M02 A3039 RMK AO2 P0001 $,
DCA,2013-12-09 02:47,32.00,28.40,86.39,300.00,7.00,0.01,30.40,M,3.00,M,OVC,None,None,None,500.00,M,M,M,-FZRA BR,KDCA 090247Z 30007KT 3SM -FZRA BR OVC005 00/M02 A3040 RMK AO2 FZDZE46FZRAB46 P0001 $,
DCA,2013-12-09 02:52,32.00,28.94,88.32,350.00,6.00,0.02,30.38,1028.80,2.50,M,OVC,None,None,None,500.00,M,M,M,-FZRA BR,KDCA 090252Z 35006KT 2 1/2SM -FZRA BR OVC005 00/M02 A3038 RMK AO2 FZDZE46FZRAB46 SLP288 P0002 60003 T00001017 56007 $,
DCA,2013-12-09 03:06,32.00,30.20,92.97,340.00,7.00,0.05,30.39,M,2.50,M,BKN,OVC,None,None,700.00,2100.00,M,M,FZRA BR,KDCA 090306Z 34007KT 2 1/2SM R01/6000FT FZRA BR BKN007 OVC021 00/M01 A3039 RMK AO2 P0005 $,
DCA,2013-12-09 03:10,33.80,30.20,86.49,340.00,11.00,0.06,30.39,M,3.00,M,BKN,OVC,None,None,700.00,2100.00,M,M,FZRA BR,KDCA 090310Z 34011KT 3SM R01/6000FT FZRA BR BKN007 OVC021 01/M01 A3039 RMK AO2 P0006 $,
DCA,2013-12-09 03:28,33.80,30.20,86.49,10.00,7.00,0.14,30.35,M,4.00,M,OVC,None,None,None,700.00,M,M,M,FZRA BR,KDCA 090328Z 01007KT 4SM FZRA BR OVC007 01/M01 A3035 RMK AO2 PRESFR P0014 $,
DCA,2013-12-09 03:31,33.80,30.20,86.49,10.00,7.00,0.15,30.35,M,5.00,M,OVC,None,None,None,700.00,M,M,M,RA BR,KDCA 090331Z 01007KT 5SM RA BR OVC007 01/M01 A3035 RMK AO2 RAB30FZRAE30 P0015 $,
DCA,2013-12-09 03:39,33.80,28.40,80.36,20.00,7.00,0.16,30.35,M,8.00,M,OVC,None,None,None,900.00,M,M,M,-RA,KDCA 090339Z 02007KT 8SM -RA OVC009 01/M02 A3035 RMK AO2 RAB30FZRAE30 P0016 $,
DCA,2013-12-09 03:52,33.08,28.94,84.56,30.00,6.00,0.17,30.34,1027.10,7.00,M,OVC,None,None,None,900.00,M,M,M,RA,KDCA 090352Z 03006KT 7SM RA OVC009 01/M02 A3034 RMK AO2 RAB30FZRAE30 SLP271 P0017 T00061017 $,
DCA,2013-12-09 04:30,33.80,28.40,80.36,40.00,6.00,0.08,30.30,M,7.00,M,BKN,BKN,OVC,None,1100.00,1600.00,2100.00,M,-RA,KDCA 090430Z 04006KT 7SM -RA BKN011 BKN016 OVC021 01/M02 A3030 RMK AO2 PRESFR P0008 $,
DCA,2013-12-09 04:52,33.08,30.02,88.37,10.00,7.00,0.10,30.32,1026.50,9.00,M,OVC,None,None,None,1100.00,M,M,M,-RA,KDCA 090452Z 01007KT 9SM -RA OVC011 01/M01 A3032 RMK AO2 SLP265 P0010 T00061011 400111017 $,
DCA,2013-12-09 05:08,32.00,30.20,92.97,320.00,6.00,0.04,30.33,M,4.00,M,OVC,None,None,None,1100.00,M,M,M,FZRA BR,KDCA 090508Z 32006KT 4SM FZRA BR OVC011 00/M01 A3033 RMK AO2 RAE07FZRAB07 P0004 $,
DCA,2013-12-09 05:40,33.80,30.20,86.49,340.00,5.00,0.15,30.30,M,5.00,M,OVC,None,None,None,1100.00,M,M,M,-RA BR,KDCA 090540Z 34005KT 5SM -RA BR OVC011 01/M01 A3030 RMK AO2 RAE07B39FZRAB07E39 P0015 $,
DCA,2013-12-09 05:52,33.08,30.02,88.37,330.00,7.00,0.17,30.29,1025.70,4.00,M,OVC,None,None,None,1100.00,M,M,M,-RA BR,KDCA 090552Z 33007KT 4SM -RA BR OVC011 01/M01 A3029 RMK AO2 RAE07B39FZRAB07E39 SLP257 P0017 60047 T00061011 10011 21006 56031 $,
DCA,2013-12-09 06:12,33.80,30.20,86.49,310.00,8.00,0.03,30.29,M,5.00,M,BKN,OVC,None,None,800.00,1100.00,M,M,-RA BR,KDCA 090612Z 31008KT 5SM -RA BR BKN008 OVC011 01/M01 A3029 RMK AO2 P0003 $,
DCA,2013-12-09 06:48,33.80,30.20,86.49,320.00,5.00,0.07,30.26,M,6.00,M,FEW,OVC,None,None,800.00,1100.00,M,M,-RA BR,KDCA 090648Z 32005KT 6SM -RA BR FEW008 OVC011 01/M01 A3026 RMK AO2 P0007 $,
DCA,2013-12-09 06:52,33.08,30.92,91.66,340.00,5.00,0.08,30.26,1024.60,6.00,M,FEW,OVC,None,None,800.00,1100.00,M,M,-RA BR,KDCA 090652Z 34005KT 6SM -RA BR FEW008 OVC011 01/M01 A3026 RMK AO2 SLP246 P0008 T00061006 $,
DCA,2013-12-09 07:07,33.80,30.20,86.49,10.00,4.00,0.03,30.23,M,5.00,M,BKN,OVC,None,None,900.00,1100.00,M,M,RA BR,KDCA 090707Z 01004KT 5SM RA BR BKN009 OVC011 01/M01 A3023 RMK AO2 PRESFR P0003 $,
DCA,2013-12-09 07:52,33.98,30.92,88.42,40.00,6.00,0.09,30.20,1022.60,7.00,M,BKN,OVC,None,None,900.00,2000.00,M,M,-RA,KDCA 090752Z 04006KT 7SM -RA BKN009 OVC020 01/M01 A3020 RMK AO2 SLP226 P0009 T00111006 $,
DCA,2013-12-09 08:15,33.80,30.20,86.49,10.00,6.00,0.00,30.21,M,7.00,M,BKN,OVC,None,None,1100.00,1800.00,M,M,-RA,KDCA 090815Z 01006KT 7SM -RA BKN011 OVC018 01/M01 A3021 RMK AO2 P0000 $,
DCA,2013-12-09 08:23,33.80,30.20,86.49,10.00,6.00,0.00,30.20,M,7.00,M,BKN,OVC,None,None,900.00,1600.00,M,M,-RA,KDCA 090823Z 01006KT 7SM -RA BKN009 OVC016 01/M01 A3020 RMK AO2 P0000 $,
DCA,2013-12-09 08:52,33.98,30.92,88.42,340.00,6.00,0.00,30.20,1022.70,4.00,M,OVC,None,None,None,900.00,M,M,M,-DZ BR,KDCA 090852Z 34006KT 4SM -DZ BR OVC009 01/M01 A3020 RMK AO2 RAE38DZB38 SLP227 P0000 60017 T00111006 55019 $,
DCA,2013-12-09 09:14,33.80,30.20,86.49,330.00,4.00,0.00,30.20,M,2.50,M,OVC,None,None,None,700.00,M,M,M,-DZ BR,KDCA 090914Z 33004KT 2 1/2SM -DZ BR OVC007 01/M01 A3020 RMK AO2 P0000 $,
DCA,2013-12-09 09:43,33.80,30.20,86.49,290.00,3.00,0.04,30.20,M,3.00,M,OVC,None,None,None,700.00,M,M,M,-RA BR,KDCA 090943Z 29003KT 3SM -RA BR OVC007 01/M01 A3020 RMK AO2 DZE25RAB25 P0004 $,
DCA,2013-12-09 09:52,33.98,30.92,88.42,280.00,3.00,0.05,30.20,1022.50,3.00,M,OVC,None,None,None,700.00,M,M,M,-RA BR,KDCA 090952Z 28003KT 3SM -RA BR OVC007 01/M01 A3020 RMK AO2 DZE25RAB25 SLP225 P0005 T00111006 $,
DCA,2013-12-09 10:30,33.80,30.20,86.49,0.00,0.00,0.06,30.18,M,6.00,M,SCT,BKN,OVC,None,500.00,1200.00,3700.00,M,-RA BR,KDCA 091030Z 00000KT 6SM -RA BR SCT005 BKN012 OVC037 01/M01 A3018 RMK AO2 P0006 $,
DCA,2013-12-09 10:52,33.98,30.92,88.42,0.00,0.00,0.06,30.17,1021.50,4.00,M,OVC,None,None,None,1000.00,M,M,M,-RA BR,KDCA 091052Z 00000KT 4SM -RA BR OVC010 01/M01 A3017 RMK AO2 SLP215 P0006 T00111006 $,
DCA,2013-12-09 11:24,33.80,30.20,86.49,0.00,0.00,0.02,30.17,M,6.00,M,SCT,BKN,OVC,None,1000.00,2100.00,4700.00,M,-RA BR,KDCA 091124Z 00000KT 6SM -RA BR SCT010 BKN021 OVC047 01/M01 A3017 RMK AO2 P0002 $,
DCA,2013-12-09 11:30,33.80,30.20,86.49,0.00,0.00,0.02,30.17,M,6.00,M,BKN,BKN,OVC,None,800.00,2100.00,4700.00,M,-DZ,KDCA 091130Z 00000KT 6SM -DZ BKN008 BKN021 OVC047 01/M01 A3017 RMK AO2 RAE29DZB29 P0002 $,
DCA,2013-12-09 11:44,33.80,30.20,86.49,220.00,3.00,0.03,30.16,M,3.00,M,BKN,BKN,OVC,None,600.00,2200.00,4300.00,M,RA BR,KDCA 091144Z 22003KT 3SM RA BR BKN006 BKN022 OVC043 01/M01 A3016 RMK AO2 DZB29E43 P0003 $,
DCA,2013-12-09 11:49,33.80,30.20,86.49,220.00,3.00,0.06,30.16,M,2.50,M,BKN,OVC,None,None,600.00,2500.00,M,M,+RA BR,KDCA 091149Z 22003KT 2 1/2SM +RA BR BKN006 OVC025 01/M01 A3016 RMK AO2 DZB29E43 P0006 $,
DCA,2013-12-09 11:52,33.98,30.92,88.42,0.00,0.00,0.07,30.16,1021.10,2.50,M,SCT,BKN,OVC,None,600.00,2500.00,4500.00,M,+RA BR,KDCA 091152Z 00000KT 2 1/2SM +RA BR SCT006 BKN025 OVC045 01/M01 A3016 RMK AO2 DZB29E43 SLP211 P0007 60035 70132 T00111006 10011 20006 56014 $,
DCA,2013-12-09 11:55,33.80,32.00,93.03,0.00,0.00,0.02,30.15,M,3.00,M,BKN,BKN,OVC,None,600.00,2500.00,4500.00,M,RA BR,KDCA 091155Z 00000KT 3SM RA BR BKN006 BKN025 OVC045 01/00 A3015 RMK AO2 P0002 $,
DCA,2013-12-09 12:02,33.80,30.20,86.49,250.00,3.00,0.06,30.16,M,2.50,M,BKN,BKN,OVC,None,600.00,3500.00,4500.00,M,+RA BR,KDCA 091202Z 25003KT 2 1/2SM +RA BR BKN006 BKN035 OVC045 01/M01 A3016 RMK AO2 P0006 $,
DCA,2013-12-09 12:38,33.80,30.20,86.49,190.00,3.00,0.12,30.14,M,2.50,M,BKN,OVC,None,None,700.00,4300.00,M,M,-DZ BR,KDCA 091238Z 19003KT 2 1/2SM R01/5500VP6000FT -DZ BR BKN007 OVC043 01/M01 A3014 RMK AO2 RAE26DZB26 P0012 $,
DCA,2013-12-09 12:52,33.98,30.92,88.42,240.00,4.00,0.13,30.16,1021.10,4.00,M,BKN,OVC,None,None,600.00,4100.00,M,M,-DZ BR,KDCA 091252Z 24004KT 4SM -DZ BR BKN006 OVC041 01/M01 A3016 RMK AO2 RAE26DZB26 SLP211 CIG 005V008 BKN V SCT P0013 T00111006 $,
DCA,2013-12-09 13:42,33.80,30.20,86.49,210.00,4.00,0.02,30.15,M,3.00,M,SCT,BKN,OVC,None,600.00,1600.00,5500.00,M,RA BR,KDCA 091342Z 21004KT 3SM RA BR SCT006 BKN016 OVC055 01/M01 A3015 RMK AO2 DZE30RAB32 P0002 $,
DCA,2013-12-09 13:52,33.98,30.92,88.42,240.00,4.00,0.03,30.15,1020.90,5.00,M,SCT,BKN,OVC,None,700.00,1600.00,3600.00,M,-RA BR,KDCA 091352Z 24004KT 5SM -RA BR SCT007 BKN016 OVC036 01/M01 A3015 RMK AO2 DZE30RAB32 SLP209 SCT V BKN P0003 T00111006 $,
DCA,2013-12-09 14:07,33.80,30.20,86.49,220.00,4.00,0.00,30.15,M,4.00,M,SCT,BKN,OVC,None,700.00,1400.00,2900.00,M,-RA BR,KDCA 091407Z 22004KT 4SM -RA BR SCT007 BKN014 OVC029 01/M01 A3015 RMK AO2 P0000 $,
DCA,2013-12-09 14:31,33.80,30.20,86.49,230.00,4.00,0.02,30.15,M,10.00,M,BKN,OVC,None,None,700.00,1200.00,M,M,-RA,KDCA 091431Z 23004KT 10SM -RA BKN007 OVC012 01/M01 A3015 RMK AO2 P0002 $,
DCA,2013-12-09 14:52,33.98,30.92,88.42,250.00,4.00,0.02,30.15,1020.90,10.00,M,BKN,OVC,None,None,700.00,1400.00,M,M,M,KDCA 091452Z 25004KT 10SM BKN007 OVC014 01/M01 A3015 RMK AO2 RAE38 SLP209 P0002 60018 T00111006 58002 $,
DCA,2013-12-09 15:52,35.06,32.00,88.47,190.00,4.00,0.00,30.14,1020.40,10.00,M,OVC,None,None,None,700.00,M,M,M,M,KDCA 091552Z 19004KT 10SM OVC007 02/00 A3014 RMK AO2 SLP204 T00170000 $,
DCA,2013-12-09 16:52,35.06,32.00,88.47,0.00,0.00,0.00,30.07,1018.10,5.00,M,BKN,OVC,None,None,700.00,6000.00,M,M,-RA BR,KDCA 091652Z 00000KT 5SM -RA BR BKN007 OVC060 02/00 A3007 RMK AO2 PRESFR SLP181 RAB47 P0000 T00170000 $,
DCA,2013-12-09 17:20,35.60,32.00,86.59,M,4.00,0.01,30.09,M,10.00,M,SCT,BKN,OVC,None,700.00,1200.00,5500.00,M,M,KDCA 091720Z VRB04KT 10SM SCT007 BKN012 OVC055 02/00 A3009 RMK AO2 RAE14 BINOVC P0001 $,
DCA,2013-12-09 17:52,37.04,33.08,85.43,200.00,6.00,0.01,30.06,1018.00,10.00,M,SCT,BKN,OVC,None,700.00,1200.00,5000.00,M,M,KDCA 091752Z 20006KT 10SM SCT007 BKN012 OVC050 03/01 A3006 RMK AO2 RAE14 PRESFR SLP180 BINOVC P0001 60019 T00280006 10028 20011 56029 $,
DCA,2013-12-09 18:18,37.40,33.80,86.69,210.00,4.00,0.00,30.06,M,10.00,M,BKN,OVC,None,None,800.00,1200.00,M,M,M,KDCA 091818Z 21004KT 10SM BKN008 OVC012 03/01 A3006 RMK AO2 BINOVC $,
DCA,2013-12-09 18:52,37.04,33.98,88.57,240.00,6.00,0.00,30.06,1018.00,10.00,M,BKN,OVC,None,None,800.00,1200.00,M,M,M,KDCA 091852Z 24006KT 10SM BKN008 OVC012 03/01 A3006 RMK AO2 SLP180 T00280011 $,
DCA,2013-12-09 19:52,37.04,33.08,85.43,220.00,5.00,0.00,30.08,1018.30,10.00,M,OVC,None,None,None,800.00,M,M,M,M,KDCA 091952Z 22005KT 10SM OVC008 03/01 A3008 RMK AO2 SLP183 T00280006 $,
DCA,2013-12-09 20:34,37.40,33.80,86.69,230.00,4.00,0.00,30.07,M,10.00,M,SCT,BKN,None,None,800.00,8000.00,M,M,M,KDCA 092034Z 23004KT 10SM SCT008 BKN080 03/01 A3007 RMK AO2 $,
DCA,2013-12-09 20:45,37.40,33.80,86.69,220.00,5.00,0.00,30.07,M,10.00,M,BKN,BKN,None,None,800.00,8000.00,M,M,M,KDCA 092045Z 22005KT 10SM BKN008 BKN080 03/01 A3007 RMK AO2 $,
DCA,2013-12-09 20:52,37.94,33.08,82.46,230.00,5.00,0.00,30.08,1018.40,10.00,M,SCT,BKN,None,None,800.00,8000.00,M,M,M,KDCA 092052Z 23005KT 10SM SCT008 BKN080 03/01 A3008 RMK AO2 SLP184 T00330006 53004 $,
DCA,2013-12-09 20:58,37.40,33.80,86.69,220.00,6.00,0.00,30.08,M,10.00,M,BKN,BKN,None,None,800.00,8000.00,M,M,M,KDCA 092058Z 22006KT 10SM BKN008 BKN080 03/01 A3008 RMK AO2 $,
DCA,2013-12-09 21:52,37.04,33.08,85.43,0.00,0.00,0.00,30.07,1018.20,10.00,M,BKN,None,None,None,800.00,M,M,M,M,KDCA 092152Z 00000KT 10SM BKN008 03/01 A3007 RMK AO2 SLP182 T00280006 $,
DCA,2013-12-09 22:52,35.96,32.00,85.37,290.00,3.00,0.00,30.09,1018.80,10.00,M,OVC,None,None,None,800.00,M,M,M,M,KDCA 092252Z 29003KT 10SM OVC008 02/00 A3009 RMK AO2 SLP188 T00220000 $,
DCA,2013-12-09 22:58,35.60,33.80,93.08,240.00,4.00,0.00,30.09,M,10.00,M,OVC,None,None,None,600.00,M,M,M,M,KDCA 092258Z 24004KT 10SM OVC006 02/01 A3009 RMK AO2 $,
DCA,2013-12-09 23:41,35.60,33.80,93.08,0.00,0.00,0.00,30.10,M,10.00,M,OVC,None,None,None,400.00,M,M,M,M,KDCA 092341Z 00000KT 10SM OVC004 02/01 A3010 RMK AO2 $,
DCA,2013-12-09 23:52,35.06,33.08,92.40,0.00,0.00,0.00,30.11,1019.40,7.00,M,OVC,None,None,None,400.00,M,M,M,M,KDCA 092352Z 00000KT 7SM OVC004 02/01 A3011 RMK AO2 SLP194 T00170006 10033 20017 53010 $,
DCA,2013-12-10 00:52,35.96,33.08,89.16,250.00,4.00,0.00,30.12,1019.90,5.00,M,OVC,None,None,None,400.00,M,M,M,BR,KDCA 100052Z 25004KT 5SM BR OVC004 02/01 A3012 RMK AO2 SLP199 T00220006 $,
DCA,2013-12-10 01:52,35.96,33.08,89.16,10.00,3.00,0.00,30.12,1019.80,5.00,M,OVC,None,None,None,400.00,M,M,M,BR,KDCA 100152Z 01003KT 5SM BR OVC004 02/01 A3012 RMK AO2 SLP198 T00220006 $,
DCA,2013-12-10 02:48,35.60,33.80,93.08,0.00,0.00,0.00,30.12,M,6.00,M,OVC,None,None,None,600.00,M,M,M,BR,KDCA 100248Z 00000KT 6SM BR OVC006 02/01 A3012 RMK AO2 $,
DCA,2013-12-10 02:52,35.96,33.08,89.16,0.00,0.00,0.00,30.12,1019.80,6.00,M,OVC,None,None,None,600.00,M,M,M,BR,KDCA 100252Z 00000KT 6SM BR OVC006 02/01 A3012 RMK AO2 SLP198 T00220006 55001 $,
DCA,2013-12-10 03:52,35.96,32.00,85.37,240.00,3.00,0.00,30.11,1019.60,6.00,M,OVC,None,None,None,600.00,M,M,M,BR,KDCA 100352Z 24003KT 6SM BR OVC006 02/00 A3011 RMK AO2 SLP196 T00220000 $,
DCA,2013-12-10 04:26,35.60,33.80,93.08,M,3.00,0.00,30.11,M,5.00,M,OVC,None,None,None,400.00,M,M,M,BR,KDCA 100426Z VRB03KT 5SM BR OVC004 02/01 A3011 RMK AO2 $,
DCA,2013-12-10 04:39,35.60,32.00,86.59,210.00,4.00,0.00,30.11,M,5.00,M,OVC,None,None,None,600.00,M,M,M,BR,KDCA 100439Z 21004KT 5SM BR OVC006 02/00 A3011 RMK AO2 $,
DCA,2013-12-10 04:52,35.06,32.00,88.47,190.00,4.00,0.00,30.10,1019.10,5.00,M,OVC,None,None,None,600.00,M,M,M,BR,KDCA 100452Z 19004KT 5SM BR OVC006 02/00 A3010 RMK AO2 SLP191 T00170000 402390006 $,
DCA,2013-12-10 05:52,35.06,32.00,88.47,0.00,0.00,0.00,30.08,1018.40,5.00,M,OVC,None,None,None,400.00,M,M,M,BR,KDCA 100552Z 00000KT 5SM BR OVC004 02/00 A3008 RMK AO2 SLP184 T00170000 10022 20017 58014 $,
DCA,2013-12-10 06:52,35.06,32.00,88.47,0.00,0.00,0.00,30.06,1017.90,4.00,M,OVC,None,None,None,400.00,M,M,M,BR,KDCA 100652Z 00000KT 4SM BR OVC004 02/00 A3006 RMK AO2 SLP179 T00170000 $,
DCA,2013-12-10 07:52,35.06,32.00,88.47,260.00,3.00,0.00,30.08,1018.50,5.00,M,OVC,None,None,None,400.00,M,M,M,BR,KDCA 100752Z 26003KT 5SM BR OVC004 02/00 A3008 RMK AO2 SLP185 T00170000 $,
DCA,2013-12-10 08:52,33.98,32.00,92.36,0.00,0.00,0.00,30.05,1017.60,5.00,M,BKN,OVC,None,None,400.00,1000.00,M,M,BR,KDCA 100852Z 00000KT 5SM BR BKN004 OVC010 01/00 A3005 RMK AO2 PRESFR SLP176 T00110000 58008 $,
DCA,2013-12-10 09:12,33.80,30.20,86.49,0.00,0.00,0.00,30.03,M,5.00,M,SCT,BKN,OVC,None,400.00,11000.00,15000.00,M,BR,KDCA 100912Z 00000KT 5SM BR SCT004 BKN110 OVC150 01/M01 A3003 RMK AO2 $,
DCA,2013-12-10 09:52,35.06,32.00,88.47,240.00,4.00,0.00,30.06,1017.80,6.00,M,SCT,OVC,None,None,400.00,8500.00,M,M,BR,KDCA 100952Z 24004KT 6SM BR SCT004 OVC085 02/00 A3006 RMK AO2 SLP178 T00170000 $,
DCA,2013-12-10 10:52,35.06,32.00,88.47,230.00,4.00,0.00,30.06,1017.70,7.00,M,FEW,SCT,OVC,None,400.00,3600.00,8500.00,M,M,KDCA 101052Z 23004KT 7SM FEW004 SCT036 OVC085 02/00 A3006 RMK AO2 SLP177 T00170000 $,
DCA,2013-12-10 11:29,35.60,32.00,86.59,0.00,0.00,0.00,30.04,M,7.00,M,FEW,BKN,OVC,None,400.00,3600.00,7000.00,M,-SN,KDCA 101129Z 00000KT 7SM -SN FEW004 BKN036 OVC070 02/00 A3004 RMK AO2 RAB1054E08SNB1054 PRESFR P0000 $,
DCA,2013-12-10 11:47,37.40,32.00,80.65,330.00,6.00,0.00,30.06,M,1.50,M,SCT,OVC,None,None,600.00,2000.00,M,M,-SNPL,KDCA 101147Z 33006KT 1 1/2SM -SNPL SCT006 OVC020 03/00 A3006 RMK AO2 RAB1054E08SNB1054PLB47 P0000 $,
DCA,2013-12-10 11:52,35.06,30.92,84.69,340.00,8.00,0.02,30.05,1017.60,0.75,M,BKN,OVC,None,None,700.00,1400.00,M,M,-RASNPL,KDCA 101152Z 34008KT 3/4SM R01/5500VP6000FT -RASNPL BKN007 OVC014 02/M01 A3005 RMK AO2 RAB1054E08B50SNB1054PLB47 SLP176 P0002 60002 70021 T00171006 10028 20011 50000 $,
DCA,2013-12-10 11:57,35.60,30.20,80.51,350.00,7.00,0.01,30.06,M,1.50,M,BKN,OVC,None,None,900.00,1700.00,M,M,-RASNPL,KDCA 101157Z 35007KT 1 1/2SM R01/5500VP6000FT -RASNPL BKN009 OVC017 02/M01 A3006 RMK AO2 P0001 $,
DCA,2013-12-10 12:04,33.80,32.00,93.03,350.00,6.00,0.02,30.07,M,2.00,M,SCT,BKN,OVC,None,1000.00,2000.00,4000.00,M,-RASNPL,KDCA 101204Z 35006KT 2SM -RASNPL SCT010 BKN020 OVC040 01/00 A3007 RMK AO2 P0002 $,
DCA,2013-12-10 12:09,33.80,32.00,93.03,340.00,7.00,0.02,30.07,M,1.75,M,SCT,BKN,OVC,None,1200.00,1800.00,4300.00,M,-SNRA BR,KDCA 101209Z 34007KT 1 3/4SM -SNRA BR SCT012 BKN018 OVC043 01/00 A3007 RMK AO2 PLE09 P0002 $,
DCA,2013-12-10 12:22,33.80,32.00,93.03,360.00,5.00,0.04,30.04,M,2.00,M,SCT,BKN,OVC,None,1200.00,2400.00,3600.00,M,-SN BR,KDCA 101222Z 36005KT 2SM -SN BR SCT012 BKN024 OVC036 01/00 A3004 RMK AO2 RAE22PLE09 PRESFR P0004 $,
DCA,2013-12-10 12:31,33.80,32.00,93.03,350.00,5.00,0.05,30.03,M,1.50,M,SCT,BKN,OVC,None,900.00,2800.00,4300.00,M,-SN BR,KDCA 101231Z 35005KT 1 1/2SM -SN BR SCT009 BKN028 OVC043 01/00 A3003 RMK AO2 RAE22PLE09 P0005 $,
DCA,2013-12-10 12:41,33.80,32.00,93.03,340.00,6.00,0.06,30.05,M,2.00,M,BKN,OVC,None,None,900.00,2800.00,M,M,-SN BR,KDCA 101241Z 34006KT 2SM -SN BR BKN009 OVC028 01/00 A3005 RMK AO2 RAE22PLE09 P0006 $,
DCA,2013-12-10 12:52,33.98,32.00,92.36,350.00,6.00,0.06,30.03,1016.70,2.50,M,OVC,None,None,None,900.00,M,M,M,-SN BR,KDCA 101252Z 35006KT 2 1/2SM -SN BR OVC009 01/00 A3003 RMK AO2 RAE22PLE09 SLP167 P0006 T00110000 $,
DCA,2013-12-10 13:00,33.80,32.00,93.03,350.00,6.00,0.01,30.03,M,1.00,M,OVC,None,None,None,800.00,M,M,M,BR,KDCA 101300Z 35006KT 1SM R01/P6000FT BR OVC008 01/00 A3003 RMK AO2 SNEMM P0001 $,
DCA,2013-12-10 13:23,33.80,32.00,93.03,360.00,4.00,0.04,30.03,M,0.75,M,BKN,OVC,None,None,800.00,1200.00,M,M,-SN BR,KDCA 101323Z 36004KT 3/4SM R01/5500VP6000FT -SN BR BKN008 OVC012 01/00 A3003 RMK AO2 P0004 $,
DCA,2013-12-10 13:47,33.80,32.00,93.03,10.00,3.00,0.07,30.04,M,1.25,M,BKN,OVC,None,None,800.00,1300.00,M,M,-SN BR,KDCA 101347Z 01003KT 1 1/4SM R01/5000VP6000FT -SN BR BKN008 OVC013 01/00 A3004 RMK AO2 P0007 $,
DCA,2013-12-10 13:52,33.98,30.92,88.42,20.00,3.00,0.07,30.04,1017.10,0.75,M,BKN,OVC,None,None,900.00,1500.00,M,M,-SN BR,KDCA 101352Z 02003KT 3/4SM R01/5000VP6000FT -SN BR BKN009 OVC015 01/M01 A3004 RMK AO2 SLP171 P0007 T00111006 $,
DCA,2013-12-10 14:01,33.80,30.20,86.49,0.00,0.00,0.02,30.03,M,0.50,M,OVC,None,None,None,700.00,M,M,M,SN BR,KDCA 101401Z 00000KT 1/2SM R01/3500V5000FT SN BR OVC007 01/M01 A3003 RMK AO2 P0002 $,
DCA,2013-12-10 14:12,33.80,32.00,93.03,0.00,0.00,0.04,30.03,M,0.75,M,BKN,OVC,None,None,700.00,1100.00,M,M,-SN BR,KDCA 101412Z 00000KT 3/4SM R01/3500V5000FT -SN BR BKN007 OVC011 01/00 A3003 RMK AO2 P0004 $,
DCA,2013-12-10 14:23,33.80,32.00,93.03,0.00,0.00,0.05,30.03,M,1.25,M,BKN,OVC,None,None,500.00,1100.00,M,M,-SN BR,KDCA 101423Z 00000KT 1 1/4SM R01/5000V6000FT -SN BR BKN005 OVC011 01/00 A3003 RMK AO2 P0005 $,
DCA,2013-12-10 14:34,33.80,32.00,93.03,0.00,0.00,0.06,30.01,M,1.25,M,SCT,BKN,OVC,None,500.00,1100.00,2000.00,M,-SN BR,KDCA 101434Z 00000KT 1 1/4SM R01/5000V6000FT -SN BR SCT005 BKN011 OVC020 01/00 A3001 RMK AO2 P0006 $,
DCA,2013-12-10 14:52,33.98,30.92,88.42,0.00,0.00,0.08,30.04,1017.00,1.25,M,BKN,BKN,OVC,None,600.00,1100.00,2000.00,M,-SN BR,KDCA 101452Z 00000KT 1 1/4SM R01/6000VP6000FT -SN BR BKN006 BKN011 OVC020 01/M01 A3004 RMK AO2 PRESRR SLP170 P0008 60021 T00111006 50003 $,
DCA,2013-12-10 15:09,33.80,30.20,86.49,340.00,4.00,0.01,30.04,M,1.25,M,SCT,BKN,OVC,None,700.00,1100.00,3200.00,M,-SNRA BR,KDCA 101509Z 34004KT 1 1/4SM R01/5500VP6000FT -SNRA BR SCT007 BKN011 OVC032 01/M01 A3004 RMK AO2 RAB07 P0001 $,
DCA,2013-12-10 15:22,33.80,30.20,86.49,350.00,3.00,0.03,30.04,M,0.75,M,BKN,BKN,OVC,None,700.00,1100.00,2000.00,M,-SN BR,KDCA 101522Z 35003KT 3/4SM R01/5500VP6000FT -SN BR BKN007 BKN011 OVC020 01/M01 A3004 RMK AO2 RAB07E20 P0003 $,
DCA,2013-12-10 15:39,33.80,30.20,86.49,340.00,3.00,0.07,30.03,M,0.50,M,SCT,BKN,OVC,None,600.00,1100.00,2600.00,M,SN FG,KDCA 101539Z 34003KT 1/2SM R01/3500VP6000FT SN FG SCT006 BKN011 OVC026 01/M01 A3003 RMK AO2 RAB07E20 P0007 $,
DCA,2013-12-10 15:52,33.98,30.92,88.42,350.00,4.00,0.08,30.02,1016.60,1.00,M,SCT,BKN,OVC,None,600.00,1300.00,2500.00,M,-SN BR,KDCA 101552Z 35004KT 1SM R01/5500VP6000FT -SN BR SCT006 BKN013 OVC025 01/M01 A3002 RMK AO2 RAB07E20 SLP166 P0008 T00111006 $,
DCA,2013-12-10 16:26,33.80,30.20,86.49,10.00,3.00,0.02,30.02,M,2.00,M,SCT,BKN,OVC,None,700.00,1400.00,2800.00,M,-SN BR,KDCA 101626Z 01003KT 2SM -SN BR SCT007 BKN014 OVC028 01/M01 A3002 RMK AO2 P0002 $,
DCA,2013-12-10 16:42,33.80,30.20,86.49,340.00,6.00,0.03,30.02,M,1.50,M,SCT,BKN,OVC,None,700.00,1400.00,2800.00,M,-SN BR,KDCA 101642Z 34006KT 1 1/2SM -SN BR SCT007 BKN014 OVC028 01/M01 A3002 RMK AO2 P0003 $,
DCA,2013-12-10 16:52,33.98,30.92,88.42,350.00,4.00,0.03,30.02,1016.40,2.50,M,FEW,BKN,OVC,None,700.00,1400.00,1900.00,M,-SN BR,KDCA 101652Z 35004KT 2 1/2SM -SN BR FEW007 BKN014 OVC019 01/M01 A3002 RMK AO2 SLP164 P0003 T00111006 $,
DCA,2013-12-10 16:59,33.80,30.20,86.49,350.00,4.00,0.01,30.02,M,3.00,M,SCT,BKN,OVC,None,1000.00,1600.00,3600.00,M,-SN BR,KDCA 101659Z 35004KT 3SM -SN BR SCT010 BKN016 OVC036 01/M01 A3002 RMK AO2 P0001 $,
DCA,2013-12-10 17:12,35.60,30.20,80.51,330.00,5.00,0.01,30.02,M,6.00,M,BKN,OVC,None,None,1500.00,4000.00,M,M,BR,KDCA 101712Z 33005KT 6SM BR BKN015 OVC040 02/M01 A3002 RMK AO2 SNE11 P0001 $,
DCA,2013-12-10 17:25,35.60,30.20,80.51,320.00,7.00,0.01,30.02,M,8.00,M,SCT,OVC,None,None,1400.00,4200.00,M,M,M,KDCA 101725Z 32007KT 8SM SCT014 OVC042 02/M01 A3002 RMK AO2 SNE19 P0001 $,
DCA,2013-12-10 17:52,35.96,30.02,78.79,320.00,6.00,0.01,30.03,1016.70,10.00,M,FEW,BKN,OVC,None,1500.00,5500.00,8500.00,M,M,KDCA 101752Z 32006KT 10SM FEW015 BKN055 OVC085 02/M01 A3003 RMK AO2 SNE19 SLP167 4/001 P0001 60033 T00221011 10022 20011 55002 $,
DCA,2013-12-10 18:52,37.04,30.02,75.50,340.00,7.00,0.00,30.03,1016.70,10.00,M,FEW,SCT,OVC,None,4800.00,8500.00,11000.00,M,M,KDCA 101852Z 34007KT 10SM FEW048 SCT085 OVC110 03/M01 A3003 RMK AO2 SLP167 T00281011 $,
DCA,2013-12-10 19:52,39.02,30.92,72.46,330.00,6.00,0.00,30.05,1017.50,10.00,M,FEW,SCT,None,None,2000.00,11000.00,M,M,M,KDCA 101952Z 33006KT 10SM FEW020 SCT110 04/M01 A3005 RMK AO2 SLP175 T00391006 $,
DCA,2013-12-10 20:52,39.92,28.04,62.21,300.00,7.00,0.00,30.07,1018.10,10.00,M,FEW,SCT,None,None,3000.00,12000.00,M,M,M,KDCA 102052Z 30007KT 10SM FEW030 SCT120 04/M02 A3007 RMK AO2 SLP181 T00441022 53013 $,
DCA,2013-12-10 21:52,37.94,26.06,61.94,290.00,9.00,0.00,30.10,1019.10,10.00,M,FEW,SCT,None,None,4000.00,13000.00,M,M,M,KDCA 102152Z 29009KT 10SM FEW040 SCT130 03/M03 A3010 RMK AO2 SLP191 T00331033 $,
DCA,2013-12-10 22:52,37.04,21.92,53.97,290.00,8.00,0.00,30.15,1020.90,10.00,M,FEW,None,None,None,5000.00,M,M,M,M,KDCA 102252Z 29008KT 10SM FEW050 03/M06 A3015 RMK AO2 SLP209 T00281056 $,
DCA,2013-12-10 23:52,35.96,19.94,51.78,0.00,0.00,0.00,30.17,1021.40,10.00,M,CLR,None,None,None,M,M,M,M,M,KDCA 102352Z 00000KT 10SM CLR 02/M07 A3017 RMK AO2 SLP214 T00221067 10044 20017 51033 $,
DCA,2013-12-11 00:52,35.06,19.94,53.66,250.00,4.00,0.00,30.18,1021.70,10.00,M,CLR,None,None,None,M,M,M,M,M,KDCA 110052Z 25004KT 10SM CLR 02/M07 A3018 RMK AO2 SLP217 T00171067 $,
DCA,2013-12-11 01:52,33.98,21.02,58.66,230.00,3.00,0.00,30.19,1022.20,10.00,M,CLR,None,None,None,M,M,M,M,M,KDCA 110152Z 23003KT 10SM CLR 01/M06 A3019 RMK AO2 SLP222 T00111061 $,
DCA,2013-12-11 02:52,33.08,19.94,58.08,210.00,3.00,0.00,30.21,1022.90,10.00,M,CLR,None,None,None,M,M,M,M,M,KDCA 110252Z 21003KT 10SM CLR 01/M07 A3021 RMK AO2 SLP229 T00061067 53015 $,
DCA,2013-12-11 03:52,32.00,21.02,63.51,200.00,4.00,0.00,30.23,1023.70,10.00,M,CLR,None,None,None,M,M,M,M,M,KDCA 110352Z 20004KT 10SM CLR 00/M06 A3023 RMK AO2 SLP237 T00001061 $,
DCA,2013-12-11 04:52,32.00,19.94,60.66,270.00,4.00,0.00,30.25,1024.20,10.00,M,CLR,None,None,None,M,M,M,M,M,KDCA 110452Z 27004KT 10SM CLR 00/M07 A3025 RMK AO2 SLP242 T00001067 400441006 $,
DCA,2013-12-11 05:52,30.92,19.94,63.36,190.00,3.00,0.00,30.25,1024.40,10.00,M,CLR,None,None,None,M,M,M,M,M,KDCA 110552Z 19003KT 10SM CLR M01/M07 A3025 RMK AO2 SLP244 T10061067 10022 21011 51015 $,
DCA,2013-12-11 06:52,30.02,19.94,65.72,260.00,3.00,0.00,30.29,1025.40,10.00,M,CLR,None,None,None,M,M,M,M,M,KDCA 110652Z 26003KT 10SM CLR M01/M07 A3029 RMK AO2 SLP254 T10111067 $,
DCA,2013-12-11 07:52,30.92,19.04,60.97,0.00,0.00,0.00,30.32,1026.60,10.00,M,CLR,None,None,None,M,M,M,M,M,KDCA 110752Z 00000KT 10SM CLR M01/M07 A3032 RMK AO2 SLP266 T10061072 $,
DCA,2013-12-11 08:52,30.02,21.02,68.81,0.00,0.00,0.00,30.33,1027.00,10.00,M,CLR,None,None,None,M,M,M,M,M,KDCA 110852Z 00000KT 10SM CLR M01/M06 A3033 RMK AO2 SLP270 T10111061 51026 $,
DCA,2013-12-11 09:52,28.94,15.98,57.92,330.00,3.00,0.00,30.35,1027.50,10.00,M,CLR,None,None,None,M,M,M,M,M,KDCA 110952Z 33003KT 10SM CLR M02/M09 A3035 RMK AO2 SLP275 T10171089 $,
DCA,2013-12-11 10:52,28.94,17.96,63.10,0.00,0.00,0.00,30.37,1028.30,10.00,M,CLR,None,None,None,M,M,M,M,M,KDCA 111052Z 00000KT 10SM CLR M02/M08 A3037 RMK AO2 SLP283 T10171078 $,
DCA,2013-12-11 11:52,28.04,17.96,65.47,230.00,3.00,0.00,30.39,1029.00,10.00,M,CLR,None,None,None,M,M,M,M,M,KDCA 111152Z 23003KT 10SM CLR M02/M08 A3039 RMK AO2 SLP290 70033 T10221078 10011 21039 53020 $,
DCA,2013-12-11 12:52,28.94,19.94,68.68,M,3.00,0.00,30.40,1029.40,10.00,M,FEW,None,None,None,25000.00,M,M,M,M,KDCA 111252Z VRB03KT 10SM FEW250 M02/M07 A3040 RMK AO2 SLP294 T10171067 $,
DCA,2013-12-11 13:52,30.92,19.94,63.36,200.00,4.00,0.00,30.42,1030.10,10.00,M,SCT,None,None,None,25000.00,M,M,M,M,KDCA 111352Z 20004KT 10SM SCT250 M01/M07 A3042 RMK AO2 SLP301 T10061067 $,
DCA,2013-12-11 14:52,35.06,15.98,45.26,0.00,0.00,0.00,30.44,1030.60,10.00,M,BKN,None,None,None,25000.00,M,M,M,M,KDCA 111452Z 00000KT 10SM BKN250 02/M09 A3044 RMK AO2 SLP306 T00171089 53015 $,
DCA,2013-12-11 15:52,35.06,23.00,61.08,170.00,5.00,0.00,30.41,1029.80,10.00,M,BKN,None,None,None,24000.00,M,M,M,M,KDCA 111552Z 17005KT 10SM BKN240 02/M05 A3041 RMK AO2 SLP298 T00171050,
DCA,2013-12-11 16:52,37.04,23.00,56.48,170.00,5.00,0.00,30.37,1028.40,10.00,M,BKN,None,None,None,23000.00,M,M,M,M,KDCA 111652Z 17005KT 10SM BKN230 03/M05 A3037 RMK AO2 SLP284 T00281050,
DCA,2013-12-11 17:52,39.02,19.94,45.91,160.00,6.00,0.00,30.33,1026.90,10.00,M,BKN,None,None,None,24000.00,M,M,M,M,KDCA 111752Z 16006KT 10SM BKN240 04/M07 A3033 RMK AO2 SLP269 T00391067 10044 21028 58037,
DCA,2013-12-11 18:52,41.00,19.94,42.51,220.00,6.00,0.00,30.30,1026.10,10.00,M,BKN,None,None,None,24000.00,M,M,M,M,KDCA 111852Z 22006KT 10SM BKN240 05/M07 A3030 RMK AO2 SLP261 T00501067,
DCA,2013-12-11 19:52,42.08,21.02,42.69,220.00,6.00,0.00,30.28,1025.50,10.00,M,SCT,None,None,None,25000.00,M,M,M,M,KDCA 111952Z 22006KT 10SM SCT250 06/M06 A3028 RMK AO2 SLP255 T00561061,
DCA,2013-12-11 20:52,42.08,19.04,39.23,230.00,4.00,0.00,30.28,1025.20,10.00,M,FEW,None,None,None,25000.00,M,M,M,M,KDCA 112052Z 23004KT 10SM FEW250 06/M07 A3028 RMK AO2 SLP252 T00561072 56017,
DCA,2013-12-11 21:52,37.94,24.08,57.04,190.00,5.00,0.00,30.27,1025.00,10.00,M,FEW,None,None,None,25000.00,M,M,M,M,KDCA 112152Z 19005KT 10SM FEW250 03/M04 A3027 RMK AO2 SLP250 T00331044,
DCA,2013-12-11 22:52,41.00,19.94,42.51,0.00,0.00,0.00,30.28,1025.10,10.00,M,FEW,None,None,None,25000.00,M,M,M,M,KDCA 112252Z 00000KT 10SM FEW250 05/M07 A3028 RMK AO2 SLP251 T00501067,
DCA,2013-12-11 23:52,37.94,26.96,64.29,0.00,0.00,0.00,30.28,1025.20,10.00,M,CLR,None,None,None,M,M,M,M,M,KDCA 112352Z 00000KT 10SM CLR 03/M03 A3028 RMK AO2 SLP252 T00331028 10061 20022 55000,
DCA,2013-12-12 00:52,35.96,26.96,69.51,0.00,0.00,0.00,30.27,1025.10,10.00,M,CLR,None,None,None,M,M,M,M,M,KDCA 120052Z 00000KT 10SM CLR 02/M03 A3027 RMK AO2 SLP251 T00221028,
DCA,2013-12-12 01:52,33.08,23.00,66.11,10.00,7.00,0.00,30.28,1025.10,10.00,M,FEW,None,None,None,25000.00,M,M,M,M,KDCA 120152Z 01007KT 10SM FEW250 01/M05 A3028 RMK AO2 SLP251 T00061050,
DCA,2013-12-12 02:52,33.08,21.92,63.17,70.00,4.00,0.00,30.28,1025.20,10.00,M,SCT,None,None,None,25000.00,M,M,M,M,KDCA 120252Z 07004KT 10SM SCT250 01/M06 A3028 RMK AO2 SLP252 T00061056 53000,
DCA,2013-12-12 03:52,33.08,21.92,63.17,0.00,0.00,0.00,30.28,1025.20,10.00,M,FEW,None,None,None,25000.00,M,M,M,M,KDCA 120352Z 00000KT 10SM FEW250 01/M06 A3028 RMK AO2 SLP252 T00061056,
DCA,2013-12-12 04:52,32.00,21.92,65.97,0.00,0.00,0.00,30.28,1025.30,10.00,M,FEW,None,None,None,25000.00,M,M,M,M,KDCA 120452Z 00000KT 10SM FEW250 00/M06 A3028 RMK AO2 SLP253 T00001056 400611039 $,
DCA,2013-12-12 05:52,30.92,24.08,75.46,0.00,0.00,0.00,30.27,1025.00,10.00,M,FEW,None,None,None,4000.00,M,M,M,M,KDCA 120552Z 00000KT 10SM FEW040 M01/M04 A3027 RMK AO2 SLP250 T10061044 10033 21006 58002,
DCA,2013-12-12 06:52,33.98,19.04,53.91,300.00,7.00,0.00,30.29,1025.60,10.00,M,FEW,BKN,None,None,4000.00,24000.00,M,M,M,KDCA 120652Z 30007KT 10SM FEW040 BKN240 01/M07 A3029 RMK AO2 SLP256 T00111072,
DCA,2013-12-12 07:52,32.00,19.94,60.66,330.00,7.00,0.00,30.32,1026.60,10.00,M,FEW,BKN,None,None,4000.00,24000.00,M,M,M,KDCA 120752Z 33007KT 10SM FEW040 BKN240 00/M07 A3032 RMK AO2 SLP266 T00001067 $,
DCA,2013-12-12 08:52,32.00,19.04,58.37,330.00,12.00,0.00,30.33,1027.00,10.00,M,FEW,BKN,None,None,4000.00,25000.00,M,M,M,KDCA 120852Z 33012KT 10SM FEW040 BKN250 00/M07 A3033 RMK AO2 SLP270 T00001072 51020 $,
DCA,2013-12-12 09:52,30.92,19.94,63.36,340.00,11.00,0.00,30.34,1027.40,10.00,M,SCT,None,None,None,25000.00,M,M,M,M,KDCA 120952Z 34011KT 10SM SCT250 M01/M07 A3034 RMK AO2 SLP274 T10061067 $,
DCA,2013-12-12 10:52,30.02,17.96,60.38,350.00,14.00,0.00,30.36,1028.10,10.00,21.00,CLR,None,None,None,M,M,M,M,M,KDCA 121052Z 35014G21KT 10SM CLR M01/M08 A3036 RMK AO2 SLP281 T10111078 $,
DCA,2013-12-12 11:52,28.94,15.08,55.69,340.00,13.00,0.00,30.40,1029.20,10.00,M,FEW,None,None,None,24000.00,M,M,M,M,KDCA 121152Z 34013KT 10SM FEW240 M02/M09 A3040 RMK AO2 SLP292 T10171094 10017 21017 53022 $,
DCA,2013-12-12 12:52,28.04,10.94,48.15,330.00,14.00,0.00,30.43,1030.40,10.00,M,FEW,BKN,None,None,4000.00,21000.00,M,M,M,KDCA 121252Z 33014KT 10SM FEW040 BKN210 M02/M12 A3043 RMK AO2 SLP304 T10221117,
DCA,2013-12-12 13:52,28.04,10.94,48.15,340.00,14.00,0.00,30.44,1030.60,10.00,M,FEW,BKN,None,None,4000.00,20000.00,M,M,M,KDCA 121352Z 34014KT 10SM FEW040 BKN200 M02/M12 A3044 RMK AO2 SLP306 T10221117,
DCA,2013-12-12 14:52,28.04,10.94,48.15,340.00,14.00,0.00,30.46,1031.50,10.00,21.00,FEW,BKN,None,None,4000.00,19000.00,M,M,M,KDCA 121452Z 34014G21KT 10SM FEW040 BKN190 M02/M12 A3046 RMK AO2 SLP315 T10221117 51023,
DCA,2013-12-12 15:52,30.02,10.94,44.41,330.00,10.00,0.00,30.44,1030.80,10.00,M,CLR,None,None,None,M,M,M,M,M,KDCA 121552Z 33010KT 10SM CLR M01/M12 A3044 RMK AO2 SLP308 T10111117,
DCA,2013-12-12 16:52,30.92,10.04,41.13,310.00,8.00,0.00,30.41,1029.70,10.00,18.00,FEW,None,None,None,4500.00,M,M,M,M,KDCA 121652Z 31008G18KT 10SM FEW045 M01/M12 A3041 RMK AO2 SLP297 T10061122,
DCA,2013-12-12 17:52,32.00,10.04,39.38,300.00,5.00,0.00,30.38,1028.80,10.00,M,FEW,None,None,None,4500.00,M,M,M,M,KDCA 121752Z 30005KT 10SM FEW045 00/M12 A3038 RMK AO2 SLP288 T00001122 10006 21022 58027,
DCA,2013-12-12 18:52,33.08,8.96,35.92,320.00,9.00,0.00,30.36,1028.00,10.00,15.00,FEW,None,None,None,4500.00,M,M,M,M,KDCA 121852Z 32009G15KT 10SM FEW045 01/M13 A3036 RMK AO2 SLP280 T00061128,
DCA,2013-12-12 19:52,33.08,8.96,35.92,300.00,8.00,0.00,30.35,1027.70,10.00,M,FEW,SCT,None,None,5000.00,25000.00,M,M,M,KDCA 121952Z 30008KT 10SM FEW050 SCT250 01/M13 A3035 RMK AO2 SLP277 T00061128,
DCA,2013-12-12 20:52,33.08,8.06,34.50,300.00,6.00,0.00,30.35,1027.70,10.00,M,FEW,None,None,None,25000.00,M,M,M,M,KDCA 122052Z 30006KT 10SM FEW250 01/M13 A3035 RMK AO2 SLP277 T00061133 56010,
DCA,2013-12-12 21:52,32.00,8.06,36.03,M,5.00,0.00,30.36,1027.80,10.00,M,FEW,None,None,None,25000.00,M,M,M,M,KDCA 122152Z VRB05KT 10SM FEW250 00/M13 A3036 RMK AO2 SLP278 T00001133,
DCA,2013-12-12 22:52,30.92,8.96,39.19,320.00,4.00,0.00,30.36,1028.00,10.00,M,FEW,None,None,None,25000.00,M,M,M,M,KDCA 122252Z 32004KT 10SM FEW250 M01/M13 A3036 RMK AO2 SLP280 T10061128,
DCA,2013-12-12 23:52,30.02,6.98,37.17,330.00,5.00,0.00,30.36,1028.10,10.00,M,CLR,None,None,None,M,M,M,M,M,KDCA 122352Z 33005KT 10SM CLR M01/M14 A3036 RMK AO2 SLP281 T10111139 10006 21011 51003,
DCA,2013-12-13 00:52,30.02,5.00,33.97,310.00,4.00,0.00,30.37,1028.40,10.00,M,FEW,None,None,None,25000.00,M,M,M,M,KDCA 130052Z 31004KT 10SM FEW250 M01/M15 A3037 RMK AO2 SLP284 T10111150,
DCA,2013-12-13 01:52,28.04,8.96,44.07,200.00,4.00,0.00,30.34,1027.20,10.00,M,FEW,None,None,None,25000.00,M,M,M,M,KDCA 130152Z 20004KT 10SM FEW250 M02/M13 A3034 RMK AO2 SLP272 T10221128,
DCA,2013-12-13 02:52,28.04,12.02,50.52,210.00,4.00,0.00,30.32,1026.40,10.00,M,FEW,None,None,None,25000.00,M,M,M,M,KDCA 130252Z 21004KT 10SM FEW250 M02/M11 A3032 RMK AO2 SLP264 T10221111 58016,
DCA,2013-12-13 03:52,28.94,12.92,50.66,210.00,9.00,0.00,30.29,1025.60,10.00,M,CLR,None,None,None,M,M,M,M,M,KDCA 130352Z 21009KT 10SM CLR M02/M11 A3029 RMK AO2 SLP256 T10171106,
DCA,2013-12-13 04:52,26.96,14.00,57.63,210.00,7.00,0.00,30.28,1025.20,10.00,M,FEW,None,None,None,25000.00,M,M,M,M,KDCA 130452Z 21007KT 10SM FEW250 M03/M10 A3028 RMK AO2 SLP252 T10281100 400171028 $,
DCA,2013-12-13 05:52,26.06,15.08,62.70,230.00,4.00,0.00,30.27,1024.90,10.00,M,FEW,None,None,None,4000.00,M,M,M,M,KDCA 130552Z 23004KT 10SM FEW040 M03/M09 A3027 RMK AO2 SLP249 T10331094 11006 21033 56016 $,
DCA,2013-12-13 06:52,24.98,15.98,68.20,210.00,5.00,0.00,30.26,1024.50,10.00,M,SCT,None,None,None,25000.00,M,M,M,M,KDCA 130652Z 21005KT 10SM SCT250 M04/M09 A3026 RMK AO2 SLP245 T10391089 $,
DCA,2013-12-13 07:52,26.96,15.08,60.41,190.00,5.00,0.00,30.26,1024.70,10.00,M,BKN,None,None,None,24000.00,M,M,M,M,KDCA 130752Z 19005KT 10SM BKN240 M03/M09 A3026 RMK AO2 SLP247 T10281094 $,
DCA,2013-12-13 08:52,32.00,10.04,39.38,250.00,9.00,0.00,30.26,1024.60,10.00,M,BKN,None,None,None,23000.00,M,M,M,M,KDCA 130852Z 25009KT 10SM BKN230 00/M12 A3026 RMK AO2 SLP246 T00001122 56002 $,
DCA,2013-12-13 09:52,32.00,10.94,40.99,230.00,8.00,0.00,30.26,1024.50,10.00,M,BKN,None,None,None,22000.00,M,M,M,M,KDCA 130952Z 23008KT 10SM BKN220 00/M12 A3026 RMK AO2 SLP245 T00001117 $,
DCA,2013-12-13 10:52,32.00,12.02,43.00,240.00,7.00,0.00,30.27,1025.00,10.00,M,BKN,None,None,None,22000.00,M,M,M,M,KDCA 131052Z 24007KT 10SM BKN220 00/M11 A3027 RMK AO2 SLP250 T00001111 $,
DCA,2013-12-13 11:52,30.92,12.92,46.74,240.00,4.00,0.00,30.27,1025.10,10.00,M,BKN,None,None,None,20000.00,M,M,M,M,KDCA 131152Z 24004KT 10SM BKN200 M01/M11 A3027 RMK AO2 SLP251 T10061106 10000 21039 53004,
DCA,2013-12-13 12:52,30.92,12.92,46.74,230.00,4.00,0.00,30.29,1025.60,10.00,M,FEW,SCT,None,None,17000.00,20000.00,M,M,M,KDCA 131252Z 23004KT 10SM FEW170 SCT200 M01/M11 A3029 RMK AO2 SLP256 T10061106,
DCA,2013-12-13 13:52,33.08,14.00,44.92,210.00,5.00,0.00,30.31,1026.40,10.00,M,FEW,None,None,None,20000.00,M,M,M,M,KDCA 131352Z 21005KT 10SM FEW200 01/M10 A3031 RMK AO2 SLP264 T00061100,
DCA,2013-12-13 14:52,35.96,14.00,40.05,220.00,7.00,0.00,30.31,1026.30,10.00,M,FEW,None,None,None,18000.00,M,M,M,M,KDCA 131452Z 22007KT 10SM FEW180 02/M10 A3031 RMK AO2 SLP263 T00221100 50012 $,
DCA,2013-12-13 15:52,39.02,12.92,33.87,220.00,8.00,0.00,30.31,1026.20,10.00,M,FEW,None,None,None,20000.00,M,M,M,M,KDCA 131552Z 22008KT 10SM FEW200 04/M11 A3031 RMK AO2 SLP262 T00391106,
DCA,2013-12-13 16:52,42.08,14.00,31.54,230.00,7.00,0.00,30.28,1025.20,10.00,M,FEW,None,None,None,20000.00,M,M,M,M,KDCA 131652Z 23007KT 10SM FEW200 06/M10 A3028 RMK AO2 SLP252 T00561100,
DCA,2013-12-13 17:52,44.06,12.92,27.88,260.00,6.00,0.00,30.26,1024.70,10.00,M,SCT,None,None,None,23000.00,M,M,M,M,KDCA 131752Z 26006KT 10SM SCT230 07/M11 A3026 RMK AO2 SLP247 T00671106 10067 21011 58016,
DCA,2013-12-13 18:52,44.06,14.00,29.23,230.00,7.00,0.00,30.25,1024.20,10.00,M,FEW,BKN,None,None,18000.00,24000.00,M,M,M,KDCA 131852Z 23007KT 10SM FEW180 BKN240 07/M10 A3025 RMK AO2 SLP242 T00671100,
DCA,2013-12-13 19:52,42.08,19.94,40.77,170.00,7.00,0.00,30.24,1024.00,10.00,M,BKN,None,None,None,19000.00,M,M,M,M,KDCA 131952Z 17007KT 10SM BKN190 06/M07 A3024 RMK AO2 SLP240 T00561067,
DCA,2013-12-13 20:52,42.08,15.98,34.38,210.00,7.00,0.00,30.25,1024.30,10.00,M,FEW,BKN,None,None,15000.00,21000.00,M,M,M,KDCA 132052Z 21007KT 10SM FEW150 BKN210 06/M09 A3025 RMK AO2 SLP243 ACSL SW T00561089 55004,
DCA,2013-12-13 21:52,39.02,19.04,44.18,210.00,5.00,0.00,30.26,1024.80,10.00,M,SCT,BKN,None,None,18000.00,24000.00,M,M,M,KDCA 132152Z 21005KT 10SM SCT180 BKN240 04/M07 A3026 RMK AO2 SLP248 T00391072,
DCA,2013-12-13 22:52,39.92,19.04,42.65,0.00,0.00,0.00,30.28,1025.40,10.00,M,SCT,None,None,None,25000.00,M,M,M,M,KDCA 132252Z 00000KT 10SM SCT250 04/M07 A3028 RMK AO2 SLP254 T00441072,
DCA,2013-12-13 23:52,37.04,24.08,59.09,140.00,3.00,0.00,30.29,1025.70,10.00,M,BKN,None,None,None,25000.00,M,M,M,M,KDCA 132352Z 14003KT 10SM BKN250 03/M04 A3029 RMK AO2 SLP257 T00281044 10072 20022 51014,
DCA,2013-12-14 00:52,35.96,26.06,66.97,0.00,0.00,0.00,30.30,1025.80,10.00,M,SCT,BKN,None,None,15000.00,25000.00,M,M,M,KDCA 140052Z 00000KT 10SM SCT150 BKN250 02/M03 A3030 RMK AO2 SLP258 T00221033,
DCA,2013-12-14 01:52,37.04,23.00,56.48,0.00,0.00,0.00,30.30,1025.80,10.00,M,OVC,None,None,None,16000.00,M,M,M,M,KDCA 140152Z 00000KT 10SM OVC160 03/M05 A3030 RMK AO2 SLP258 T00281050,
DCA,2013-12-14 02:52,37.04,24.98,61.35,0.00,0.00,0.00,30.32,1026.50,10.00,M,BKN,OVC,None,None,16000.00,25000.00,M,M,M,KDCA 140252Z 00000KT 10SM BKN160 OVC250 03/M04 A3032 RMK AO2 SLP265 T00281039 53009,
DCA,2013-12-14 03:52,35.96,26.96,69.51,20.00,4.00,0.00,30.32,1026.70,10.00,M,OVC,None,None,None,17000.00,M,M,M,M,KDCA 140352Z 02004KT 10SM OVC170 02/M03 A3032 RMK AO2 SLP267 T00221028,
DCA,2013-12-14 04:21,35.60,26.60,69.46,30.00,4.00,0.00,30.32,M,10.00,M,OVC,None,None,None,20000.00,M,M,M,M,KDCA 140421Z 03004KT 10SM OVC200 02/M03 A3032 RMK AO2,
DCA,2013-12-14 04:52,35.96,24.98,64.03,60.00,4.00,0.00,30.33,1026.80,10.00,M,OVC,None,None,None,20000.00,M,M,M,M,KDCA 140452Z 06004KT 10SM OVC200 02/M04 A3033 RMK AO2 SLP268 T00221039 400721039,
DCA,2013-12-14 05:52,35.96,23.00,58.94,40.00,6.00,0.00,30.31,1026.30,10.00,M,OVC,None,None,None,19000.00,M,M,M,M,KDCA 140552Z 04006KT 10SM OVC190 02/M05 A3031 RMK AO2 SLP263 T00221050 10039 20011 58003,
DCA,2013-12-14 06:52,37.04,21.92,53.97,0.00,0.00,0.00,30.31,1026.40,10.00,M,OVC,None,None,None,14000.00,M,M,M,M,KDCA 140652Z 00000KT 10SM OVC140 03/M06 A3031 RMK AO2 SLP264 T00281056,
DCA,2013-12-14 07:27,37.40,21.20,51.61,0.00,0.00,0.00,30.33,M,10.00,M,OVC,None,None,None,15000.00,M,M,M,M,KDCA 140727Z 00000KT 10SM OVC150 03/M06 A3033 RMK AO2,
DCA,2013-12-14 07:52,37.94,21.02,50.14,0.00,0.00,0.00,30.33,1026.90,10.00,M,OVC,None,None,None,15000.00,M,M,M,M,KDCA 140752Z 00000KT 10SM OVC150 03/M06 A3033 RMK AO2 SLP269 T00331061,
DCA,2013-12-14 08:52,35.96,26.06,66.97,50.00,4.00,0.00,30.31,1026.30,10.00,M,OVC,None,None,None,13000.00,M,M,M,M,KDCA 140852Z 05004KT 10SM OVC130 02/M03 A3031 RMK AO2 SLP263 T00221033 50000,
DCA,2013-12-14 09:52,35.96,26.96,69.51,40.00,4.00,0.00,30.33,1026.80,10.00,M,FEW,OVC,None,None,8000.00,10000.00,M,M,M,KDCA 140952Z 04004KT 10SM FEW080 OVC100 02/M03 A3033 RMK AO2 SLP268 T00221028,
DCA,2013-12-14 10:52,35.96,26.96,69.51,30.00,5.00,0.00,30.33,1026.90,10.00,M,OVC,None,None,None,9500.00,M,M,M,M,KDCA 141052Z 03005KT 10SM OVC095 02/M03 A3033 RMK AO2 SLP269 T00221028,
DCA,2013-12-14 11:52,37.04,26.96,66.60,50.00,4.00,0.00,30.32,1026.60,10.00,M,OVC,None,None,None,7000.00,M,M,M,M,KDCA 141152Z 05004KT 10SM OVC070 03/M03 A3032 RMK AO2 SLP266 T00281028 10033 20017 50003,
DCA,2013-12-14 12:52,37.04,28.04,69.63,20.00,5.00,0.00,30.34,1027.40,10.00,M,OVC,None,None,None,6000.00,M,M,M,M,KDCA 141252Z 02005KT 10SM OVC060 03/M02 A3034 RMK AO2 SLP274 VIRGA ALQDS T00281022,
DCA,2013-12-14 13:52,37.94,28.94,69.73,60.00,7.00,0.00,30.33,1026.90,10.00,M,BKN,OVC,None,None,5500.00,7000.00,M,M,M,KDCA 141352Z 06007KT 10SM BKN055 OVC070 03/M02 A3033 RMK AO2 SLP269 T00331017,
DCA,2013-12-14 14:52,39.02,30.02,69.86,40.00,5.00,0.00,30.32,1026.50,10.00,M,FEW,OVC,None,None,5500.00,10000.00,M,M,M,KDCA 141452Z 04005KT 10SM FEW055 OVC100 04/M01 A3032 RMK AO2 SLP265 T00391011 58000,
DCA,2013-12-14 15:52,39.92,30.02,67.45,40.00,6.00,0.00,30.30,1025.80,10.00,M,BKN,OVC,None,None,11000.00,20000.00,M,M,M,KDCA 141552Z 04006KT 10SM BKN110 OVC200 04/M01 A3030 RMK AO2 SLP258 T00441011,
DCA,2013-12-14 16:52,41.00,30.92,67.09,70.00,5.00,0.00,30.25,1024.20,10.00,M,SCT,BKN,BKN,OVC,4500.00,8500.00,10000.00,20000.00,M,KDCA 141652Z 07005KT 10SM SCT045 BKN085 BKN100 OVC200 05/M01 A3025 RMK AO2 SLP242 T00501006,
DCA,2013-12-14 17:52,42.08,32.00,67.22,50.00,4.00,0.00,30.25,1024.10,10.00,M,OVC,None,None,None,6500.00,M,M,M,M,KDCA 141752Z 05004KT 10SM OVC065 06/00 A3025 RMK AO2 SLP241 T00560000 10056 20028 56024,
DCA,2013-12-14 18:52,42.08,30.92,64.35,70.00,10.00,0.00,30.19,1022.30,10.00,M,OVC,None,None,None,6000.00,M,M,M,M,KDCA 141852Z 07010KT 10SM OVC060 06/M01 A3019 RMK AO2 SLP223 T00561006,
DCA,2013-12-14 19:04,42.80,32.00,65.38,110.00,5.00,0.00,30.20,M,10.00,M,BKN,OVC,None,None,4600.00,6000.00,M,M,-RA,KDCA 141904Z 11005KT 10SM -RA BKN046 OVC060 06/00 A3020 RMK AO2 RAB03 P0000,
DCA,2013-12-14 19:52,41.00,33.08,73.19,70.00,10.00,0.00,30.14,1020.50,10.00,M,SCT,OVC,None,None,3900.00,5000.00,M,M,M,KDCA 141952Z 07010KT 10SM SCT039 OVC050 05/01 A3014 RMK AO2 RAB03E42 SLP205 P0000 T00500006,
DCA,2013-12-14 20:52,39.02,33.08,79.05,50.00,11.00,0.00,30.09,1018.90,8.00,M,OVC,None,None,None,5000.00,M,M,M,-RA,KDCA 142052Z 05011KT 8SM -RA OVC050 04/01 A3009 RMK AO2 RAB19 SLP189 P0000 60000 T00390006 56052,
DCA,2013-12-14 21:07,37.40,33.80,86.69,50.00,12.00,0.02,30.10,M,5.00,M,BKN,OVC,None,None,5000.00,5500.00,M,M,-RA BR,KDCA 142107Z 05012KT 5SM -RA BR BKN050 OVC055 03/01 A3010 RMK AO2 P0002,
DCA,2013-12-14 21:52,37.04,33.08,85.43,40.00,6.00,0.14,30.09,1018.70,2.50,M,OVC,None,None,None,3100.00,M,M,M,RA BR,KDCA 142152Z 04006KT 2 1/2SM RA BR OVC031 03/01 A3009 RMK AO2 SLP187 P0014 T00280006,
DCA,2013-12-14 22:06,37.40,33.80,86.69,40.00,7.00,0.03,30.07,M,3.00,M,BKN,OVC,None,None,2700.00,3200.00,M,M,RA BR,KDCA 142206Z 04007KT 3SM RA BR BKN027 OVC032 03/01 A3007 RMK AO2 PRESFR P0003,
DCA,2013-12-14 22:47,37.40,33.80,86.69,40.00,8.00,0.06,30.04,M,5.00,M,FEW,OVC,None,None,700.00,2500.00,M,M,-RA BR,KDCA 142247Z 04008KT 5SM -RA BR FEW007 OVC025 03/01 A3004 RMK AO2 P0006,
DCA,2013-12-14 22:52,37.04,33.98,88.57,30.00,6.00,0.06,30.03,1017.00,5.00,M,SCT,OVC,None,None,700.00,2500.00,M,M,-RA BR,KDCA 142252Z 03006KT 5SM -RA BR SCT007 OVC025 03/01 A3003 RMK AO2 SLP170 P0006 T00280011,
DCA,2013-12-14 23:04,37.40,33.80,86.69,40.00,8.00,0.01,30.02,M,5.00,M,BKN,OVC,None,None,700.00,2500.00,M,M,-RA BR,KDCA 142304Z 04008KT 5SM -RA BR BKN007 OVC025 03/01 A3002 RMK AO2 P0001,
DCA,2013-12-14 23:52,37.04,33.98,88.57,40.00,8.00,0.04,29.95,1014.20,2.50,M,OVC,None,None,None,500.00,M,M,M,-RA BR,KDCA 142352Z 04008KT 2 1/2SM -RA BR OVC005 03/01 A2995 RMK AO2 PRESFR SLP142 P0004 60024 T00280011 10056 20028 58045,
DCA,2013-12-15 00:13,37.40,35.60,93.14,40.00,9.00,0.01,29.93,M,5.00,M,OVC,None,None,None,500.00,M,M,M,-RA BR,KDCA 150013Z 04009KT 5SM -RA BR OVC005 03/02 A2993 RMK AO2 P0001,
DCA,2013-12-15 00:52,37.94,35.06,89.25,50.00,7.00,0.03,29.88,1011.60,4.00,M,OVC,None,None,None,500.00,M,M,M,-RA BR,KDCA 150052Z 05007KT 4SM -RA BR OVC005 03/02 A2988 RMK AO2 PRESFR SLP116 P0003 T00330017,
DCA,2013-12-15 01:19,39.20,35.60,86.79,20.00,7.00,0.02,29.85,M,2.50,M,OVC,None,None,None,500.00,M,M,M,RA BR,KDCA 150119Z 02007KT 2 1/2SM RA BR OVC005 04/02 A2985 RMK AO2 P0002,
DCA,2013-12-15 01:28,39.20,35.60,86.79,330.00,7.00,0.04,29.86,M,4.00,M,OVC,None,None,None,500.00,M,M,M,-RA BR,KDCA 150128Z 33007KT 4SM -RA BR OVC005 04/02 A2986 RMK AO2 P0004,
DCA,2013-12-15 01:44,39.20,37.40,93.19,330.00,10.00,0.07,29.85,M,2.00,M,OVC,None,None,None,500.00,M,M,M,+RA BR,KDCA 150144Z 33010KT 2SM +RA BR OVC005 04/03 A2985 RMK AO2 P0007,
DCA,2013-12-15 01:52,39.92,35.96,85.61,340.00,11.00,0.11,29.84,1010.30,2.00,M,BKN,BKN,OVC,None,500.00,900.00,1400.00,M,RA BR,KDCA 150152Z 34011KT 2SM RA BR BKN005 BKN009 OVC014 04/02 A2984 RMK AO2 PRESFR SLP103 P0011 T00440022,
DCA,2013-12-15 02:01,39.20,35.60,86.79,320.00,13.00,0.01,29.83,M,3.00,M,SCT,OVC,None,None,500.00,1200.00,M,M,-RA BR,KDCA 150201Z 32013KT 3SM -RA BR SCT005 OVC012 04/02 A2983 RMK AO2 P0001,
DCA,2013-12-15 02:05,39.20,35.60,86.79,320.00,13.00,0.02,29.84,M,3.00,M,BKN,OVC,None,None,800.00,1200.00,M,M,-RA BR,KDCA 150205Z 32013KT 3SM -RA BR BKN008 OVC012 04/02 A2984 RMK AO2 P0002,
DCA,2013-12-15 02:16,39.20,35.60,86.79,320.00,11.00,0.05,29.84,M,3.00,M,FEW,BKN,OVC,None,600.00,1100.00,1700.00,M,-RA BR,KDCA 150216Z 32011KT 3SM -RA BR FEW006 BKN011 OVC017 04/02 A2984 RMK AO2 P0005,
DCA,2013-12-15 02:52,37.94,35.06,89.25,330.00,11.00,0.07,29.81,1009.50,5.00,M,FEW,OVC,None,None,600.00,1400.00,M,M,-RA BR,KDCA 150252Z 33011KT 5SM -RA BR FEW006 OVC014 03/02 A2981 RMK AO2 SLP095 P0007 60021 T00330017 56047,
DCA,2013-12-15 03:33,37.40,35.60,93.14,340.00,9.00,0.01,29.76,M,5.00,M,SCT,BKN,OVC,None,800.00,2100.00,2500.00,M,-DZ BR,KDCA 150333Z 34009KT 5SM -DZ BR SCT008 BKN021 OVC025 03/02 A2976 RMK AO2 RAE24DZB24 P0001,
DCA,2013-12-15 03:52,39.02,35.06,85.55,340.00,8.00,0.01,29.77,1008.10,5.00,M,FEW,OVC,None,None,800.00,2100.00,M,M,-DZ BR,KDCA 150352Z 34008KT 5SM -DZ BR FEW008 OVC021 04/02 A2977 RMK AO2 RAE24DZB24 SLP081 P0001 T00390017,
DCA,2013-12-15 04:40,37.40,35.60,93.14,330.00,9.00,0.00,29.73,M,10.00,M,BKN,OVC,None,None,1000.00,2100.00,M,M,M,KDCA 150440Z 33009KT 10SM BKN010 OVC021 03/02 A2973 RMK AO2 DZE37 P0000,
DCA,2013-12-15 04:48,37.40,35.60,93.14,330.00,10.00,0.00,29.73,M,10.00,M,SCT,OVC,None,None,1000.00,1900.00,M,M,M,KDCA 150448Z 33010KT 10SM SCT010 OVC019 03/02 A2973 RMK AO2 DZE37 P0000 400560006,
DCA,2013-12-15 04:52,37.94,35.06,89.25,330.00,10.00,0.00,29.72,1006.30,10.00,M,SCT,OVC,None,None,1000.00,1900.00,M,M,M,KDCA 150452Z 33010KT 10SM SCT010 OVC019 03/02 A2972 RMK AO2 DZE37 SLP063 P0000 T00330017 400560006,
DCA,2013-12-15 05:36,37.40,33.80,86.69,330.00,9.00,0.00,29.71,M,10.00,M,FEW,OVC,None,None,800.00,1700.00,M,M,M,KDCA 150536Z 33009KT 10SM FEW008 OVC017 03/01 A2971 RMK AO2,
DCA,2013-12-15 05:52,37.94,33.98,85.49,330.00,11.00,0.00,29.71,1005.80,10.00,M,FEW,OVC,None,None,800.00,1500.00,M,M,M,KDCA 150552Z 33011KT 10SM FEW008 OVC015 03/01 A2971 RMK AO2 SLP058 60022 T00330011 10044 20028 56023,
DCA,2013-12-15 06:13,37.40,33.80,86.69,350.00,5.00,0.00,29.69,M,10.00,M,BKN,OVC,None,None,800.00,1500.00,M,M,M,KDCA 150613Z 35005KT 10SM BKN008 OVC015 03/01 A2969 RMK AO2,
DCA,2013-12-15 06:52,37.94,33.98,85.49,320.00,7.00,0.00,29.69,1005.10,10.00,M,BKN,OVC,None,None,800.00,1500.00,M,M,M,KDCA 150652Z 32007KT 10SM BKN008 OVC015 03/01 A2969 RMK AO2 SLP051 T00330011,
DCA,2013-12-15 07:46,37.40,33.80,86.69,340.00,6.00,0.00,29.66,M,10.00,M,BKN,OVC,None,None,1100.00,1600.00,M,M,M,KDCA 150746Z 34006KT 10SM BKN011 OVC016 03/01 A2966 RMK AO2,
DCA,2013-12-15 07:52,37.04,33.08,85.43,330.00,8.00,0.00,29.67,1004.60,10.00,M,BKN,OVC,None,None,1100.00,1600.00,M,M,M,KDCA 150752Z 33008KT 10SM BKN011 OVC016 03/01 A2967 RMK AO2 SLP046 T00280006,
DCA,2013-12-15 08:19,37.40,33.80,86.69,330.00,8.00,0.00,29.70,M,10.00,M,OVC,None,None,None,1500.00,M,M,M,M,KDCA 150819Z 33008KT 10SM OVC015 03/01 A2970 RMK AO2,
DCA,2013-12-15 08:52,37.04,33.08,85.43,330.00,7.00,0.00,29.69,1005.40,10.00,M,FEW,OVC,None,None,1100.00,1700.00,M,M,M,KDCA 150852Z 33007KT 10SM FEW011 OVC017 03/01 A2969 RMK AO2 SLP054 T00280006 53002,
DCA,2013-12-15 09:00,37.40,33.80,86.69,340.00,6.00,0.00,29.68,M,10.00,M,FEW,OVC,None,None,900.00,1900.00,M,M,M,KDCA 150900Z 34006KT 10SM FEW009 OVC019 03/01 A2968 RMK AO2,
DCA,2013-12-15 09:52,37.04,33.08,85.43,260.00,3.00,0.00,29.67,1004.60,10.00,M,BKN,OVC,None,None,1700.00,4300.00,M,M,M,KDCA 150952Z 26003KT 10SM BKN017 OVC043 03/01 A2967 RMK AO2 SLP046 T00280006,
DCA,2013-12-15 09:59,37.40,33.80,86.69,270.00,4.00,0.00,29.66,M,10.00,M,SCT,OVC,None,None,1500.00,4300.00,M,M,M,KDCA 150959Z 27004KT 10SM SCT015 OVC043 03/01 A2966 RMK AO2,
DCA,2013-12-15 10:36,37.40,33.80,86.69,270.00,5.00,0.00,29.69,M,10.00,M,BKN,OVC,None,None,1300.00,4300.00,M,M,M,KDCA 151036Z 27005KT 10SM BKN013 OVC043 03/01 A2969 RMK AO2,
DCA,2013-12-15 10:52,37.04,33.08,85.43,0.00,0.00,0.00,29.69,1005.20,9.00,M,BKN,OVC,None,None,1300.00,4300.00,M,M,M,KDCA 151052Z 00000KT 9SM BKN013 OVC043 03/01 A2969 RMK AO2 SLP052 T00280006,
DCA,2013-12-15 10:57,37.40,33.80,86.69,250.00,4.00,0.00,29.69,M,10.00,M,FEW,OVC,None,None,800.00,1300.00,M,M,M,KDCA 151057Z 25004KT 10SM FEW008 OVC013 03/01 A2969 RMK AO2,
DCA,2013-12-15 11:52,37.04,33.08,85.43,280.00,3.00,0.00,29.70,1005.80,7.00,M,FEW,OVC,None,None,800.00,1000.00,M,M,M,KDCA 151152Z 28003KT 7SM FEW008 OVC010 03/01 A2970 RMK AO2 SLP058 70046 T00280006 10033 20028 53004,
DCA,2013-12-15 11:59,37.40,33.80,86.69,260.00,3.00,0.00,29.70,M,8.00,M,OVC,None,None,None,800.00,M,M,M,M,KDCA 151159Z 26003KT 8SM OVC008 03/01 A2970 RMK AO2,
DCA,2013-12-15 12:52,37.94,33.98,85.49,0.00,0.00,0.00,29.71,1005.80,7.00,M,BKN,OVC,None,None,900.00,3000.00,M,M,M,KDCA 151252Z 00000KT 7SM BKN009 OVC030 03/01 A2971 RMK AO2 SLP058 T00330011,
DCA,2013-12-15 13:49,39.20,35.60,86.79,280.00,4.00,0.00,29.74,M,9.00,M,SCT,BKN,None,None,3000.00,6500.00,M,M,M,KDCA 151349Z 28004KT 9SM SCT030 BKN065 04/02 A2974 RMK AO2 PRESRR,
DCA,2013-12-15 13:52,41.00,35.06,79.21,280.00,5.00,0.00,29.74,1007.20,9.00,M,SCT,BKN,None,None,3000.00,6500.00,M,M,M,KDCA 151352Z 28005KT 9SM SCT030 BKN065 05/02 A2974 RMK AO2 PRESRR SLP072 T00500017,
DCA,2013-12-15 14:52,46.94,35.06,63.13,290.00,8.00,0.00,29.77,1008.10,10.00,M,SCT,None,None,None,6500.00,M,M,M,M,KDCA 151452Z 29008KT 10SM SCT065 08/02 A2977 RMK AO2 SLP081 T00830017 51023,
DCA,2013-12-15 15:52,48.92,33.08,54.15,300.00,12.00,0.00,29.78,1008.50,10.00,M,SCT,SCT,None,None,6500.00,8000.00,M,M,M,KDCA 151552Z 30012KT 10SM SCT065 SCT080 09/01 A2978 RMK AO2 SLP085 T00940006,
DCA,2013-12-15 16:52,48.92,30.02,47.86,310.00,15.00,0.00,29.77,1008.10,10.00,26.00,BKN,None,None,None,5000.00,M,M,M,M,KDCA 151652Z 31015G26KT 10SM BKN050 09/M01 A2977 RMK AO2 PK WND 34032/1633 SLP081 T00941011 $,
DCA,2013-12-15 17:52,48.92,30.02,47.86,310.00,12.00,0.00,29.77,1008.20,10.00,20.00,BKN,None,None,None,4000.00,M,M,M,M,KDCA 151752Z 31012G20KT 10SM BKN040 09/M01 A2977 RMK AO2 PK WND 33029/1728 SLP082 T00941011 10106 20028 51001 $,
DCA,2013-12-15 18:52,48.92,28.94,45.79,320.00,16.00,0.00,29.79,1008.80,10.00,22.00,BKN,None,None,None,4000.00,M,M,M,M,KDCA 151852Z 32016G22KT 10SM BKN040 09/M02 A2979 RMK AO2 SLP088 T00941017 $,
DCA,2013-12-15 19:34,46.40,28.40,49.24,330.00,16.00,0.00,29.81,M,10.00,27.00,SCT,None,None,None,4000.00,M,M,M,M,KDCA 151934Z 33016G27KT 10SM SCT040 08/M02 A2981 RMK AO2 PK WND 33027/1931 $,
DCA,2013-12-15 19:52,46.04,26.96,47.05,320.00,16.00,0.00,29.82,1009.70,10.00,25.00,SCT,None,None,None,4000.00,M,M,M,M,KDCA 151952Z 32016G25KT 10SM SCT040 08/M03 A2982 RMK AO2 PK WND 33027/1931 SLP097 T00781028 $,
DCA,2013-12-15 20:52,44.06,24.98,46.73,310.00,16.00,0.00,29.85,1010.90,10.00,24.00,FEW,None,None,None,5000.00,M,M,M,M,KDCA 152052Z 31016G24KT 10SM FEW050 07/M04 A2985 RMK AO2 SLP109 T00671039 53026 $,
DCA,2013-12-15 21:52,41.00,24.08,50.63,330.00,11.00,0.00,29.88,1011.80,10.00,M,FEW,None,None,None,6000.00,M,M,M,M,KDCA 152152Z 33011KT 10SM FEW060 05/M04 A2988 RMK AO2 SLP118 T00501044,
DCA,2013-12-15 22:52,39.02,21.92,49.93,320.00,13.00,0.00,29.91,1012.70,10.00,M,FEW,None,None,None,7000.00,M,M,M,M,KDCA 152252Z 32013KT 10SM FEW070 04/M06 A2991 RMK AO2 SLP127 T00391056,
DCA,2013-12-15 23:52,37.04,21.02,51.95,320.00,12.00,0.00,29.93,1013.50,10.00,M,CLR,None,None,None,M,M,M,M,M,KDCA 152352Z 32012KT 10SM CLR 03/M06 A2993 RMK AO2 SLP135 T00281061 10100 20028 51026,
DCA,2013-12-16 00:52,35.96,21.02,54.21,330.00,8.00,0.00,29.94,1013.70,10.00,M,CLR,None,None,None,M,M,M,M,M,KDCA 160052Z 33008KT 10SM CLR 02/M06 A2994 RMK AO2 SLP137 T00221061,
DCA,2013-12-16 01:52,35.06,21.02,56.18,350.00,6.00,0.00,29.95,1014.10,10.00,M,CLR,None,None,None,M,M,M,M,M,KDCA 160152Z 35006KT 10SM CLR 02/M06 A2995 RMK AO2 SLP141 T00171061,
DCA,2013-12-16 02:52,33.98,21.02,58.66,200.00,4.00,0.00,29.96,1014.50,10.00,M,CLR,None,None,None,M,M,M,M,M,KDCA 160252Z 20004KT 10SM CLR 01/M06 A2996 RMK AO2 SLP145 T00111061 53010,
DCA,2013-12-16 03:52,33.98,21.92,60.93,200.00,6.00,0.00,29.96,1014.60,10.00,M,BKN,None,None,None,5000.00,M,M,M,M,KDCA 160352Z 20006KT 10SM BKN050 01/M06 A2996 RMK AO2 SLP146 T00111056,
DCA,2013-12-16 04:52,35.06,23.00,61.08,230.00,4.00,0.00,29.97,1014.80,10.00,M,OVC,None,None,None,5000.00,M,M,M,M,KDCA 160452Z 23004KT 10SM OVC050 02/M05 A2997 RMK AO2 SLP148 T00171050 401060006,
DCA,2013-12-16 05:52,33.98,24.08,66.72,210.00,5.00,0.00,29.97,1014.70,10.00,M,FEW,BKN,None,None,5000.00,14000.00,M,M,M,KDCA 160552Z 21005KT 10SM FEW050 BKN140 01/M04 A2997 RMK AO2 SLP147 T00111044 10028 20006 50002,
DCA,2013-12-16 06:52,35.06,24.08,63.91,260.00,6.00,0.00,29.99,1015.50,10.00,M,SCT,BKN,None,None,6500.00,14000.00,M,M,M,KDCA 160652Z 26006KT 10SM SCT065 BKN140 02/M04 A2999 RMK AO2 SLP155 T00171044,
DCA,2013-12-16 07:52,37.04,24.08,59.09,290.00,5.00,0.00,30.02,1016.30,10.00,M,OVC,None,None,None,6000.00,M,M,M,M,KDCA 160752Z 29005KT 10SM OVC060 03/M04 A3002 RMK AO2 SLP163 T00281044,
DCA,2013-12-16 08:52,37.94,23.00,54.51,310.00,8.00,0.00,30.03,1016.80,10.00,M,OVC,None,None,None,5500.00,M,M,M,M,KDCA 160852Z 31008KT 10SM OVC055 03/M05 A3003 RMK AO2 SLP168 T00331050 51020,
DCA,2013-12-16 09:52,37.94,23.00,54.51,330.00,4.00,0.00,30.04,1017.20,10.00,M,OVC,None,None,None,5500.00,M,M,M,M,KDCA 160952Z 33004KT 10SM OVC055 03/M05 A3004 RMK AO2 SLP172 T00331050,
DCA,2013-12-16 10:52,37.94,23.00,54.51,340.00,10.00,0.00,30.07,1018.10,10.00,M,OVC,None,None,None,5000.00,M,M,M,M,KDCA 161052Z 34010KT 10SM OVC050 03/M05 A3007 RMK AO2 SLP181 T00331050,
DCA,2013-12-16 11:52,37.04,23.00,56.48,350.00,7.00,0.00,30.08,1018.50,10.00,M,BKN,BKN,None,None,5000.00,14000.00,M,M,M,KDCA 161152Z 35007KT 10SM BKN050 BKN140 03/M05 A3008 RMK AO2 SLP185 T00281050 10033 20006 51017,
DCA,2013-12-16 12:52,37.04,23.00,56.48,10.00,9.00,0.00,30.09,1019.00,10.00,M,BKN,None,None,None,5000.00,M,M,M,M,KDCA 161252Z 01009KT 10SM BKN050 03/M05 A3009 RMK AO2 SLP190 T00281050,
DCA,2013-12-16 13:52,37.04,23.00,56.48,350.00,9.00,0.00,30.13,1020.40,10.00,M,OVC,None,None,None,4500.00,M,M,M,M,KDCA 161352Z 35009KT 10SM OVC045 03/M05 A3013 RMK AO2 SLP204 T00281050 $,
DCA,2013-12-16 14:52,35.96,21.02,54.21,30.00,9.00,0.00,30.16,1021.10,10.00,M,BKN,OVC,None,None,5000.00,17000.00,M,M,M,KDCA 161452Z 03009KT 10SM BKN050 OVC170 02/M06 A3016 RMK AO2 SLP211 BINOVC T00221061 53026 $,
DCA,2013-12-16 15:52,37.04,21.02,51.95,M,4.00,0.00,30.16,1021.30,10.00,M,BKN,OVC,None,None,5000.00,17000.00,M,M,M,KDCA 161552Z VRB04KT 10SM BKN050 OVC170 03/M06 A3016 RMK AO2 SLP213 BINOVC T00281061,
DCA,2013-12-16 16:52,37.94,19.94,47.89,70.00,3.00,0.00,30.15,1020.90,10.00,M,SCT,BKN,BKN,None,3500.00,5000.00,16000.00,M,M,KDCA 161652Z 07003KT 10SM SCT035 BKN050 BKN160 03/M07 A3015 RMK AO2 SLP209 T00331067,
DCA,2013-12-16 17:52,39.02,23.00,52.26,20.00,7.00,0.00,30.15,1020.80,10.00,M,SCT,BKN,OVC,None,3600.00,5500.00,16000.00,M,M,KDCA 161752Z 02007KT 10SM SCT036 BKN055 OVC160 04/M05 A3015 RMK AO2 SLP208 T00391050 10039 20022 58003,
DCA,2013-12-16 18:52,37.94,23.00,54.51,350.00,7.00,0.00,30.15,1020.90,10.00,M,BKN,OVC,None,None,4300.00,5500.00,M,M,M,KDCA 161852Z 35007KT 10SM BKN043 OVC055 03/M05 A3015 RMK AO2 SLP209 T00331050,
DCA,2013-12-16 19:52,39.02,23.00,52.26,340.00,7.00,0.00,30.15,1021.00,10.00,M,OVC,None,None,None,4600.00,M,M,M,M,KDCA 161952Z 34007KT 10SM OVC046 04/M05 A3015 RMK AO2 SLP210 T00391050,
DCA,2013-12-16 20:52,39.02,23.00,52.26,10.00,3.00,0.00,30.17,1021.60,10.00,M,OVC,None,None,None,4600.00,M,M,M,M,KDCA 162052Z 01003KT 10SM OVC046 04/M05 A3017 RMK AO2 SLP216 BINOVC T00391050 53008,
DCA,2013-12-16 21:52,37.94,23.00,54.51,0.00,0.00,0.00,30.17,1021.70,10.00,M,FEW,BKN,None,None,4600.00,7500.00,M,M,M,KDCA 162152Z 00000KT 10SM FEW046 BKN075 03/M05 A3017 RMK AO2 SLP217 T00331050,
DCA,2013-12-16 22:52,37.04,23.00,56.48,120.00,10.00,0.00,30.18,1021.90,10.00,M,OVC,None,None,None,5500.00,M,M,M,M,KDCA 162252Z 12010KT 10SM OVC055 03/M05 A3018 RMK AO2 SLP219 T00281050,
DCA,2013-12-16 23:52,35.96,23.00,58.94,120.00,8.00,0.00,30.20,1022.50,10.00,M,OVC,None,None,None,4400.00,M,M,M,M,KDCA 162352Z 12008KT 10SM OVC044 02/M05 A3020 RMK AO2 SLP225 T00221050 10039 20022 53009,
DCA,2013-12-17 00:52,35.96,23.00,58.94,130.00,6.00,0.00,30.21,1023.00,10.00,M,OVC,None,None,None,5500.00,M,M,M,M,KDCA 170052Z 13006KT 10SM OVC055 02/M05 A3021 RMK AO2 SLP230 T00221050,
DCA,2013-12-17 01:52,35.96,23.00,58.94,130.00,5.00,0.00,30.21,1023.00,10.00,M,OVC,None,None,None,5000.00,M,M,M,M,KDCA 170152Z 13005KT 10SM OVC050 02/M05 A3021 RMK AO2 SLP230 T00221050,
DCA,2013-12-17 02:52,35.96,23.00,58.94,110.00,3.00,0.00,30.20,1022.40,10.00,M,FEW,OVC,None,None,5000.00,8500.00,M,M,M,KDCA 170252Z 11003KT 10SM FEW050 OVC085 02/M05 A3020 RMK AO2 SLP224 T00221050 58001,
DCA,2013-12-17 03:52,35.96,24.08,61.67,100.00,4.00,0.00,30.19,1022.20,10.00,M,FEW,OVC,None,None,8500.00,14000.00,M,M,M,KDCA 170352Z 10004KT 10SM FEW085 OVC140 02/M04 A3019 RMK AO2 SLP222 T00221044,
DCA,2013-12-17 04:52,35.96,24.98,64.03,90.00,5.00,0.00,30.19,1022.20,10.00,M,SCT,BKN,OVC,None,2300.00,6500.00,9500.00,M,M,KDCA 170452Z 09005KT 10SM SCT023 BKN065 OVC095 02/M04 A3019 RMK AO2 SLP222 T00221039 400390006,
DCA,2013-12-17 04:59,35.60,24.80,64.46,100.00,6.00,0.00,30.19,M,10.00,M,BKN,OVC,None,None,2100.00,6500.00,M,M,M,KDCA 170459Z 10006KT 10SM BKN021 OVC065 02/M04 A3019 RMK AO2,
DCA,2013-12-17 06:52,35.96,24.98,64.03,80.00,4.00,0.00,30.16,1021.20,10.00,M,OVC,None,None,None,2100.00,M,M,M,M,KDCA 170652Z 08004KT 10SM OVC021 02/M04 A3016 RMK AO2 SLP212 T00221039,
DCA,2013-12-17 07:40,35.60,24.80,64.46,90.00,4.00,0.00,30.15,M,10.00,M,SCT,OVC,None,None,2300.00,7000.00,M,M,M,KDCA 170740Z 09004KT 10SM SCT023 OVC070 02/M04 A3015 RMK AO2,
DCA,2013-12-17 07:48,35.60,24.80,64.46,100.00,6.00,0.00,30.15,M,10.00,M,BKN,OVC,None,None,2100.00,7000.00,M,M,M,KDCA 170748Z 10006KT 10SM BKN021 OVC070 02/M04 A3015 RMK AO2,
DCA,2013-12-17 07:52,35.96,24.98,64.03,100.00,7.00,0.00,30.15,1020.70,10.00,M,BKN,OVC,None,None,2100.00,7000.00,M,M,M,KDCA 170752Z 10007KT 10SM BKN021 OVC070 02/M04 A3015 RMK AO2 SLP207 T00221039,
DCA,2013-12-17 08:52,35.96,24.08,61.67,90.00,5.00,0.00,30.14,1020.40,10.00,M,OVC,None,None,None,1900.00,M,M,M,M,KDCA 170852Z 09005KT 10SM OVC019 02/M04 A3014 RMK AO2 SLP204 T00221044 58008,
DCA,2013-12-17 09:52,35.96,24.08,61.67,30.00,3.00,0.00,30.14,1020.40,10.00,M,OVC,None,None,None,1900.00,M,M,M,M,KDCA 170952Z 03003KT 10SM OVC019 02/M04 A3014 RMK AO2 SLP204 T00221044,
DCA,2013-12-17 10:52,35.06,24.08,63.91,60.00,3.00,0.00,30.11,1019.40,10.00,M,OVC,None,None,None,1700.00,M,M,M,M,KDCA 171052Z 06003KT 10SM OVC017 02/M04 A3011 RMK AO2 SLP194 T00171044,
DCA,2013-12-17 11:52,35.06,26.06,69.40,50.00,5.00,0.00,30.11,1019.50,10.00,M,OVC,None,None,None,1900.00,M,M,M,M,KDCA 171152Z 05005KT 10SM OVC019 02/M03 A3011 RMK AO2 SLP195 T00171033 10022 20017 55008,
DCA,2013-12-17 12:44,35.60,26.60,69.46,80.00,5.00,0.00,30.08,M,9.00,M,SCT,BKN,OVC,None,1900.00,11000.00,17000.00,M,M,KDCA 171244Z 08005KT 9SM SCT019 BKN110 OVC170 02/M03 A3008 RMK AO2 BINOVC NW,
DCA,2013-12-17 12:52,35.96,26.96,69.51,70.00,4.00,0.00,30.08,1018.60,9.00,M,SCT,BKN,OVC,None,1900.00,11000.00,17000.00,M,M,KDCA 171252Z 07004KT 9SM SCT019 BKN110 OVC170 02/M03 A3008 RMK AO2 SLP186 BINOVC NW T00221028,
DCA,2013-12-17 13:52,35.96,26.96,69.51,0.00,0.00,0.00,30.08,1018.40,9.00,M,SCT,OVC,None,None,1600.00,11000.00,M,M,M,KDCA 171352Z 00000KT 9SM SCT016 OVC110 02/M03 A3008 RMK AO2 SLP184 T00221028,
DCA,2013-12-17 13:59,35.60,26.60,69.46,0.00,0.00,0.00,30.08,M,9.00,M,BKN,OVC,None,None,1600.00,10000.00,M,M,M,KDCA 171359Z 00000KT 9SM BKN016 OVC100 02/M03 A3008 RMK AO2,
DCA,2013-12-17 14:52,37.04,28.04,69.63,160.00,3.00,0.00,30.08,1018.50,8.00,M,OVC,None,None,None,1400.00,M,M,M,M,KDCA 171452Z 16003KT 8SM OVC014 03/M02 A3008 RMK AO2 SLP185 T00281022 55010,
DCA,2013-12-17 15:43,37.40,28.40,69.67,160.00,4.00,0.00,30.05,M,8.00,M,SCT,OVC,None,None,1200.00,9000.00,M,M,M,KDCA 171543Z 16004KT 8SM SCT012 OVC090 03/M02 A3005 RMK AO2 SCT V BKN,
DCA,2013-12-17 15:52,37.04,28.94,72.24,170.00,3.00,0.00,30.04,1017.30,8.00,M,SCT,OVC,None,None,1200.00,9000.00,M,M,M,KDCA 171552Z 17003KT 8SM SCT012 OVC090 03/M02 A3004 RMK AO2 SLP173 SCT V BKN T00281017,
DCA,2013-12-17 16:52,37.04,30.02,75.50,170.00,3.00,0.00,30.00,1015.90,8.00,M,FEW,BKN,OVC,None,1700.00,9500.00,20000.00,M,M,KDCA 171652Z 17003KT 8SM FEW017 BKN095 OVC200 03/M01 A3000 RMK AO2 SLP159 T00281011,
DCA,2013-12-17 17:52,37.94,30.02,72.87,160.00,3.00,0.00,29.98,1015.00,7.00,M,FEW,BKN,OVC,None,2500.00,9500.00,20000.00,M,M,KDCA 171752Z 16003KT 7SM FEW025 BKN095 OVC200 03/M01 A2998 RMK AO2 SLP150 T00331011 10033 20017 56035,
DCA,2013-12-17 18:52,37.94,30.02,72.87,180.00,5.00,0.00,29.97,1014.80,8.00,M,FEW,BKN,OVC,None,3500.00,10000.00,20000.00,M,M,KDCA 171852Z 18005KT 8SM FEW035 BKN100 OVC200 03/M01 A2997 RMK AO2 SLP148 T00331011,
DCA,2013-12-17 19:52,39.02,30.02,69.86,0.00,0.00,0.00,29.98,1015.10,8.00,M,FEW,SCT,SCT,OVC,3500.00,6500.00,10000.00,20000.00,M,KDCA 171952Z 00000KT 8SM FEW035 SCT065 SCT100 OVC200 04/M01 A2998 RMK AO2 SLP151 T00391011,
DCA,2013-12-17 20:52,39.92,30.92,69.96,160.00,3.00,0.00,29.97,1014.70,8.00,M,FEW,BKN,OVC,None,6500.00,11000.00,20000.00,M,M,KDCA 172052Z 16003KT 8SM FEW065 BKN110 OVC200 04/M01 A2997 RMK AO2 SLP147 T00441006 58003,
DCA,2013-12-17 21:52,39.02,32.00,75.69,0.00,0.00,0.00,29.96,1014.60,8.00,M,OVC,None,None,None,6000.00,M,M,M,M,KDCA 172152Z 00000KT 8SM OVC060 04/00 A2996 RMK AO2 SLP146 T00390000,
DCA,2013-12-17 22:23,39.20,32.00,75.16,0.00,0.00,0.00,29.96,M,8.00,M,OVC,None,None,None,5500.00,M,M,M,-RA,KDCA 172223Z 00000KT 8SM -RA OVC055 04/00 A2996 RMK AO2 RAB18 P0000,
DCA,2013-12-17 22:52,39.02,33.08,79.05,10.00,3.00,0.00,29.97,1014.70,8.00,M,OVC,None,None,None,5500.00,M,M,M,M,KDCA 172252Z 01003KT 8SM OVC055 04/01 A2997 RMK AO2 RAB18E40 SLP147 P0000 T00390006,
DCA,2013-12-17 23:52,39.02,33.98,81.95,40.00,7.00,0.02,29.97,1014.90,6.00,M,OVC,None,None,None,3800.00,M,M,M,-RA,KDCA 172352Z 04007KT 6SM -RA OVC038 04/01 A2997 RMK AO2 RAB2255 SLP149 P0002 60002 T00390011 10044 20033 53002,
DCA,2013-12-18 00:52,37.94,33.08,82.46,50.00,6.00,0.00,29.97,1014.70,7.00,M,BKN,BKN,OVC,None,4200.00,5000.00,7500.00,M,M,KDCA 180052Z 05006KT 7SM BKN042 BKN050 OVC075 03/01 A2997 RMK AO2 SLP147 RAE2357 P0000 T00330006,
DCA,2013-12-18 01:52,37.94,30.92,75.58,60.00,6.00,0.00,29.96,1014.50,7.00,M,OVC,None,None,None,4800.00,M,M,M,M,KDCA 180152Z 06006KT 7SM OVC048 03/M01 A2996 RMK AO2 SLP145 T00331006,
DCA,2013-12-18 02:52,37.04,30.92,78.31,30.00,7.00,0.00,29.98,1015.20,6.00,M,BKN,OVC,None,None,5000.00,7000.00,M,M,HZ,KDCA 180252Z 03007KT 6SM HZ BKN050 OVC070 03/M01 A2998 RMK AO2 SLP152 60000 T00281006 53003,
DCA,2013-12-18 03:52,35.96,30.92,81.72,0.00,0.00,0.00,30.00,1015.80,7.00,M,OVC,None,None,None,5500.00,M,M,M,M,KDCA 180352Z 00000KT 7SM OVC055 02/M01 A3000 RMK AO2 SLP158 T00221006,
DCA,2013-12-18 04:52,35.96,30.92,81.72,80.00,3.00,0.00,30.01,1016.00,4.00,M,OVC,None,None,None,3200.00,M,M,M,-SN,KDCA 180452Z 08003KT 4SM -SN OVC032 02/M01 A3001 RMK AO2 SNB42 SLP160 P0000 T00221006 400440017,
DCA,2013-12-18 05:06,35.60,30.20,80.51,0.00,0.00,0.00,30.01,M,5.00,M,BKN,OVC,None,None,2800.00,4400.00,M,M,-SN,KDCA 180506Z 00000KT 5SM -SN BKN028 OVC044 02/M01 A3001 RMK AO2 P0000,
DCA,2013-12-18 05:22,35.60,30.20,80.51,0.00,0.00,0.00,30.02,M,6.00,M,OVC,None,None,None,3900.00,M,M,M,-SN,KDCA 180522Z 00000KT 6SM -SN OVC039 02/M01 A3002 RMK AO2 RAB16E20 P0000,
DCA,2013-12-18 05:48,35.60,30.20,80.51,200.00,3.00,0.00,30.02,M,5.00,M,BKN,BKN,OVC,None,1000.00,4600.00,5500.00,M,-SN BR,KDCA 180548Z 20003KT 5SM -SN BR BKN010 BKN046 OVC055 02/M01 A3002 RMK AO2 RAB16E20 P0000,
DCA,2013-12-18 05:52,35.06,30.92,84.69,200.00,3.00,0.00,30.02,1016.40,5.00,M,BKN,BKN,OVC,None,1000.00,4400.00,5500.00,M,-SN BR,KDCA 180552Z 20003KT 5SM -SN BR BKN010 BKN044 OVC055 02/M01 A3002 RMK AO2 RAB16E20 SLP164 P0000 60000 T00171006 10039 20017 51006,
DCA,2013-12-18 06:12,35.60,30.20,80.51,260.00,4.00,0.00,30.03,M,5.00,M,FEW,SCT,OVC,None,1000.00,1700.00,4400.00,M,HZ,KDCA 180612Z 26004KT 5SM HZ FEW010 SCT017 OVC044 02/M01 A3003 RMK AO2 SNE09 P0000,
DCA,2013-12-18 06:52,35.96,30.92,81.72,280.00,6.00,0.00,30.04,1017.00,6.00,M,FEW,BKN,BKN,None,1000.00,4000.00,9500.00,M,HZ,KDCA 180652Z 28006KT 6SM HZ FEW010 BKN040 BKN095 02/M01 A3004 RMK AO2 SNE09 SLP170 P0000 T00221006,
DCA,2013-12-18 07:52,33.98,30.02,85.24,310.00,5.00,0.00,30.05,1017.40,5.00,M,FEW,SCT,None,None,9500.00,15000.00,M,M,BR,KDCA 180752Z 31005KT 5SM BR FEW095 SCT150 01/M01 A3005 RMK AO2 SLP174 T00111011,
DCA,2013-12-18 08:52,33.98,30.02,85.24,0.00,0.00,0.00,30.06,1017.90,5.00,M,FEW,BKN,None,None,6000.00,11000.00,M,M,BR,KDCA 180852Z 00000KT 5SM BR FEW060 BKN110 01/M01 A3006 RMK AO2 SLP179 60000 T00111011 51016,
DCA,2013-12-18 09:52,33.98,28.94,81.57,290.00,3.00,0.00,30.09,1018.80,6.00,M,BKN,None,None,None,6000.00,M,M,M,HZ,KDCA 180952Z 29003KT 6SM HZ BKN060 01/M02 A3009 RMK AO2 SLP188 T00111017,
DCA,2013-12-18 10:52,33.98,26.96,75.20,260.00,7.00,0.00,30.11,1019.60,9.00,M,FEW,SCT,None,None,4500.00,5500.00,M,M,M,KDCA 181052Z 26007KT 9SM FEW045 SCT055 01/M03 A3011 RMK AO2 SLP196 T00111028,
DCA,2013-12-18 11:52,35.96,24.08,61.67,300.00,4.00,0.00,30.15,1020.80,10.00,M,SCT,None,None,None,5000.00,M,M,M,M,KDCA 181152Z 30004KT 10SM SCT050 02/M04 A3015 RMK AO2 SLP208 60000 70002 T00221044 10022 20006 53029,
DCA,2013-12-18 12:52,35.06,21.02,56.18,290.00,9.00,0.00,30.17,1021.40,10.00,M,FEW,None,None,None,4800.00,M,M,M,M,KDCA 181252Z 29009KT 10SM FEW048 02/M06 A3017 RMK AO2 SLP214 T00171061,
DCA,2013-12-18 13:52,37.04,19.94,49.62,310.00,6.00,0.00,30.19,1022.20,10.00,M,FEW,None,None,None,4800.00,M,M,M,M,KDCA 181352Z 31006KT 10SM FEW048 03/M07 A3019 RMK AO2 SLP222 T00281067,
DCA,2013-12-18 14:52,37.94,19.94,47.89,320.00,11.00,0.00,30.21,1022.90,10.00,21.00,SCT,None,None,None,5000.00,M,M,M,M,KDCA 181452Z 32011G21KT 10SM SCT050 03/M07 A3021 RMK AO2 SLP229 T00331067 53021,
DCA,2013-12-18 15:52,39.02,19.04,44.18,300.00,13.00,0.00,30.20,1022.70,10.00,22.00,SCT,None,None,None,5000.00,M,M,M,M,KDCA 181552Z 30013G22KT 280V340 10SM SCT050 04/M07 A3020 RMK AO2 SLP227 T00391072,
DCA,2013-12-18 16:52,39.02,17.96,42.18,280.00,9.00,0.00,30.20,1022.50,10.00,18.00,BKN,None,None,None,5000.00,M,M,M,M,KDCA 181652Z 28009G18KT 10SM BKN050 04/M08 A3020 RMK AO2 PK WND 31026/1554 SLP225 T00391078,
DCA,2013-12-18 17:52,42.08,19.94,40.77,320.00,9.00,0.00,30.18,1022.00,10.00,M,OVC,None,None,None,5000.00,M,M,M,M,KDCA 181752Z 32009KT 10SM OVC050 06/M07 A3018 RMK AO2 SLP220 T00561067 10056 20017 58009,
DCA,2013-12-18 18:52,41.00,19.04,40.90,300.00,9.00,0.00,30.18,1021.80,10.00,17.00,BKN,None,None,None,5000.00,M,M,M,M,KDCA 181852Z 30009G17KT 10SM BKN050 05/M07 A3018 RMK AO2 SLP218 T00501072,
DCA,2013-12-18 19:52,42.98,21.02,41.24,220.00,11.00,0.00,30.17,1021.70,10.00,15.00,FEW,None,None,None,5500.00,M,M,M,M,KDCA 181952Z 22011G15KT 10SM FEW055 06/M06 A3017 RMK AO2 SLP217 T00611061,
DCA,2013-12-18 20:52,42.98,21.02,41.24,240.00,9.00,0.00,30.19,1022.20,10.00,M,FEW,None,None,None,5500.00,M,M,M,M,KDCA 182052Z 24009KT 10SM FEW055 06/M06 A3019 RMK AO2 SLP222 T00611061 53002,
DCA,2013-12-18 21:52,42.08,19.94,40.77,260.00,3.00,0.00,30.19,1022.30,10.00,M,CLR,None,None,None,M,M,M,M,M,KDCA 182152Z 26003KT 10SM CLR 06/M07 A3019 RMK AO2 SLP223 T00561067,
DCA,2013-12-18 22:52,41.00,21.02,44.51,280.00,4.00,0.00,30.21,1022.90,10.00,M,CLR,None,None,None,M,M,M,M,M,KDCA 182252Z 28004KT 10SM CLR 05/M06 A3021 RMK AO2 SLP229 T00501061,
DCA,2013-12-18 23:52,37.94,19.94,47.89,330.00,8.00,0.00,30.23,1023.50,10.00,M,CLR,None,None,None,M,M,M,M,M,KDCA 182352Z 33008KT 10SM CLR 03/M07 A3023 RMK AO2 SLP235 T00331067 10067 20028 53012,
DCA,2013-12-19 00:52,37.04,21.02,51.95,10.00,5.00,0.00,30.23,1023.70,10.00,M,CLR,None,None,None,M,M,M,M,M,KDCA 190052Z 01005KT 10SM CLR 03/M06 A3023 RMK AO2 SLP237 T00281061,
DCA,2013-12-19 01:52,37.04,23.00,56.48,140.00,3.00,0.00,30.24,1023.80,10.00,M,CLR,None,None,None,M,M,M,M,M,KDCA 190152Z 14003KT 10SM CLR 03/M05 A3024 RMK AO2 SLP238 T00281050,
DCA,2013-12-19 02:52,33.98,24.08,66.72,0.00,0.00,0.00,30.23,1023.60,10.00,M,CLR,None,None,None,M,M,M,M,M,KDCA 190252Z 00000KT 10SM CLR 01/M04 A3023 RMK AO2 SLP236 T00111044 50001,
DCA,2013-12-19 03:52,33.98,26.06,72.45,0.00,0.00,0.00,30.24,1023.90,10.00,M,CLR,None,None,None,M,M,M,M,M,KDCA 190352Z 00000KT 10SM CLR 01/M03 A3024 RMK AO2 SLP239 T00111033,
DCA,2013-12-19 04:52,33.08,24.08,69.17,230.00,4.00,0.00,30.22,1023.40,10.00,M,CLR,None,None,None,M,M,M,M,M,KDCA 190452Z 23004KT 10SM CLR 01/M04 A3022 RMK AO2 SLP234 T00061044 400670000,
DCA,2013-12-19 05:52,32.00,23.00,69.04,250.00,3.00,0.00,30.22,1023.30,10.00,M,CLR,None,None,None,M,M,M,M,M,KDCA 190552Z 25003KT 10SM CLR 00/M05 A3022 RMK AO2 SLP233 T00001050 10039 20000 58003,
DCA,2013-12-19 06:52,33.08,24.98,71.82,0.00,0.00,0.00,30.21,1022.90,10.00,M,FEW,None,None,None,25000.00,M,M,M,M,KDCA 190652Z 00000KT 10SM FEW250 01/M04 A3021 RMK AO2 SLP229 T00061039,
DCA,2013-12-19 07:52,32.00,24.08,72.24,190.00,3.00,0.00,30.21,1022.70,10.00,M,SCT,None,None,None,25000.00,M,M,M,M,KDCA 190752Z 19003KT 10SM SCT250 00/M04 A3021 RMK AO2 SLP227 T00001044,
DCA,2013-12-19 08:52,30.92,24.08,75.46,190.00,4.00,0.00,30.20,1022.70,10.00,M,BKN,None,None,None,21000.00,M,M,M,M,KDCA 190852Z 19004KT 10SM BKN210 M01/M04 A3020 RMK AO2 SLP227 T10061044 56006,
DCA,2013-12-19 09:52,33.08,24.98,71.82,0.00,0.00,0.00,30.19,1022.20,10.00,M,BKN,None,None,None,24000.00,M,M,M,M,KDCA 190952Z 00000KT 10SM BKN240 01/M04 A3019 RMK AO2 SLP222 T00061039,
DCA,2013-12-19 10:52,32.00,24.08,72.24,210.00,3.00,0.00,30.18,1022.00,10.00,M,BKN,None,None,None,23000.00,M,M,M,M,KDCA 191052Z 21003KT 10SM BKN230 00/M04 A3018 RMK AO2 SLP220 T00001044,
DCA,2013-12-19 11:52,32.00,24.08,72.24,200.00,6.00,0.00,30.18,1022.00,10.00,M,BKN,None,None,None,24000.00,M,M,M,M,KDCA 191152Z 20006KT 10SM BKN240 00/M04 A3018 RMK AO2 SLP220 T00001044 10006 21011 56007,
DCA,2013-12-19 12:52,33.98,24.08,66.72,210.00,7.00,0.00,30.18,1021.90,10.00,M,FEW,BKN,None,None,17000.00,24000.00,M,M,M,KDCA 191252Z 21007KT 10SM FEW170 BKN240 01/M04 A3018 RMK AO2 SLP219 T00111044,
DCA,2013-12-19 13:52,37.04,24.08,59.09,220.00,4.00,0.00,30.18,1021.90,10.00,M,SCT,BKN,None,None,19000.00,23000.00,M,M,M,KDCA 191352Z 22004KT 10SM SCT190 BKN230 03/M04 A3018 RMK AO2 SLP219 T00281044,
DCA,2013-12-19 14:52,39.92,24.08,52.79,210.00,6.00,0.00,30.19,1022.10,10.00,M,BKN,BKN,None,None,20000.00,25000.00,M,M,M,KDCA 191452Z 21006KT 10SM BKN200 BKN250 04/M04 A3019 RMK AO2 SLP221 T00441044 53001,
DCA,2013-12-19 15:52,42.08,26.96,54.73,170.00,6.00,0.00,30.18,1021.80,10.00,M,SCT,BKN,None,None,21000.00,25000.00,M,M,M,KDCA 191552Z 17006KT 10SM SCT210 BKN250 06/M03 A3018 RMK AO2 SLP218 T00561028,
DCA,2013-12-19 16:52,46.94,28.04,47.54,170.00,9.00,0.00,30.15,1020.90,10.00,M,FEW,OVC,None,None,20000.00,25000.00,M,M,M,KDCA 191652Z 17009KT 10SM FEW200 OVC250 08/M02 A3015 RMK AO2 SLP209 T00831022,
DCA,2013-12-19 17:52,51.08,28.04,40.73,170.00,9.00,0.00,30.12,1019.80,10.00,M,OVC,None,None,None,25000.00,M,M,M,M,KDCA 191752Z 17009KT 10SM OVC250 11/M02 A3012 RMK AO2 SLP198 T01061022 10111 20000 58023,
DCA,2013-12-19 18:52,53.96,30.02,39.72,180.00,8.00,0.00,30.09,1019.00,10.00,M,BKN,None,None,None,25000.00,M,M,M,M,KDCA 191852Z 18008KT 10SM BKN250 12/M01 A3009 RMK AO2 SLP190 T01221011,
DCA,2013-12-19 19:52,60.98,26.96,27.21,220.00,12.00,0.00,30.09,1018.80,10.00,M,FEW,SCT,None,None,17000.00,25000.00,M,M,M,KDCA 191952Z 22012KT 10SM FEW170 SCT250 16/M03 A3009 RMK AO2 SLP188 T01611028,
DCA,2013-12-19 20:52,60.98,26.96,27.21,210.00,9.00,0.00,30.09,1019.00,10.00,M,FEW,BKN,None,None,18000.00,25000.00,M,M,M,KDCA 192052Z 21009KT 10SM FEW180 BKN250 16/M03 A3009 RMK AO2 SLP190 T01611028 55008,
DCA,2013-12-19 21:52,55.04,28.04,35.22,200.00,8.00,0.00,30.10,1019.40,10.00,M,FEW,OVC,None,None,18000.00,25000.00,M,M,M,KDCA 192152Z 20008KT 10SM FEW180 OVC250 13/M02 A3010 RMK AO2 SLP194 T01281022,
DCA,2013-12-19 22:52,51.98,30.02,42.72,200.00,9.00,0.00,30.12,1020.00,10.00,M,FEW,BKN,None,None,17000.00,24000.00,M,M,M,KDCA 192252Z 20009KT 10SM FEW170 BKN240 11/M01 A3012 RMK AO2 SLP200 T01111011,
DCA,2013-12-19 23:52,51.08,28.94,42.26,190.00,8.00,0.00,30.14,1020.60,10.00,M,BKN,None,None,None,24000.00,M,M,M,M,KDCA 192352Z 19008KT 10SM BKN240 11/M02 A3014 RMK AO2 SLP206 T01061017 10161 20094 53016,
DCA,2013-12-20 00:52,50.00,30.92,47.68,200.00,7.00,0.00,30.15,1020.80,10.00,M,OVC,None,None,None,24000.00,M,M,M,M,KDCA 200052Z 20007KT 10SM OVC240 10/M01 A3015 RMK AO2 SLP208 T01001006,
DCA,2013-12-20 01:52,51.98,28.94,40.88,200.00,7.00,0.00,30.15,1020.80,10.00,M,OVC,None,None,None,23000.00,M,M,M,M,KDCA 200152Z 20007KT 10SM OVC230 11/M02 A3015 RMK AO2 SLP208 T01111017,
DCA,2013-12-20 02:52,48.92,30.02,47.86,190.00,9.00,0.00,30.15,1021.10,10.00,M,BKN,None,None,None,21000.00,M,M,M,M,KDCA 200252Z 19009KT 10SM BKN210 09/M01 A3015 RMK AO2 SLP211 T00941011 53005,
DCA,2013-12-20 03:52,48.02,30.92,51.34,190.00,9.00,0.00,30.14,1020.70,10.00,M,BKN,None,None,None,23000.00,M,M,M,M,KDCA 200352Z 19009KT 10SM BKN230 09/M01 A3014 RMK AO2 SLP207 T00891006,
DCA,2013-12-20 04:52,48.92,30.02,47.86,190.00,8.00,0.00,30.13,1020.40,10.00,M,OVC,None,None,None,25000.00,M,M,M,M,KDCA 200452Z 19008KT 10SM OVC250 09/M01 A3013 RMK AO2 SLP204 T00941011 401611011,
DCA,2013-12-20 05:52,48.92,28.94,45.79,190.00,7.00,0.00,30.11,1019.70,10.00,M,OVC,None,None,None,20000.00,M,M,M,M,KDCA 200552Z 19007KT 10SM OVC200 09/M02 A3011 RMK AO2 SLP197 T00941017 10117 20083 58014,
DCA,2013-12-20 06:52,48.02,30.02,49.50,180.00,8.00,0.00,30.11,1019.60,10.00,M,OVC,None,None,None,23000.00,M,M,M,M,KDCA 200652Z 18008KT 10SM OVC230 09/M01 A3011 RMK AO2 SLP196 T00891011,
DCA,2013-12-20 07:52,48.92,28.94,45.79,180.00,8.00,0.00,30.12,1019.80,10.00,M,OVC,None,None,None,19000.00,M,M,M,M,KDCA 200752Z 18008KT 10SM OVC190 09/M02 A3012 RMK AO2 SLP198 T00941017,
DCA,2013-12-20 08:52,48.02,28.94,47.36,190.00,8.00,0.00,30.11,1019.70,10.00,M,SCT,OVC,None,None,18000.00,25000.00,M,M,M,KDCA 200852Z 19008KT 10SM SCT180 OVC250 09/M02 A3011 RMK AO2 SLP197 T00891017 50000,
DCA,2013-12-20 09:52,46.04,30.02,53.33,180.00,7.00,0.00,30.11,1019.70,10.00,M,FEW,OVC,None,None,18000.00,25000.00,M,M,M,KDCA 200952Z 18007KT 10SM FEW180 OVC250 08/M01 A3011 RMK AO2 SLP197 T00781011,
DCA,2013-12-20 10:52,46.04,28.94,51.03,190.00,7.00,0.00,30.12,1019.70,10.00,M,SCT,OVC,None,None,18000.00,23000.00,M,M,M,KDCA 201052Z 19007KT 10SM SCT180 OVC230 08/M02 A3012 RMK AO2 SLP197 T00781017,
DCA,2013-12-20 11:52,44.96,30.02,55.56,190.00,8.00,0.00,30.12,1019.90,10.00,M,BKN,BKN,None,None,10000.00,25000.00,M,M,M,KDCA 201152Z 19008KT 10SM BKN100 BKN250 07/M01 A3012 RMK AO2 SLP199 T00721011 10094 20067 53002,
DCA,2013-12-20 12:52,44.06,30.92,59.64,200.00,8.00,0.00,30.12,1019.80,10.00,M,BKN,OVC,None,None,18000.00,25000.00,M,M,M,KDCA 201252Z 20008KT 10SM BKN180 OVC250 07/M01 A3012 RMK AO2 SLP198 T00671006,
DCA,2013-12-20 13:52,46.94,30.92,53.47,190.00,7.00,0.00,30.12,1019.80,10.00,M,BKN,OVC,None,None,18000.00,25000.00,M,M,M,KDCA 201352Z 19007KT 10SM BKN180 OVC250 08/M01 A3012 RMK AO2 SLP198 T00831006,
DCA,2013-12-20 14:52,48.92,30.92,49.64,190.00,9.00,0.00,30.12,1020.00,10.00,M,BKN,OVC,None,None,18000.00,25000.00,M,M,M,KDCA 201452Z 19009KT 10SM BKN180 OVC250 09/M01 A3012 RMK AO2 SLP200 T00941006 53001,
DCA,2013-12-20 15:52,51.98,30.02,42.72,200.00,8.00,0.00,30.12,1019.80,10.00,M,BKN,OVC,None,None,18000.00,25000.00,M,M,M,KDCA 201552Z 20008KT 10SM BKN180 OVC250 11/M01 A3012 RMK AO2 SLP198 T01111011,
DCA,2013-12-20 16:52,51.08,32.00,47.85,190.00,6.00,0.00,30.09,1018.80,10.00,M,SCT,BKN,OVC,None,9000.00,18000.00,25000.00,M,M,KDCA 201652Z 19006KT 10SM SCT090 BKN180 OVC250 11/00 A3009 RMK AO2 SLP188 T01060000,
DCA,2013-12-20 17:52,55.94,30.92,38.34,210.00,9.00,0.00,30.07,1018.10,10.00,M,BKN,OVC,None,None,18000.00,25000.00,M,M,M,KDCA 201752Z 21009KT 10SM BKN180 OVC250 13/M01 A3007 RMK AO2 SLP181 T01331006 10133 20067 58018,
DCA,2013-12-20 18:52,57.92,33.08,38.94,190.00,7.00,0.00,30.03,1017.00,10.00,M,SCT,BKN,OVC,None,8000.00,18000.00,25000.00,M,M,KDCA 201852Z 19007KT 10SM SCT080 BKN180 OVC250 14/01 A3003 RMK AO2 SLP170 T01440006,
DCA,2013-12-20 19:52,59.00,35.96,42.02,200.00,8.00,0.00,30.02,1016.70,10.00,M,SCT,BKN,OVC,None,8000.00,18000.00,25000.00,M,M,KDCA 201952Z 20008KT 10SM SCT080 BKN180 OVC250 15/02 A3002 RMK AO2 SLP167 T01500022,
DCA,2013-12-20 20:21,59.00,37.40,44.47,200.00,9.00,0.00,30.01,M,10.00,M,SCT,OVC,None,None,11000.00,20000.00,M,M,M,KDCA 202021Z 20009KT 10SM SCT110 OVC200 15/03 A3001 RMK AO2,
DCA,2013-12-20 20:52,60.08,37.04,42.19,210.00,5.00,0.00,30.03,1016.90,10.00,M,SCT,OVC,None,None,12000.00,21000.00,M,M,M,KDCA 202052Z 21005KT 10SM SCT120 OVC210 16/03 A3003 RMK AO2 SLP169 T01560028 55012,
DCA,2013-12-20 21:52,55.04,39.02,54.67,200.00,7.00,0.00,30.04,1017.20,10.00,M,SCT,OVC,None,None,13000.00,22000.00,M,M,M,KDCA 202152Z 20007KT 10SM SCT130 OVC220 13/04 A3004 RMK AO2 SLP172 T01280039,
DCA,2013-12-20 22:52,55.94,39.02,52.91,200.00,7.00,0.00,30.04,1017.30,10.00,M,FEW,SCT,None,None,13000.00,24000.00,M,M,M,KDCA 202252Z 20007KT 10SM FEW130 SCT240 13/04 A3004 RMK AO2 SLP173 T01330039,
DCA,2013-12-20 23:52,53.96,39.02,56.86,190.00,10.00,0.00,30.04,1017.30,10.00,M,FEW,SCT,None,None,13000.00,24000.00,M,M,M,KDCA 202352Z 19010KT 10SM FEW130 SCT240 12/04 A3004 RMK AO2 SLP173 T01220039 10156 20106 51004,
DCA,2013-12-21 00:52,55.94,39.92,54.80,190.00,9.00,0.00,30.04,1017.30,10.00,M,BKN,OVC,None,None,10000.00,12000.00,M,M,M,KDCA 210052Z 19009KT 10SM BKN100 OVC120 13/04 A3004 RMK AO2 SLP173 T01330044,
DCA,2013-12-21 01:52,55.04,42.08,61.56,190.00,7.00,0.00,30.04,1017.30,10.00,M,OVC,None,None,None,11000.00,M,M,M,M,KDCA 210152Z 19007KT 10SM OVC110 13/06 A3004 RMK AO2 SLP173 T01280056,
DCA,2013-12-21 02:52,53.96,44.06,69.08,190.00,9.00,0.00,30.04,1017.30,10.00,M,OVC,None,None,None,11000.00,M,M,M,M,KDCA 210252Z 19009KT 10SM OVC110 12/07 A3004 RMK AO2 SLP173 T01220067 52000,
DCA,2013-12-21 03:52,53.06,44.96,73.89,180.00,8.00,0.00,30.04,1017.20,10.00,M,BKN,OVC,None,None,12000.00,25000.00,M,M,M,KDCA 210352Z 18008KT 10SM BKN120 OVC250 12/07 A3004 RMK AO2 SLP172 T01170072,
DCA,2013-12-21 04:52,53.96,42.08,64.03,180.00,10.00,0.00,30.04,1017.10,10.00,M,SCT,OVC,None,None,11000.00,25000.00,M,M,M,KDCA 210452Z 18010KT 10SM SCT110 OVC250 12/06 A3004 RMK AO2 SLP171 T01220056 401560067,
DCA,2013-12-21 05:52,53.06,41.00,63.47,190.00,9.00,0.00,30.03,1016.80,10.00,M,SCT,OVC,None,None,11000.00,25000.00,M,M,M,KDCA 210552Z 19009KT 10SM SCT110 OVC250 12/05 A3003 RMK AO2 SLP168 T01170050 10150 20111 58006,
DCA,2013-12-21 06:52,53.06,41.00,63.47,190.00,10.00,0.00,30.02,1016.70,10.00,M,FEW,BKN,None,None,11000.00,25000.00,M,M,M,KDCA 210652Z 19010KT 10SM FEW110 BKN250 12/05 A3002 RMK AO2 SLP167 T01170050,
DCA,2013-12-21 07:52,51.98,41.00,66.04,190.00,8.00,0.00,30.03,1016.80,10.00,M,FEW,None,None,None,10000.00,M,M,M,M,KDCA 210752Z 19008KT 10SM FEW100 11/05 A3003 RMK AO2 SLP168 T01110050,
DCA,2013-12-21 08:52,53.96,42.98,66.28,200.00,7.00,0.00,30.02,1016.60,10.00,M,SCT,SCT,None,None,9000.00,25000.00,M,M,M,KDCA 210852Z 20007KT 10SM SCT090 SCT250 12/06 A3002 RMK AO2 SLP166 T01220061 58001,
DCA,2013-12-21 09:52,51.98,42.98,71.28,190.00,8.00,0.00,30.02,1016.50,10.00,M,OVC,None,None,None,9000.00,M,M,M,M,KDCA 210952Z 19008KT 10SM OVC090 11/06 A3002 RMK AO2 SLP165 BINOVC T01110061,
DCA,2013-12-21 10:52,51.98,42.98,71.28,180.00,8.00,0.00,30.02,1016.50,10.00,M,OVC,None,None,None,9500.00,M,M,M,M,KDCA 211052Z 18008KT 10SM OVC095 11/06 A3002 RMK AO2 SLP165 T01110061,
DCA,2013-12-21 11:52,53.06,44.06,71.40,180.00,10.00,0.00,30.02,1016.60,10.00,M,SCT,OVC,None,None,10000.00,25000.00,M,M,M,KDCA 211152Z 18010KT 10SM SCT100 OVC250 12/07 A3002 RMK AO2 SLP166 T01170067 10128 20106 55000,
DCA,2013-12-21 12:52,53.96,44.96,71.49,200.00,8.00,0.00,30.02,1016.50,10.00,M,SCT,BKN,BKN,None,10000.00,15000.00,25000.00,M,M,KDCA 211252Z 20008KT 10SM SCT100 BKN150 BKN250 12/07 A3002 RMK AO2 SLP165 T01220072,
DCA,2013-12-21 13:52,55.04,46.94,74.08,190.00,10.00,0.00,30.03,1016.70,10.00,M,BKN,BKN,None,None,10000.00,25000.00,M,M,M,KDCA 211352Z 19010KT 10SM BKN100 BKN250 13/08 A3003 RMK AO2 SLP167 T01280083,
DCA,2013-12-21 14:52,59.00,48.92,69.17,190.00,12.00,0.00,30.03,1017.00,10.00,M,SCT,BKN,None,None,11000.00,25000.00,M,M,M,KDCA 211452Z 19012KT 10SM SCT110 BKN250 15/09 A3003 RMK AO2 SLP170 T01500094 53004,
DCA,2013-12-21 15:52,60.98,50.00,67.11,190.00,14.00,0.00,30.01,1016.20,10.00,M,SCT,BKN,None,None,11000.00,25000.00,M,M,M,KDCA 211552Z 19014KT 10SM SCT110 BKN250 16/10 A3001 RMK AO2 SLP162 T01610100,
DCA,2013-12-21 16:52,66.02,51.08,58.53,210.00,12.00,0.00,29.99,1015.30,10.00,18.00,BKN,BKN,None,None,11000.00,25000.00,M,M,M,KDCA 211652Z 21012G18KT 10SM BKN110 BKN250 19/11 A2999 RMK AO2 SLP153 T01890106,
DCA,2013-12-21 17:52,69.98,51.08,51.07,190.00,15.00,0.00,29.94,1013.90,9.00,20.00,FEW,BKN,BKN,None,11000.00,15000.00,25000.00,M,M,KDCA 211752Z 19015G20KT 9SM FEW110 BKN150 BKN250 21/11 A2994 RMK AO2 SLP139 T02110106 10211 20117 58029,
DCA,2013-12-21 18:52,71.06,51.98,50.89,200.00,17.00,0.00,29.92,1013.20,10.00,27.00,FEW,BKN,None,None,11000.00,25000.00,M,M,M,KDCA 211852Z 20017G27KT 10SM FEW110 BKN250 22/11 A2992 RMK AO2 PK WND 20027/1843 SLP132 T02170111,
DCA,2013-12-21 19:52,69.08,51.98,54.45,190.00,15.00,0.00,29.91,1012.60,10.00,M,BKN,None,None,None,25000.00,M,M,M,M,KDCA 211952Z 19015KT 10SM BKN250 21/11 A2991 RMK AO2 SLP126 T02060111,
DCA,2013-12-21 20:52,69.98,53.06,54.94,220.00,17.00,0.00,29.93,1013.50,10.00,26.00,BKN,None,None,None,25000.00,M,M,M,M,KDCA 212052Z 22017G26KT 10SM BKN250 21/12 A2993 RMK AO2 PK WND 21027/2032 SLP135 T02110117 55004,
DCA,2013-12-21 21:52,69.08,53.96,58.56,190.00,12.00,0.00,29.94,1013.70,10.00,19.00,BKN,None,None,None,25000.00,M,M,M,M,KDCA 212152Z 19012G19KT 10SM BKN250 21/12 A2994 RMK AO2 PK WND 21028/2106 SLP137 T02060122,
DCA,2013-12-21 22:52,68.00,55.04,63.21,200.00,12.00,0.00,29.95,1014.20,10.00,M,BKN,BKN,None,None,12000.00,19000.00,M,M,M,KDCA 212252Z 20012KT 10SM BKN120 BKN190 20/13 A2995 RMK AO2 SLP142 T02000128,
DCA,2013-12-21 23:52,62.06,51.98,69.51,190.00,10.00,0.00,29.96,1014.50,10.00,M,FEW,SCT,None,None,4000.00,19000.00,M,M,M,KDCA 212352Z 19010KT 10SM FEW040 SCT190 17/11 A2996 RMK AO2 SLP145 T01670111 10222 20167 53009,
DCA,2013-12-22 00:52,66.02,55.04,67.69,200.00,10.00,0.00,29.96,1014.40,10.00,M,FEW,SCT,None,None,4000.00,19000.00,M,M,M,KDCA 220052Z 20010KT 10SM FEW040 SCT190 19/13 A2996 RMK AO2 SLP144 T01890128,
DCA,2013-12-22 01:52,66.02,55.94,69.94,210.00,10.00,0.00,29.96,1014.40,10.00,M,BKN,None,None,None,23000.00,M,M,M,M,KDCA 220152Z 21010KT 10SM BKN230 19/13 A2996 RMK AO2 SLP144 T01890133,
DCA,2013-12-22 02:52,66.02,55.94,69.94,200.00,13.00,0.00,29.96,1014.40,10.00,M,FEW,BKN,None,None,12000.00,25000.00,M,M,M,KDCA 220252Z 20013KT 10SM FEW120 BKN250 19/13 A2996 RMK AO2 SLP144 T01890133 53000,
DCA,2013-12-22 03:52,66.92,57.92,72.81,200.00,10.00,0.00,29.95,1014.10,10.00,M,FEW,SCT,BKN,None,5000.00,10000.00,21000.00,M,M,KDCA 220352Z 20010KT 10SM FEW050 SCT100 BKN210 19/14 A2995 RMK AO2 SLP141 T01940144,
DCA,2013-12-22 04:52,66.92,59.00,75.69,190.00,14.00,0.00,29.93,1013.30,10.00,19.00,FEW,SCT,OVC,None,5000.00,10000.00,21000.00,M,M,KDCA 220452Z 19014G19KT 10SM FEW050 SCT100 OVC210 19/15 A2993 RMK AO2 SLP133 T01940150 402220106,
DCA,2013-12-22 05:41,68.00,60.80,77.75,190.00,11.00,0.00,29.91,M,10.00,21.00,BKN,OVC,None,None,2600.00,20000.00,M,M,M,KDCA 220541Z 19011G21KT 10SM BKN026 OVC200 20/16 A2991 RMK AO2,
DCA,2013-12-22 05:52,68.00,60.08,75.78,190.00,13.00,0.00,29.90,1012.50,10.00,M,BKN,OVC,None,None,2600.00,20000.00,M,M,M,KDCA 220552Z 19013KT 10SM BKN026 OVC200 20/16 A2990 RMK AO2 SLP125 T02000156 10200 20144 58019,
DCA,2013-12-22 06:30,69.80,60.80,73.09,200.00,17.00,0.00,29.89,M,10.00,24.00,SCT,BKN,OVC,None,2600.00,17000.00,22000.00,M,M,KDCA 220630Z 20017G24KT 10SM SCT026 BKN170 OVC220 21/16 A2989 RMK AO2,
DCA,2013-12-22 06:52,69.08,60.08,73.02,210.00,18.00,0.00,29.90,1012.50,10.00,22.00,SCT,OVC,None,None,2300.00,17000.00,M,M,M,KDCA 220652Z 21018G22KT 10SM SCT023 OVC170 21/16 A2990 RMK AO2 SLP125 T02060156,
DCA,2013-12-22 07:03,69.80,60.80,73.09,200.00,16.00,0.00,29.90,M,10.00,23.00,BKN,OVC,None,None,2300.00,17000.00,M,M,M,KDCA 220703Z 20016G23KT 10SM BKN023 OVC170 21/16 A2990 RMK AO2,
DCA,2013-12-22 07:52,68.00,60.08,75.78,200.00,14.00,0.00,29.89,1011.90,10.00,21.00,BKN,OVC,None,None,2500.00,15000.00,M,M,M,KDCA 220752Z 20014G21KT 10SM BKN025 OVC150 20/16 A2989 RMK AO2 SLP119 T02000156,
DCA,2013-12-22 08:04,69.80,60.80,73.09,190.00,15.00,0.00,29.88,M,10.00,24.00,SCT,OVC,None,None,2500.00,18000.00,M,M,M,KDCA 220804Z 19015G24KT 10SM SCT025 OVC180 21/16 A2988 RMK AO2,
DCA,2013-12-22 08:52,69.98,60.98,73.11,190.00,17.00,0.00,29.85,1010.70,10.00,28.00,BKN,BKN,OVC,None,3000.00,3900.00,18000.00,M,M,KDCA 220852Z 19017G28KT 10SM BKN030 BKN039 OVC180 21/16 A2985 RMK AO2 PK WND 19028/0847 SLP107 T02110161 58018,
DCA,2013-12-22 09:38,71.60,60.80,68.75,200.00,18.00,0.00,29.84,M,10.00,31.00,BKN,BKN,BKN,None,2800.00,3400.00,21000.00,M,M,KDCA 220938Z 20018G31KT 10SM BKN028 BKN034 BKN210 22/16 A2984 RMK AO2 PK WND 19031/0932,
DCA,2013-12-22 09:52,71.06,60.98,70.47,200.00,16.00,0.00,29.85,1010.60,10.00,29.00,SCT,BKN,OVC,None,2800.00,3400.00,21000.00,M,M,KDCA 220952Z 20016G29KT 10SM SCT028 BKN034 OVC210 22/16 A2985 RMK AO2 PK WND 19031/0932 SLP106 T02170161,
DCA,2013-12-22 10:52,71.06,60.98,70.47,190.00,18.00,0.00,29.86,1010.90,10.00,25.00,SCT,BKN,OVC,None,3300.00,5500.00,20000.00,M,M,KDCA 221052Z 19018G25KT 10SM SCT033 BKN055 OVC200 22/16 A2986 RMK AO2 PK WND 20030/1017 SLP109 T02170161 $,
DCA,2013-12-22 11:52,71.06,60.98,70.47,200.00,17.00,0.00,29.89,1012.20,10.00,25.00,BKN,OVC,None,None,4300.00,5500.00,M,M,M,KDCA 221152Z 20017G25KT 10SM BKN043 OVC055 22/16 A2989 RMK AO2 SLP122 BINOVC T02170161 10217 20194 53014 $,
DCA,2013-12-22 12:52,71.96,60.98,68.35,210.00,16.00,0.00,29.92,1013.10,10.00,M,BKN,BKN,OVC,None,4500.00,5500.00,8000.00,M,M,KDCA 221252Z 21016KT 10SM BKN045 BKN055 OVC080 22/16 A2992 RMK AO2 PK WND 20026/1239 SLP131 T02220161 $,
DCA,2013-12-22 13:52,71.06,57.92,63.18,M,3.00,0.00,29.97,1014.70,10.00,M,BKN,None,None,None,3000.00,M,M,M,M,KDCA 221352Z VRB03KT 10SM BKN030 22/14 A2997 RMK AO2 SLP147 T02170144,
DCA,2013-12-22 14:21,62.60,55.40,77.29,120.00,6.00,0.00,29.97,M,10.00,M,BKN,BKN,None,None,2800.00,3500.00,M,M,M,KDCA 221421Z 12006KT 10SM BKN028 BKN035 17/13 A2997 RMK AO2,
DCA,2013-12-22 14:35,66.20,57.20,72.74,310.00,20.00,0.00,30.03,M,0.75,25.00,BKN,BKN,None,None,2800.00,3500.00,M,M,RA,KDCA 221435Z 31020G25KT 3/4SM R01/3000VP6000FT RA BKN028 BKN035 19/14 A3003 RMK AO2 RAB34 PRESRR P0000,
DCA,2013-12-22 14:38,66.20,59.00,77.60,320.00,10.00,0.07,30.03,M,0.75,25.00,BKN,OVC,None,None,2800.00,3500.00,M,M,+RA,KDCA 221438Z 32010G25KT 3/4SM R01/3000VP6000FT +RA BKN028 OVC035 19/15 A3003 RMK AO2 RAB34 P0007,
DCA,2013-12-22 14:40,64.40,59.00,82.62,310.00,11.00,0.14,30.03,M,1.50,25.00,BKN,OVC,None,None,2800.00,3500.00,M,M,+RA,KDCA 221440Z 31011G25KT 1 1/2SM R01/3000VP6000FT +RA BKN028 OVC035 18/15 A3003 RMK AO2 RAB34 PRESRR P0014,
DCA,2013-12-22 14:48,64.40,60.80,88.09,310.00,6.00,0.17,30.04,M,1.75,16.00,BKN,OVC,None,None,2800.00,3500.00,M,M,RA,KDCA 221448Z 31006G16KT 1 3/4SM RA BKN028 OVC035 18/16 A3004 RMK AO2 RAB34 P0017,
DCA,2013-12-22 14:52,64.94,60.08,84.26,320.00,6.00,0.17,30.03,1016.70,1.75,M,BKN,OVC,None,None,2800.00,3500.00,M,M,-RA,KDCA 221452Z 32006KT 1 3/4SM -RA BKN028 OVC035 18/16 A3003 RMK AO2 RAB34 SLP167 P0017 60017 T01830156 53045,
DCA,2013-12-22 15:05,64.40,60.80,88.09,0.00,0.00,0.02,30.02,M,3.00,M,BKN,OVC,None,None,2800.00,3500.00,M,M,-RA,KDCA 221505Z 00000KT 3SM -RA BKN028 OVC035 18/16 A3002 RMK AO2 VIS NW 2 P0002,
DCA,2013-12-22 15:15,64.40,60.80,88.09,230.00,3.00,0.02,30.03,M,6.00,M,SCT,BKN,OVC,None,2800.00,3500.00,6500.00,M,-RA,KDCA 221515Z 23003KT 6SM -RA SCT028 BKN035 OVC065 18/16 A3003 RMK AO2 VIS NW 2 P0002,
DCA,2013-12-22 15:52,60.98,57.92,89.65,170.00,7.00,0.03,30.02,1016.40,9.00,M,OVC,None,None,None,6000.00,M,M,M,-RA,KDCA 221552Z 17007KT 9SM -RA OVC060 16/14 A3002 RMK AO2 SLP164 VIS NW 2 P0003 T01610144,
DCA,2013-12-22 16:52,59.00,57.02,93.13,180.00,10.00,0.04,29.98,1015.20,10.00,M,OVC,None,None,None,6500.00,M,M,M,-RA,KDCA 221652Z 18010KT 10SM -RA OVC065 15/14 A2998 RMK AO2 SLP152 P0004 T01500139,
DCA,2013-12-22 17:52,60.98,57.92,89.65,190.00,7.00,0.00,29.97,1014.60,10.00,M,BKN,BKN,None,None,6500.00,9000.00,M,M,M,KDCA 221752Z 19007KT 10SM BKN065 BKN090 16/14 A2997 RMK AO2 RAE22B40E52 SLP146 P0000 60024 T01610144 10222 20144 58020,
DCA,2013-12-22 18:26,62.60,59.00,88.00,200.00,10.00,0.00,29.97,M,10.00,M,BKN,BKN,None,None,6500.00,9000.00,M,M,VCFG,KDCA 221826Z 20010KT 10SM VCFG BKN065 BKN090 17/15 A2997 RMK AO2,
DCA,2013-12-22 18:52,60.08,57.02,89.61,190.00,9.00,0.00,29.95,1014.10,10.00,M,BKN,BKN,None,None,6500.00,9000.00,M,M,VCFG,KDCA 221852Z 19009KT 10SM VCFG BKN065 BKN090 16/14 A2995 RMK AO2 SLP141 T01560139,
DCA,2013-12-22 19:52,57.92,55.04,90.11,190.00,12.00,0.00,29.96,1014.40,10.00,M,BKN,OVC,None,None,6500.00,10000.00,M,M,M,KDCA 221952Z 19012KT 10SM BKN065 OVC100 14/13 A2996 RMK AO2 SLP144 T01440128,
DCA,2013-12-22 20:52,59.00,55.04,86.69,180.00,13.00,0.00,29.96,1014.30,10.00,M,FEW,OVC,None,None,7500.00,10000.00,M,M,M,KDCA 222052Z 18013KT 10SM FEW075 OVC100 15/13 A2996 RMK AO2 RAB18E28 SLP143 P0000 60000 T01500128 56003,
DCA,2013-12-22 21:52,62.06,57.02,83.54,200.00,13.00,0.00,29.95,1014.30,10.00,M,BKN,OVC,None,None,10000.00,15000.00,M,M,M,KDCA 222152Z 20013KT 10SM BKN100 OVC150 17/14 A2995 RMK AO2 SLP143 T01670139,
DCA,2013-12-22 22:52,60.98,55.04,80.78,200.00,18.00,0.00,29.93,1013.50,10.00,M,FEW,BKN,OVC,None,7500.00,9500.00,11000.00,M,M,KDCA 222252Z 20018KT 10SM FEW075 BKN095 OVC110 16/13 A2993 RMK AO2 RAB25E33 PRESRR SLP135 P0000 T01610128,
DCA,2013-12-22 23:26,64.40,57.20,77.45,240.00,10.00,0.00,29.97,M,10.00,19.00,FEW,BKN,None,None,7500.00,11000.00,M,M,M,KDCA 222326Z 24010G19KT 10SM FEW075 BKN110 18/14 A2997 RMK AO2 WSHFT 2310 RAB00E11 P0000,
DCA,2013-12-22 23:52,62.06,55.04,77.75,170.00,16.00,0.00,29.91,1012.80,10.00,M,FEW,SCT,BKN,None,7500.00,10000.00,15000.00,M,M,KDCA 222352Z 17016KT 10SM FEW075 SCT100 BKN150 17/13 A2991 RMK AO2 WSHFT 2310 RAB00E11 SLP128 P0000 60000 T01670128 10189 20139 58015,
DCA,2013-12-23 00:21,64.40,57.20,77.45,250.00,10.00,0.00,30.00,M,10.00,M,BKN,BKN,None,None,2000.00,12000.00,M,M,M,KDCA 230021Z 25010KT 10SM BKN020 BKN120 18/14 A3000 RMK AO2 RAB2355E04 P0000,
DCA,2013-12-23 00:41,64.40,57.20,77.45,200.00,9.00,0.00,29.97,M,10.00,M,SCT,BKN,BKN,None,2200.00,7500.00,10000.00,M,M,KDCA 230041Z 20009KT 10SM SCT022 BKN075 BKN100 18/14 A2997 RMK AO2 RAB2355E04 P0000,
DCA,2013-12-23 00:52,64.04,57.02,77.92,210.00,12.00,0.00,29.98,1015.30,10.00,M,SCT,BKN,BKN,None,2200.00,7500.00,10000.00,M,M,KDCA 230052Z 21012KT 10SM SCT022 BKN075 BKN100 18/14 A2998 RMK AO2 RAB2355E04 SLP153 P0000 T01780139,
DCA,2013-12-23 01:52,60.08,55.04,83.41,180.00,7.00,0.00,29.98,1015.00,10.00,M,FEW,SCT,BKN,None,2200.00,10000.00,15000.00,M,M,KDCA 230152Z 18007KT 10SM FEW022 SCT100 BKN150 16/13 A2998 RMK AO2 PRESFR SLP150 T01560128,
DCA,2013-12-23 02:45,60.80,55.40,82.37,180.00,7.00,0.00,30.00,M,10.00,M,BKN,BKN,None,None,2100.00,11000.00,M,M,M,KDCA 230245Z 18007KT 10SM BKN021 BKN110 16/13 A3000 RMK AO2,
DCA,2013-12-23 02:52,62.06,55.94,80.34,170.00,9.00,0.00,29.99,1015.50,10.00,M,BKN,BKN,None,None,2100.00,11000.00,M,M,M,KDCA 230252Z 17009KT 10SM BKN021 BKN110 17/13 A2999 RMK AO2 SLP155 60000 T01670133 51027,
DCA,2013-12-23 03:07,59.00,55.40,87.83,190.00,7.00,0.00,30.01,M,10.00,M,SCT,BKN,OVC,None,2100.00,6000.00,11000.00,M,-RA,KDCA 230307Z 19007KT 10SM -RA SCT021 BKN060 OVC110 15/13 A3001 RMK AO2 RAB07 P0000,
DCA,2013-12-23 03:52,60.08,55.94,86.18,170.00,9.00,0.00,29.98,1015.10,10.00,M,FEW,BKN,OVC,None,3500.00,4300.00,11000.00,M,-RA,KDCA 230352Z 17009KT 10SM -RA FEW035 BKN043 OVC110 16/13 A2998 RMK AO2 RAB07E17B51 SLP151 P0000 T01560133,
DCA,2013-12-23 04:49,59.00,55.40,87.83,170.00,10.00,0.00,30.00,M,10.00,M,BKN,OVC,None,None,2200.00,11000.00,M,M,-RA,KDCA 230449Z 17010KT 10SM -RA BKN022 OVC110 15/13 A3000 RMK AO2 P0000 402220139,
DCA,2013-12-23 04:52,59.00,55.94,89.57,170.00,10.00,0.00,30.00,1015.80,10.00,M,BKN,OVC,None,None,2200.00,11000.00,M,M,-RA,KDCA 230452Z 17010KT 10SM -RA BKN022 OVC110 15/13 A3000 RMK AO2 SLP158 P0000 T01500133 402220139,
DCA,2013-12-23 05:52,59.00,55.94,89.57,180.00,7.00,0.01,29.99,1015.40,10.00,M,BKN,BKN,None,None,2000.00,11000.00,M,M,-RA,KDCA 230552Z 18007KT 10SM -RA BKN020 BKN110 15/13 A2999 RMK AO2 SLP154 P0001 60001 T01500133 10183 20144 50004,
DCA,2013-12-23 05:59,60.80,57.20,87.92,180.00,7.00,0.00,29.99,M,10.00,M,FEW,BKN,OVC,None,2200.00,11000.00,15000.00,M,-RA,KDCA 230559Z 18007KT 10SM -RA FEW022 BKN110 OVC150 16/14 A2999 RMK AO2 P0000,
DCA,2013-12-23 06:52,60.08,57.92,92.56,180.00,4.00,0.02,29.99,1015.50,10.00,M,SCT,BKN,OVC,None,1900.00,5500.00,9000.00,M,-RA,KDCA 230652Z 18004KT 10SM -RA SCT019 BKN055 OVC090 16/14 A2999 RMK AO2 SLP155 P0002 T01560144,
DCA,2013-12-23 07:07,60.80,57.20,87.92,190.00,8.00,0.01,30.00,M,5.00,M,SCT,BKN,OVC,None,1900.00,2700.00,6000.00,M,-RA BR,KDCA 230707Z 19008KT 5SM R01/4500VP6000FT -RA BR SCT019 BKN027 OVC060 16/14 A3000 RMK AO2 P0001,
DCA,2013-12-23 07:32,60.80,57.20,87.92,180.00,7.00,0.00,29.99,M,5.00,M,SCT,BKN,OVC,None,2000.00,3000.00,3900.00,M,-RA MIFG,KDCA 230732Z 18007KT 5SM R01/2400V3000FT -RA MIFG SCT020 BKN030 OVC039 16/14 A2999,
DCA,2013-12-23 07:50,60.80,57.20,87.92,190.00,7.00,0.12,29.98,M,5.00,M,BKN,BKN,OVC,None,2800.00,3400.00,4700.00,M,-RA BR,KDCA 230750Z 19007KT 5SM R01/3500VP6000FT -RA BR BKN028 BKN034 OVC047 16/14 A2998 RMK AO2 P0012,
DCA,2013-12-23 07:52,60.08,57.92,92.56,190.00,7.00,0.13,29.98,1015.40,5.00,M,FEW,BKN,OVC,None,800.00,2800.00,3900.00,M,-RA BR,KDCA 230752Z 19007KT 5SM R01/4000VP6000FT -RA BR FEW008 BKN028 OVC039 16/14 A2998 RMK AO2 SLP154 P0013 T01560144,
DCA,2013-12-23 08:19,60.80,57.20,87.92,220.00,3.00,0.00,29.98,M,7.00,M,FEW,BKN,OVC,None,600.00,1400.00,2000.00,M,-RA,KDCA 230819Z 22003KT 7SM -RA FEW006 BKN014 OVC020 16/14 A2998 RMK AO2 P0000,
DCA,2013-12-23 08:52,60.98,57.92,89.65,190.00,4.00,0.03,29.98,1015.00,4.00,M,BKN,BKN,OVC,None,900.00,1500.00,2200.00,M,-RA BR,KDCA 230852Z 19004KT 4SM R01/3000V3500FT -RA BR BKN009 BKN015 OVC022 16/14 A2998 RMK AO2 SLP150 P0003 60018 T01610144 58005,
DCA,2013-12-23 09:38,59.00,57.20,93.74,170.00,5.00,0.03,29.97,M,4.00,M,BKN,OVC,None,None,700.00,1300.00,M,M,-RA BR,KDCA 230938Z 17005KT 4SM R01/3000V5000FT -RA BR BKN007 OVC013 15/14 A2997 RMK AO2 P0003,
DCA,2013-12-23 09:52,60.08,57.92,92.56,160.00,5.00,0.05,29.96,1014.50,3.00,M,BKN,BKN,OVC,None,700.00,1700.00,9500.00,M,-RA BR,KDCA 230952Z 16005KT 3SM R01/2600V3500FT -RA BR BKN007 BKN017 OVC095 16/14 A2996 RMK AO2 SLP145 P0005 T01560144,
DCA,2013-12-23 10:09,59.00,57.20,93.74,190.00,3.00,0.01,29.96,M,3.00,M,SCT,BKN,OVC,None,700.00,1800.00,9500.00,M,-RA BR,KDCA 231009Z 19003KT 3SM R01/2800V4500FT -RA BR SCT007 BKN018 OVC095 15/14 A2996 RMK AO2 P0001,
DCA,2013-12-23 10:29,60.80,59.00,93.79,190.00,4.00,0.03,29.96,M,3.00,M,BKN,OVC,None,None,900.00,1600.00,M,M,-RA BR,KDCA 231029Z 19004KT 3SM R01/4000V5500FT -RA BR BKN009 OVC016 16/15 A2996 RMK AO2 P0003,
DCA,2013-12-23 10:52,60.98,59.00,93.19,190.00,3.00,0.06,29.96,1014.40,3.00,M,BKN,OVC,None,None,700.00,1200.00,M,M,-RA BR,KDCA 231052Z 19003KT 3SM R01/6000VP6000FT -RA BR BKN007 OVC012 16/15 A2996 RMK AO2 SLP144 P0006 T01610150,
DCA,2013-12-23 11:12,60.80,59.00,93.79,190.00,4.00,0.02,29.96,M,3.00,M,BKN,BKN,OVC,None,700.00,10000.00,11000.00,M,-RA BCFG,KDCA 231112Z 19004KT 3SM R01/3000VP6000FT -RA BCFG BKN007 BKN100 OVC110 16/15 A2996 RMK AO2 VIS NE 1/2 P0002,
DCA,2013-12-23 11:49,60.80,57.20,87.92,190.00,7.00,0.07,29.97,M,3.00,M,SCT,BKN,OVC,None,1000.00,4300.00,12000.00,M,-RA BCFG,KDCA 231149Z 19007KT 3SM R01/2800VP6000FT -RA BCFG SCT010 BKN043 OVC120 16/14 A2997 RMK AO2 VIS NE 1 P0007,
DCA,2013-12-23 11:52,60.08,57.92,92.56,190.00,7.00,0.07,29.97,1014.80,3.00,M,SCT,BKN,OVC,None,1000.00,4300.00,12000.00,M,-RA BCFG,KDCA 231152Z 19007KT 3SM R01/2800VP6000FT -RA BCFG SCT010 BKN043 OVC120 16/14 A2997 RMK AO2 SLP148 VIS NE 1 P0007 60036 70061 T01560144 10167 20144 53002,
DCA,2013-12-23 12:02,60.80,57.20,87.92,190.00,6.00,0.01,29.97,M,2.50,M,SCT,OVC,None,None,1000.00,4100.00,M,M,-RA BCFG,KDCA 231202Z 19006KT 2 1/2SM -RA BCFG SCT010 OVC041 16/14 A2997 RMK AO2 VIS NE 3/4 P0001 $,
DCA,2013-12-23 12:18,60.80,57.20,87.92,170.00,8.00,0.01,29.96,M,3.00,M,SCT,BKN,OVC,None,700.00,2300.00,4100.00,M,-RA BR,KDCA 231218Z 17008KT 3SM R01/2000V3000FT -RA BR SCT007 BKN023 OVC041 16/14 A2996 RMK AO2 FG OVR RIVER N-E-S P0001 $,
DCA,2013-12-23 12:31,60.80,59.00,93.79,190.00,9.00,0.01,29.97,M,5.00,M,BKN,BKN,OVC,None,700.00,2600.00,3500.00,M,-RA BR,KDCA 231231Z 19009KT 5SM R01/3000VP6000FT -RA BR BKN007 BKN026 OVC035 16/15 A2997 RMK AO2 FG OVR RIVER SE-S P0001 $,
DCA,2013-12-23 12:52,60.98,59.00,93.19,190.00,7.00,0.01,29.94,1013.90,5.00,M,SCT,SCT,OVC,None,700.00,2100.00,10000.00,M,-RA BR,KDCA 231252Z 19007KT 5SM -RA BR SCT007 SCT021 OVC100 16/15 A2994 RMK AO2 SLP139 P0001 T01610150 $,
DCA,2013-12-23 13:28,59.00,57.20,93.74,190.00,12.00,0.02,29.95,M,5.00,M,BKN,OVC,None,None,700.00,11000.00,M,M,-RA BR,KDCA 231328Z 19012KT 5SM R01/1600V2200FT -RA BR BKN007 OVC110 15/14 A2995 RMK AO2 P0002 $,
DCA,2013-12-23 13:40,57.20,55.40,93.69,180.00,12.00,0.02,29.93,M,5.00,M,BKN,OVC,None,None,700.00,11000.00,M,M,-RA BR,KDCA 231340Z 18012KT 5SM R01/1600V2400FT -RA BR BKN007 OVC110 14/13 A2993 RMK AO2 FG OVR RIVER E-S P0002 $,
DCA,2013-12-23 13:52,59.00,57.02,93.13,190.00,12.00,0.03,29.94,1013.90,6.00,M,SCT,OVC,None,None,700.00,10000.00,M,M,-RA BR,KDCA 231352Z 19012KT 6SM R01/3000VP6000FT -RA BR SCT007 OVC100 15/14 A2994 RMK AO2 SLP139 P0003 T01500139 $,
DCA,2013-12-23 14:06,62.60,60.80,93.83,210.00,9.00,0.00,29.96,M,7.00,M,BKN,BKN,OVC,None,700.00,3200.00,10000.00,M,-RA,KDCA 231406Z 21009KT 7SM -RA BKN007 BKN032 OVC100 17/16 A2996 RMK AO2 FG OVR RIVER E P0000,
DCA,2013-12-23 14:28,62.60,60.80,93.83,180.00,6.00,0.03,29.95,M,9.00,M,OVC,None,None,None,900.00,M,M,M,-RA,KDCA 231428Z 18006KT 9SM -RA OVC009 17/16 A2995 RMK AO2 P0003,
DCA,2013-12-23 14:52,64.04,62.06,93.28,220.00,10.00,0.05,29.98,1015.20,9.00,M,OVC,None,None,None,900.00,M,M,M,-RA,KDCA 231452Z 22010KT 9SM -RA OVC009 18/17 A2998 RMK AO2 SLP152 P0005 60009 T01780167 53004,
DCA,2013-12-23 15:02,64.40,60.80,88.09,190.00,9.00,0.01,29.96,M,8.00,M,BKN,OVC,None,None,1100.00,1400.00,M,M,-RA,KDCA 231502Z 19009KT 8SM -RA BKN011 OVC014 18/16 A2996 RMK AO2 P0001,
DCA,2013-12-23 15:14,64.40,60.80,88.09,200.00,11.00,0.02,29.98,M,10.00,M,OVC,None,None,None,900.00,M,M,M,-RA,KDCA 231514Z 20011KT 10SM -RA OVC009 18/16 A2998 RMK AO2 P0002,
DCA,2013-12-23 15:21,64.40,60.80,88.09,250.00,10.00,0.02,30.00,M,5.00,M,BKN,OVC,None,None,900.00,1600.00,M,M,-RA BR,KDCA 231521Z 25010KT 220V290 5SM -RA BR BKN009 OVC016 18/16 A3000 RMK AO2 PRESRR P0002,
DCA,2013-12-23 15:23,64.40,60.80,88.09,290.00,12.00,0.03,29.99,M,0.50,M,FEW,BKN,OVC,None,600.00,1100.00,1600.00,M,-RA FG,KDCA 231523Z 29012KT 1/2SM R01/4000VP6000FT -RA FG FEW006 BKN011 OVC016 18/16 A2999 RMK AO2 P0003,
DCA,2013-12-23 15:25,64.40,60.80,88.09,300.00,10.00,0.04,29.99,M,0.50,M,BKN,OVC,None,None,900.00,1400.00,M,M,+RA FG,KDCA 231525Z 30010KT 1/2SM R01/2800VP6000FT +RA FG BKN009 OVC014 18/16 A2999 RMK AO2 WSHFT 1511 P0004,
DCA,2013-12-23 15:29,62.60,60.80,93.83,300.00,7.00,0.19,29.99,M,2.00,M,BKN,OVC,None,None,900.00,1400.00,M,M,+RA BR,KDCA 231529Z 30007KT 2SM R01/2800VP6000FT +RA BR BKN009 OVC014 17/16 A2999 RMK AO2 WSHFT 1511 P0019,
DCA,2013-12-23 15:33,62.60,60.80,93.83,310.00,5.00,0.21,29.99,M,3.00,M,BKN,BKN,OVC,None,900.00,1400.00,3600.00,M,RA BR,KDCA 231533Z 31005KT 3SM R01/2800VP6000FT RA BR BKN009 BKN014 OVC036 17/16 A2999 RMK AO2 WSHFT 1511 P0021,
DCA,2013-12-23 15:44,62.60,60.80,93.83,310.00,5.00,0.22,29.99,M,8.00,M,SCT,BKN,OVC,None,900.00,1700.00,4000.00,M,-RA,KDCA 231544Z 31005KT 8SM -RA SCT009 BKN017 OVC040 17/16 A2999 RMK AO2 WSHFT 1511 P0022,
DCA,2013-12-23 15:52,62.96,59.00,86.90,290.00,9.00,0.23,30.01,1016.10,9.00,M,SCT,BKN,OVC,None,900.00,1700.00,4000.00,M,-RA,KDCA 231552Z 29009KT 9SM -RA SCT009 BKN017 OVC040 17/15 A3001 RMK AO2 WSHFT 1511 PRESRR SLP161 P0023 T01720150,
DCA,2013-12-23 15:59,62.60,59.00,88.00,310.00,3.00,0.02,29.99,M,3.00,M,FEW,OVC,None,None,900.00,3700.00,M,M,RA BR,KDCA 231559Z 31003KT 3SM RA BR FEW009 OVC037 17/15 A2999 RMK AO2 P0002,
DCA,2013-12-23 16:19,62.60,59.00,88.00,310.00,5.00,0.05,29.98,M,9.00,M,SCT,BKN,OVC,None,1300.00,3900.00,5500.00,M,-RA,KDCA 231619Z 31005KT 9SM -RA SCT013 BKN039 OVC055 17/15 A2998 RMK AO2 P0005,
DCA,2013-12-23 16:23,62.60,59.00,88.00,300.00,5.00,0.05,29.98,M,9.00,M,SCT,BKN,OVC,None,1300.00,1700.00,3900.00,M,-RA,KDCA 231623Z 30005KT 9SM -RA SCT013 BKN017 OVC039 17/15 A2998 RMK AO2 P0005,
DCA,2013-12-23 16:31,62.60,57.20,82.50,330.00,17.00,0.06,30.01,M,10.00,22.00,BKN,BKN,OVC,None,1300.00,1900.00,3900.00,M,-RA,KDCA 231631Z 33017G22KT 10SM -RA BKN013 BKN019 OVC039 17/14 A3001 RMK AO2 P0006,
DCA,2013-12-23 16:38,60.80,53.60,77.14,310.00,13.00,0.07,30.00,M,7.00,22.00,FEW,BKN,OVC,None,1100.00,1600.00,4400.00,M,RA,KDCA 231638Z 31013G22KT 7SM RA FEW011 BKN016 OVC044 16/12 A3000 RMK AO2 P0007,
DCA,2013-12-23 16:52,60.08,53.96,80.19,320.00,6.00,0.09,29.99,1015.40,9.00,M,FEW,BKN,OVC,None,1300.00,2800.00,4800.00,M,-RA,KDCA 231652Z 32006KT 9SM -RA FEW013 BKN028 OVC048 16/12 A2999 RMK AO2 SLP154 P0009 T01560122,
DCA,2013-12-23 17:08,60.80,53.60,77.14,360.00,6.00,0.00,29.98,M,10.00,M,SCT,OVC,None,None,3000.00,4500.00,M,M,-RA,KDCA 231708Z 36006KT 10SM -RA SCT030 OVC045 16/12 A2998 RMK AO2 P0000,
DCA,2013-12-23 17:52,60.08,53.96,80.19,320.00,11.00,0.01,30.01,1016.20,10.00,M,SCT,BKN,OVC,None,3800.00,4500.00,10000.00,M,-RA,KDCA 231752Z 32011KT 10SM -RA SCT038 BKN045 OVC100 16/12 A3001 RMK AO2 SLP162 P0001 60042 T01560122 10178 20144 51010,
DCA,2013-12-23 18:52,57.92,51.08,77.92,350.00,11.00,0.06,30.02,1016.40,10.00,M,FEW,BKN,OVC,None,1800.00,4700.00,10000.00,M,-RA,KDCA 231852Z 35011KT 10SM -RA FEW018 BKN047 OVC100 14/11 A3002 RMK AO2 SLP164 P0006 T01440106,
DCA,2013-12-23 19:52,55.04,44.96,68.73,340.00,16.00,0.00,30.06,1018.00,10.00,M,BKN,BKN,OVC,None,2800.00,3500.00,5000.00,M,M,KDCA 231952Z 34016KT 10SM BKN028 BKN035 OVC050 13/07 A3006 RMK AO2 PK WND 35027/1937 RAE00 PRESRR SLP180 P0000 T01280072,
DCA,2013-12-23 20:04,53.60,44.60,71.45,350.00,16.00,0.00,30.07,M,10.00,23.00,FEW,BKN,OVC,None,2600.00,3300.00,5000.00,M,-RA,KDCA 232004Z 35016G23KT 10SM -RA FEW026 BKN033 OVC050 12/07 A3007 RMK AO2 RAB1955 P0000,
DCA,2013-12-23 20:52,53.06,42.08,66.17,350.00,11.00,0.00,30.08,1018.60,10.00,M,OVC,None,None,None,5500.00,M,M,M,M,KDCA 232052Z 35011KT 10SM OVC055 12/06 A3008 RMK AO2 RAB1955E30 SLP186 P0000 60006 T01170056 53023,
DCA,2013-12-23 21:52,51.98,41.00,66.04,340.00,13.00,0.00,30.12,1019.90,10.00,M,FEW,OVC,None,None,3000.00,6000.00,M,M,M,KDCA 232152Z 34013KT 10SM FEW030 OVC060 11/05 A3012 RMK AO2 RAB2054E15 SLP199 P0000 T01110050,
DCA,2013-12-23 22:52,50.00,37.04,60.89,340.00,13.00,0.00,30.16,1021.10,10.00,22.00,FEW,BKN,OVC,None,3200.00,6500.00,8000.00,M,-RA,KDCA 232252Z 34013G22KT 10SM -RA FEW032 BKN065 OVC080 10/03 A3016 RMK AO2 RAB02E11B34 SLP211 P0000 T01000028,
DCA,2013-12-23 23:52,48.02,33.98,58.07,340.00,21.00,0.00,30.17,1021.50,10.00,26.00,FEW,OVC,None,None,5500.00,8000.00,M,M,M,KDCA 232352Z 34021G26KT 10SM FEW055 OVC080 09/01 A3017 RMK AO2 PK WND 35026/2351 RAE40 SLP215 P0000 60006 T00890011 10156 20089 51029,
DCA,2013-12-24 00:52,46.04,33.08,60.35,340.00,19.00,0.00,30.20,1022.50,10.00,25.00,OVC,None,None,None,8000.00,M,M,M,M,KDCA 240052Z 34019G25KT 10SM OVC080 08/01 A3020 RMK AO2 SLP225 T00780006,
DCA,2013-12-24 01:52,44.06,30.02,57.50,330.00,16.00,0.00,30.21,1022.80,10.00,M,OVC,None,None,None,8500.00,M,M,M,M,KDCA 240152Z 33016KT 10SM OVC085 07/M01 A3021 RMK AO2 PK WND 34026/0107 SLP228 T00671011,
DCA,2013-12-24 02:52,42.98,28.04,55.27,340.00,14.00,0.00,30.23,1023.70,10.00,23.00,FEW,SCT,BKN,None,3700.00,8500.00,12000.00,M,M,KDCA 240252Z 34014G23KT 10SM FEW037 SCT085 BKN120 06/M02 A3023 RMK AO2 SLP237 T00611022 51022,
DCA,2013-12-24 03:52,42.08,28.04,57.22,350.00,11.00,0.00,30.24,1023.90,10.00,M,FEW,BKN,None,None,8500.00,11000.00,M,M,M,KDCA 240352Z 35011KT 10SM FEW085 BKN110 06/M02 A3024 RMK AO2 SLP239 T00561022,
DCA,2013-12-24 04:52,41.00,26.06,54.97,350.00,15.00,0.00,30.24,1024.00,10.00,20.00,FEW,None,None,None,11000.00,M,M,M,M,KDCA 240452Z 35015G20KT 10SM FEW110 05/M03 A3024 RMK AO2 SLP240 T00501033 401780050,
DCA,2013-12-24 05:52,39.92,26.06,57.33,340.00,11.00,0.00,30.23,1023.70,10.00,M,FEW,BKN,None,None,11000.00,20000.00,M,M,M,KDCA 240552Z 34011KT 10SM FEW110 BKN200 04/M03 A3023 RMK AO2 SLP237 T00441033 10089 20044 50000,
DCA,2013-12-24 06:52,39.02,24.08,54.68,330.00,12.00,0.00,30.23,1023.60,10.00,M,FEW,BKN,None,None,11000.00,20000.00,M,M,M,KDCA 240652Z 33012KT 10SM FEW110 BKN200 04/M04 A3023 RMK AO2 SLP236 T00391044,
DCA,2013-12-24 07:52,37.94,23.00,54.51,340.00,13.00,0.00,30.24,1024.00,10.00,M,FEW,BKN,None,None,13000.00,20000.00,M,M,M,KDCA 240752Z 34013KT 10SM FEW130 BKN200 03/M05 A3024 RMK AO2 SLP240 T00331050,
DCA,2013-12-24 08:52,37.04,21.92,53.97,340.00,14.00,0.00,30.22,1023.40,10.00,M,FEW,BKN,None,None,13000.00,20000.00,M,M,M,KDCA 240852Z 34014KT 10SM FEW130 BKN200 03/M06 A3022 RMK AO2 SLP234 T00281056 58003,
DCA,2013-12-24 09:52,35.96,21.92,56.32,330.00,8.00,0.00,30.23,1023.50,10.00,M,FEW,BKN,None,None,13000.00,20000.00,M,M,M,KDCA 240952Z 33008KT 10SM FEW130 BKN200 02/M06 A3023 RMK AO2 SLP235 T00221056,
DCA,2013-12-24 10:52,35.06,21.92,58.37,340.00,8.00,0.00,30.23,1023.50,10.00,M,BKN,None,None,None,20000.00,M,M,M,M,KDCA 241052Z 34008KT 10SM BKN200 02/M06 A3023 RMK AO2 SLP235 T00171056,
DCA,2013-12-24 11:52,33.98,21.92,60.93,340.00,7.00,0.00,30.23,1023.70,10.00,M,FEW,SCT,None,None,14000.00,20000.00,M,M,M,KDCA 241152Z 34007KT 10SM FEW140 SCT200 01/M06 A3023 RMK AO2 SLP237 70048 T00111056 10044 20011 53003,
DCA,2013-12-24 12:52,33.98,21.92,60.93,330.00,6.00,0.00,30.25,1024.20,10.00,M,FEW,None,None,None,16000.00,M,M,M,M,KDCA 241252Z 33006KT 10SM FEW160 01/M06 A3025 RMK AO2 SLP242 T00111056,
DCA,2013-12-24 13:52,37.94,21.02,50.14,330.00,11.00,0.00,30.26,1024.70,10.00,M,FEW,None,None,None,17000.00,M,M,M,M,KDCA 241352Z 33011KT 10SM FEW170 03/M06 A3026 RMK AO2 SLP247 T00331061,
DCA,2013-12-24 14:52,39.02,21.92,49.93,330.00,16.00,0.00,30.28,1025.20,10.00,22.00,FEW,SCT,None,None,6000.00,19000.00,M,M,M,KDCA 241452Z 33016G22KT 10SM FEW060 SCT190 04/M06 A3028 RMK AO2 SLP252 T00391056 51014,
DCA,2013-12-24 15:52,41.00,21.92,46.23,340.00,15.00,0.00,30.27,1024.90,10.00,19.00,SCT,None,None,None,6000.00,M,M,M,M,KDCA 241552Z 34015G19KT 10SM SCT060 05/M06 A3027 RMK AO2 SLP249 T00501056,
DCA,2013-12-24 16:52,41.00,21.02,44.51,340.00,13.00,0.00,30.24,1023.90,10.00,M,SCT,BKN,BKN,None,5000.00,10000.00,23000.00,M,M,KDCA 241652Z 34013KT 10SM SCT050 BKN100 BKN230 05/M06 A3024 RMK AO2 SLP239 T00501061,
DCA,2013-12-24 17:52,42.98,21.92,42.84,310.00,11.00,0.00,30.23,1023.60,10.00,20.00,SCT,SCT,BKN,None,4500.00,10000.00,25000.00,M,M,KDCA 241752Z 31011G20KT 10SM SCT045 SCT100 BKN250 06/M06 A3023 RMK AO2 SLP236 T00611056 10061 20011 57016,
DCA,2013-12-24 18:52,41.00,19.94,42.51,310.00,12.00,0.00,30.24,1023.80,10.00,20.00,SCT,BKN,OVC,None,5000.00,11000.00,23000.00,M,M,KDCA 241852Z 31012G20KT 10SM SCT050 BKN110 OVC230 05/M07 A3024 RMK AO2 SLP238 T00501067,
DCA,2013-12-24 19:52,41.00,19.04,40.90,280.00,16.00,0.00,30.25,1024.10,10.00,23.00,SCT,BKN,BKN,None,6000.00,11000.00,20000.00,M,M,KDCA 241952Z 28016G23KT 10SM SCT060 BKN110 BKN200 05/M07 A3025 RMK AO2 SLP241 VIRGA S-SW AND NW-N T00501072,
DCA,2013-12-24 20:30,42.80,21.20,41.84,280.00,12.00,0.00,30.26,M,10.00,M,BKN,None,None,None,6000.00,M,M,M,-SN,KDCA 242030Z 28012KT 10SM -SN BKN060 06/M06 A3026 RMK AO2 SNB30 P0000,
DCA,2013-12-24 20:52,41.00,17.96,39.05,320.00,15.00,0.00,30.28,1025.20,9.00,22.00,SCT,BKN,None,None,5000.00,7000.00,M,M,M,KDCA 242052Z 32015G22KT 9SM SCT050 BKN070 05/M08 A3028 RMK AO2 SNB30E49 SLP252 VIRGA ALQDS P0000 60000 T00501078 53016,
DCA,2013-12-24 20:58,37.40,23.00,55.68,320.00,21.00,0.00,30.29,M,10.00,32.00,BKN,BKN,None,None,5000.00,7000.00,M,M,-SN,KDCA 242058Z 32021G32KT 10SM -SN BKN050 BKN070 03/M05 A3029 RMK AO2 PK WND 33032/2055 SNB58 PRESRR P0000,
DCA,2013-12-24 21:21,37.40,21.20,51.61,330.00,16.00,0.00,30.30,M,9.00,22.00,BKN,None,None,None,4900.00,M,M,M,M,KDCA 242121Z 33016G22KT 9SM BKN049 03/M06 A3030 RMK AO2 PK WND 33032/2055 SNB2058E17 P0000,
DCA,2013-12-24 21:52,37.04,14.00,38.38,300.00,18.00,0.00,30.32,1026.60,10.00,29.00,SCT,BKN,None,None,3900.00,4800.00,M,M,M,KDCA 242152Z 30018G29KT 10SM SCT039 BKN048 03/M10 A3032 RMK AO2 PK WND 33032/2055 SNB2058E35 SLP266 P0000 T00281100,
DCA,2013-12-24 22:52,33.98,10.04,36.37,320.00,21.00,0.00,30.36,1028.10,10.00,34.00,FEW,SCT,None,None,3900.00,4700.00,M,M,M,KDCA 242252Z 32021G34KT 10SM FEW039 SCT047 01/M12 A3036 RMK AO2 PK WND 33034/2250 SLP281 T00111122,
DCA,2013-12-24 23:52,33.08,6.98,32.85,310.00,14.00,0.00,30.40,1029.40,10.00,24.00,FEW,None,None,None,4700.00,M,M,M,M,KDCA 242352Z 31014G24KT 10SM FEW047 01/M14 A3040 RMK AO2 PK WND 30029/2331 SLP294 60000 T00061139 10061 20006 51042,
DCA,2013-12-25 00:52,30.02,8.96,40.65,330.00,18.00,0.00,30.44,1030.70,10.00,21.00,FEW,None,None,None,6500.00,M,M,M,M,KDCA 250052Z 33018G21KT 10SM FEW065 M01/M13 A3044 RMK AO2 PK WND 31029/0027 SLP307 T10111128,
DCA,2013-12-25 01:52,28.94,5.00,35.50,310.00,15.00,0.00,30.46,1031.40,10.00,24.00,CLR,None,None,None,M,M,M,M,M,KDCA 250152Z 31015G24KT 10SM CLR M02/M15 A3046 RMK AO2 PK WND 33026/0141 SLP314 T10171150,
DCA,2013-12-25 02:52,28.04,5.00,36.83,330.00,15.00,0.00,30.48,1032.10,10.00,21.00,CLR,None,None,None,M,M,M,M,M,KDCA 250252Z 33015G21KT 10SM CLR M02/M15 A3048 RMK AO2 SLP321 T10221150 51027,
DCA,2013-12-25 03:52,26.96,6.08,40.45,330.00,14.00,0.00,30.48,1032.10,10.00,M,CLR,None,None,None,M,M,M,M,M,KDCA 250352Z 33014KT 10SM CLR M03/M14 A3048 RMK AO2 SLP321 T10281144,
DCA,2013-12-25 04:52,26.06,6.98,43.74,310.00,13.00,0.00,30.50,1032.70,10.00,M,CLR,None,None,None,M,M,M,M,M,KDCA 250452Z 31013KT 10SM CLR M03/M14 A3050 RMK AO2 SLP327 T10331139 400611033,
DCA,2013-12-25 05:52,24.98,6.98,45.74,310.00,10.00,0.00,30.51,1032.90,10.00,15.00,CLR,None,None,None,M,M,M,M,M,KDCA 250552Z 31010G15KT 10SM CLR M04/M14 A3051 RMK AO2 SLP329 T10391139 10006 21039 53008,
DCA,2013-12-25 06:52,24.98,8.06,48.03,320.00,6.00,0.00,30.51,1033.10,10.00,M,CLR,None,None,None,M,M,M,M,M,KDCA 250652Z 32006KT 10SM CLR M04/M13 A3051 RMK AO2 SLP331 T10391133,
DCA,2013-12-25 07:52,24.98,8.06,48.03,330.00,10.00,0.00,30.53,1033.70,10.00,M,CLR,None,None,None,M,M,M,M,M,KDCA 250752Z 33010KT 10SM CLR M04/M13 A3053 RMK AO2 SLP337 T10391133,
DCA,2013-12-25 08:52,24.08,8.06,49.87,340.00,9.00,0.00,30.53,1033.60,10.00,M,CLR,None,None,None,M,M,M,M,M,KDCA 250852Z 34009KT 10SM CLR M04/M13 A3053 RMK AO2 SLP336 T10441133 50006,
DCA,2013-12-25 09:52,23.00,8.06,52.18,330.00,10.00,0.00,30.52,1033.30,10.00,M,CLR,None,None,None,M,M,M,M,M,KDCA 250952Z 33010KT 10SM CLR M05/M13 A3052 RMK AO2 SLP333 T10501133,
DCA,2013-12-25 10:52,23.00,6.98,49.69,330.00,6.00,0.00,30.55,1034.40,10.00,M,CLR,None,None,None,M,M,M,M,M,KDCA 251052Z 33006KT 10SM CLR M05/M14 A3055 RMK AO2 SLP344 T10501139,
DCA,2013-12-25 11:52,23.00,8.06,52.18,340.00,8.00,0.00,30.57,1035.00,10.00,M,FEW,None,None,None,8000.00,M,M,M,M,KDCA 251152Z 34008KT 10SM FEW080 M05/M13 A3057 RMK AO2 SLP350 T10501133 11039 21050 53014,
DCA,2013-12-25 12:52,23.00,8.96,54.34,350.00,8.00,0.00,30.58,1035.40,10.00,M,FEW,None,None,None,8000.00,M,M,M,M,KDCA 251252Z 35008KT 10SM FEW080 M05/M13 A3058 RMK AO2 SLP354 T10501128,
DCA,2013-12-25 13:52,26.06,8.96,47.82,330.00,6.00,0.00,30.59,1035.70,10.00,M,FEW,BKN,None,None,8000.00,20000.00,M,M,M,KDCA 251352Z 33006KT 10SM FEW080 BKN200 M03/M13 A3059 RMK AO2 SLP357 T10331128,
DCA,2013-12-25 14:52,28.04,8.96,44.07,30.00,5.00,0.00,30.59,1035.70,10.00,M,SCT,None,None,None,20000.00,M,M,M,M,KDCA 251452Z 03005KT 10SM SCT200 M02/M13 A3059 RMK AO2 SLP357 T10221128 51007,
DCA,2013-12-25 15:52,30.02,8.06,39.03,20.00,4.00,0.00,30.59,1035.70,10.00,M,FEW,None,None,None,20000.00,M,M,M,M,KDCA 251552Z 02004KT 10SM FEW200 M01/M13 A3059 RMK AO2 SLP357 T10111133,
DCA,2013-12-25 16:52,30.92,8.06,37.63,0.00,0.00,0.00,30.57,1035.00,10.00,M,FEW,None,None,None,20000.00,M,M,M,M,KDCA 251652Z 00000KT 10SM FEW200 M01/M13 A3057 RMK AO2 SLP350 T10061133,
DCA,2013-12-25 17:52,30.02,8.96,40.65,0.00,0.00,0.00,30.53,1033.60,10.00,M,FEW,None,None,None,20000.00,M,M,M,M,KDCA 251752Z 00000KT 10SM FEW200 M01/M13 A3053 RMK AO2 SLP336 T10111128 11006 21056 58021,
DCA,2013-12-25 18:52,32.00,8.96,37.52,140.00,3.00,0.00,30.51,1033.00,10.00,M,FEW,None,None,None,20000.00,M,M,M,M,KDCA 251852Z 14003KT 10SM FEW200 00/M13 A3051 RMK AO2 SLP330 T00001128,
DCA,2013-12-25 19:52,32.00,10.04,39.38,180.00,3.00,0.00,30.50,1032.70,10.00,M,FEW,SCT,None,None,10000.00,25000.00,M,M,M,KDCA 251952Z 18003KT 10SM FEW100 SCT250 00/M12 A3050 RMK AO2 SLP327 T00001122,
DCA,2013-12-25 20:52,33.08,10.04,37.70,180.00,5.00,0.00,30.50,1032.60,10.00,M,FEW,None,None,None,10000.00,M,M,M,M,KDCA 252052Z 18005KT 10SM FEW100 01/M12 A3050 RMK AO2 SLP326 T00061122 56009,
DCA,2013-12-25 21:52,30.92,12.02,44.92,200.00,5.00,0.00,30.49,1032.30,10.00,M,FEW,None,None,None,10000.00,M,M,M,M,KDCA 252152Z 20005KT 10SM FEW100 M01/M11 A3049 RMK AO2 SLP323 T10061111,
DCA,2013-12-25 22:52,30.92,12.92,46.74,200.00,7.00,0.00,30.48,1032.10,10.00,M,FEW,None,None,None,10000.00,M,M,M,M,KDCA 252252Z 20007KT 10SM FEW100 M01/M11 A3048 RMK AO2 SLP321 T10061106,
DCA,2013-12-25 23:52,30.92,14.00,49.01,160.00,7.00,0.00,30.49,1032.20,10.00,M,FEW,None,None,None,10000.00,M,M,M,M,KDCA 252352Z 16007KT 10SM FEW100 M01/M10 A3049 RMK AO2 SLP322 T10061100 10006 21011 55004,
DCA,2013-12-26 00:52,30.02,12.92,48.48,150.00,6.00,0.00,30.48,1032.00,10.00,M,CLR,None,None,None,M,M,M,M,M,KDCA 260052Z 15006KT 10SM CLR M01/M11 A3048 RMK AO2 SLP320 T10111106,
DCA,2013-12-26 01:52,28.94,12.02,48.69,170.00,6.00,0.00,30.47,1031.60,10.00,M,FEW,None,None,None,10000.00,M,M,M,M,KDCA 260152Z 17006KT 10SM FEW100 M02/M11 A3047 RMK AO2 SLP316 T10171111,
DCA,2013-12-26 02:52,28.94,17.06,60.69,160.00,8.00,0.00,30.45,1031.10,10.00,M,FEW,None,None,None,10000.00,M,M,M,M,KDCA 260252Z 16008KT 10SM FEW100 M02/M08 A3045 RMK AO2 SLP311 T10171083 58012,
DCA,2013-12-26 03:52,28.94,19.04,66.09,160.00,6.00,0.00,30.43,1030.40,10.00,M,CLR,None,None,None,M,M,M,M,M,KDCA 260352Z 16006KT 10SM CLR M02/M07 A3043 RMK AO2 SLP304 T10171072,
DCA,2013-12-26 04:52,30.02,19.94,65.72,170.00,8.00,0.00,30.41,1029.70,10.00,M,CLR,None,None,None,M,M,M,M,M,KDCA 260452Z 17008KT 10SM CLR M01/M07 A3041 RMK AO2 SLP297 T10111067 400061056,
DCA,2013-12-26 05:52,30.02,21.02,68.81,190.00,10.00,0.00,30.39,1029.10,10.00,M,CLR,None,None,None,M,M,M,M,M,KDCA 260552Z 19010KT 10SM CLR M01/M06 A3039 RMK AO2 SLP291 T10111061 11006 21017 56020,
DCA,2013-12-26 06:52,26.96,19.94,74.50,210.00,6.00,0.00,30.38,1028.70,10.00,M,CLR,None,None,None,M,M,M,M,M,KDCA 260652Z 21006KT 10SM CLR M03/M07 A3038 RMK AO2 SLP287 T10281067,
DCA,2013-12-26 07:52,28.04,21.02,74.61,190.00,4.00,0.00,30.37,1028.30,10.00,M,CLR,None,None,None,M,M,M,M,M,KDCA 260752Z 19004KT 10SM CLR M02/M06 A3037 RMK AO2 SLP283 T10221061,
DCA,2013-12-26 08:52,28.94,21.92,74.70,200.00,9.00,0.00,30.34,1027.30,10.00,M,FEW,None,None,None,20000.00,M,M,M,M,KDCA 260852Z 20009KT 10SM FEW200 M02/M06 A3034 RMK AO2 SLP273 T10171056 58018,
DCA,2013-12-26 09:52,28.94,21.92,74.70,190.00,8.00,0.00,30.31,1026.40,10.00,M,CLR,None,None,None,M,M,M,M,M,KDCA 260952Z 19008KT 10SM CLR M02/M06 A3031 RMK AO2 SLP264 T10171056,
DCA,2013-12-26 10:52,30.02,21.92,71.48,220.00,6.00,0.00,30.31,1026.10,10.00,M,BKN,None,None,None,18000.00,M,M,M,M,KDCA 261052Z 22006KT 10SM BKN180 M01/M06 A3031 RMK AO2 SLP261 T10111056,
DCA,2013-12-26 11:52,30.02,21.92,71.48,200.00,5.00,0.00,30.29,1025.70,10.00,M,OVC,None,None,None,16000.00,M,M,M,M,KDCA 261152Z 20005KT 10SM OVC160 M01/M06 A3029 RMK AO2 SLP257 T10111056 11011 21028 56017,
DCA,2013-12-26 12:52,30.92,21.92,68.92,0.00,0.00,0.00,30.30,1026.00,10.00,M,BKN,OVC,None,None,12000.00,16000.00,M,M,M,KDCA 261252Z 00000KT 10SM BKN120 OVC160 M01/M06 A3030 RMK AO2 SLP260 BINOVC S T10061056,
DCA,2013-12-26 13:52,32.00,21.02,63.51,210.00,3.00,0.00,30.29,1025.70,10.00,M,FEW,BKN,OVC,None,7500.00,10000.00,15000.00,M,M,KDCA 261352Z 21003KT 10SM FEW075 BKN100 OVC150 00/M06 A3029 RMK AO2 SLP257 BINOVC SE T00001061,
DCA,2013-12-26 14:52,33.08,21.02,60.81,190.00,5.00,0.00,30.30,1026.00,10.00,M,FEW,BKN,BKN,None,5000.00,7500.00,11000.00,M,M,KDCA 261452Z 19005KT 10SM FEW050 BKN075 BKN110 01/M06 A3030 RMK AO2 SLP260 T00061061 51004,
DCA,2013-12-26 15:52,35.96,19.04,49.83,210.00,9.00,0.00,30.30,1026.10,10.00,M,SCT,None,None,None,11000.00,M,M,M,M,KDCA 261552Z 21009KT 10SM SCT110 02/M07 A3030 RMK AO2 SLP261 T00221072,
DCA,2013-12-26 16:52,37.04,19.04,47.75,M,5.00,0.00,30.28,1025.30,10.00,M,FEW,SCT,None,None,5500.00,13000.00,M,M,M,KDCA 261652Z VRB05KT 10SM FEW055 SCT130 03/M07 A3028 RMK AO2 SLP253 T00281072,
DCA,2013-12-26 17:52,41.00,21.02,44.51,190.00,4.00,0.00,30.26,1024.50,10.00,M,FEW,None,None,None,6000.00,M,M,M,M,KDCA 261752Z 19004KT 10SM FEW060 05/M06 A3026 RMK AO2 SLP245 T00501061 10050 21011 58016,
DCA,2013-12-26 18:52,42.08,23.00,46.41,170.00,5.00,0.00,30.25,1024.10,10.00,M,FEW,None,None,None,6000.00,M,M,M,M,KDCA 261852Z 17005KT 10SM FEW060 06/M05 A3025 RMK AO2 SLP241 T00561050,
DCA,2013-12-26 19:52,42.98,24.98,48.70,160.00,4.00,0.00,30.25,1024.30,10.00,M,FEW,None,None,None,4000.00,M,M,M,M,KDCA 261952Z 16004KT 10SM FEW040 06/M04 A3025 RMK AO2 SLP243 T00611039,
DCA,2013-12-26 20:52,44.96,24.08,43.49,0.00,0.00,0.00,30.27,1024.90,10.00,M,FEW,None,None,None,4000.00,M,M,M,M,KDCA 262052Z 00000KT 10SM FEW040 07/M04 A3027 RMK AO2 SLP249 T00721044 53004,
DCA,2013-12-26 21:52,42.98,21.92,42.84,250.00,3.00,0.00,30.28,1025.30,10.00,M,CLR,None,None,None,M,M,M,M,M,KDCA 262152Z 25003KT 10SM CLR 06/M06 A3028 RMK AO2 SLP253 T00611056,
DCA,2013-12-26 22:52,44.06,17.06,33.40,300.00,4.00,0.00,30.29,1025.60,10.00,M,CLR,None,None,None,M,M,M,M,M,KDCA 262252Z 30004KT 10SM CLR 07/M08 A3029 RMK AO2 SLP256 T00671083,
DCA,2013-12-26 23:52,44.06,15.98,31.87,310.00,3.00,0.00,30.31,1026.30,10.00,M,CLR,None,None,None,M,M,M,M,M,KDCA 262352Z 31003KT 10SM CLR 07/M09 A3031 RMK AO2 SLP263 T00671089 10072 20039 53015,
DCA,2013-12-27 00:52,39.02,24.08,54.68,260.00,3.00,0.00,30.33,1026.90,10.00,M,CLR,None,None,None,M,M,M,M,M,KDCA 270052Z 26003KT 10SM CLR 04/M04 A3033 RMK AO2 SLP269 T00391044,
DCA,2013-12-27 01:52,37.04,24.98,61.35,190.00,5.00,0.00,30.34,1027.20,10.00,M,CLR,None,None,None,M,M,M,M,M,KDCA 270152Z 19005KT 10SM CLR 03/M04 A3034 RMK AO2 SLP272 T00281039,
DCA,2013-12-27 02:52,35.96,24.98,64.03,220.00,3.00,0.00,30.35,1027.70,10.00,M,CLR,None,None,None,M,M,M,M,M,KDCA 270252Z 22003KT 10SM CLR 02/M04 A3035 RMK AO2 SLP277 T00221039 51014,
DCA,2013-12-27 03:52,33.98,23.00,63.77,230.00,4.00,0.00,30.37,1028.40,10.00,M,CLR,None,None,None,M,M,M,M,M,KDCA 270352Z 23004KT 10SM CLR 01/M05 A3037 RMK AO2 SLP284 T00111050,
DCA,2013-12-27 04:52,32.00,23.00,69.04,240.00,3.00,0.00,30.38,1028.60,10.00,M,CLR,None,None,None,M,M,M,M,M,KDCA 270452Z 24003KT 10SM CLR 00/M05 A3038 RMK AO2 SLP286 T00001050 400721028,
DCA,2013-12-27 05:52,30.92,21.02,66.34,260.00,3.00,0.00,30.38,1028.60,10.00,M,CLR,None,None,None,M,M,M,M,M,KDCA 270552Z 26003KT 10SM CLR M01/M06 A3038 RMK AO2 SLP286 T10061061 10067 21006 50008,
DCA,2013-12-27 06:52,32.00,21.92,65.97,240.00,4.00,0.00,30.38,1028.70,10.00,M,CLR,None,None,None,M,M,M,M,M,KDCA 270652Z 24004KT 10SM CLR 00/M06 A3038 RMK AO2 SLP287 T00001056,
DCA,2013-12-27 07:52,35.06,21.92,58.37,0.00,0.00,0.00,30.40,1029.30,10.00,M,CLR,None,None,None,M,M,M,M,M,KDCA 270752Z 00000KT 10SM CLR 02/M06 A3040 RMK AO2 SLP293 T00171056,
DCA,2013-12-27 08:52,30.92,23.00,72.12,0.00,0.00,0.00,30.40,1029.40,10.00,M,CLR,None,None,None,M,M,M,M,M,KDCA 270852Z 00000KT 10SM CLR M01/M05 A3040 RMK AO2 SLP294 T10061050 52008,
DCA,2013-12-27 09:52,32.00,21.02,63.51,0.00,0.00,0.00,30.40,1029.40,10.00,M,CLR,None,None,None,M,M,M,M,M,KDCA 270952Z 00000KT 10SM CLR 00/M06 A3040 RMK AO2 SLP294 T00001061,
DCA,2013-12-27 10:52,30.92,21.02,66.34,210.00,3.00,0.00,30.40,1029.30,10.00,M,CLR,None,None,None,M,M,M,M,M,KDCA 271052Z 21003KT 10SM CLR M01/M06 A3040 RMK AO2 SLP293 T10061061,
DCA,2013-12-27 11:52,32.00,23.00,69.04,210.00,3.00,0.00,30.41,1029.80,10.00,M,FEW,None,None,None,12000.00,M,M,M,M,KDCA 271152Z 21003KT 10SM FEW120 00/M05 A3041 RMK AO2 SLP298 T00001050 10017 21011 53004,
DCA,2013-12-27 12:52,33.08,24.08,69.17,0.00,0.00,0.00,30.42,1030.00,10.00,M,SCT,None,None,None,13000.00,M,M,M,M,KDCA 271252Z 00000KT 10SM SCT130 01/M04 A3042 RMK AO2 SLP300 T00061044,
DCA,2013-12-27 13:52,35.06,28.04,75.31,0.00,0.00,0.00,30.43,1030.50,10.00,M,FEW,None,None,None,15000.00,M,M,M,M,KDCA 271352Z 00000KT 10SM FEW150 02/M02 A3043 RMK AO2 SLP305 T00171022,
DCA,2013-12-27 14:52,37.94,28.94,69.73,180.00,7.00,0.00,30.45,1031.00,10.00,M,FEW,SCT,None,None,12000.00,16000.00,M,M,M,KDCA 271452Z 18007KT 10SM FEW120 SCT160 03/M02 A3045 RMK AO2 SLP310 T00331017 53012,
DCA,2013-12-27 15:52,41.00,24.98,52.56,170.00,6.00,0.00,30.45,1030.90,10.00,M,FEW,None,None,None,16000.00,M,M,M,M,KDCA 271552Z 17006KT 10SM FEW160 05/M04 A3045 RMK AO2 SLP309 T00501039,
DCA,2013-12-27 16:52,44.06,24.98,46.73,170.00,9.00,0.00,30.42,1029.90,10.00,M,FEW,None,None,None,16000.00,M,M,M,M,KDCA 271652Z 17009KT 10SM FEW160 07/M04 A3042 RMK AO2 SLP299 T00671039,
DCA,2013-12-27 17:52,46.94,23.00,38.56,170.00,8.00,0.00,30.38,1028.80,10.00,M,FEW,SCT,None,None,11000.00,19000.00,M,M,M,KDCA 271752Z 17008KT 10SM FEW110 SCT190 08/M05 A3038 RMK AO2 SLP288 T00831050 10083 20000 58021,
DCA,2013-12-27 18:52,48.92,21.02,32.93,210.00,9.00,0.00,30.36,1028.10,10.00,M,FEW,SCT,None,None,10000.00,18000.00,M,M,M,KDCA 271852Z 21009KT 10SM FEW100 SCT180 09/M06 A3036 RMK AO2 SLP281 T00941061,
DCA,2013-12-27 19:52,48.02,24.98,40.22,170.00,10.00,0.00,30.34,1027.40,10.00,M,FEW,SCT,None,None,10000.00,20000.00,M,M,M,KDCA 271952Z 17010KT 10SM FEW100 SCT200 09/M04 A3034 RMK AO2 SLP274 T00891039,
DCA,2013-12-27 20:52,48.02,26.06,42.07,180.00,8.00,0.00,30.34,1027.20,10.00,M,FEW,SCT,None,None,10000.00,20000.00,M,M,M,KDCA 272052Z 18008KT 10SM FEW100 SCT200 09/M03 A3034 RMK AO2 SLP272 T00891033 56016,
DCA,2013-12-27 21:52,44.06,28.94,55.02,190.00,8.00,0.00,30.33,1027.10,10.00,M,FEW,SCT,None,None,8000.00,25000.00,M,M,M,KDCA 272152Z 19008KT 10SM FEW080 SCT250 07/M02 A3033 RMK AO2 SLP271 T00671017,
DCA,2013-12-27 22:52,44.06,30.92,59.64,180.00,5.00,0.00,30.34,1027.40,10.00,M,FEW,None,None,None,8000.00,M,M,M,M,KDCA 272252Z 18005KT 10SM FEW080 07/M01 A3034 RMK AO2 SLP274 T00671006 $,
DCA,2013-12-27 23:52,42.08,24.08,48.56,210.00,7.00,0.00,30.36,1028.00,10.00,M,CLR,None,None,None,M,M,M,M,M,KDCA 272352Z 21007KT 10SM CLR 06/M04 A3036 RMK AO2 SLP280 T00561044 10100 20056 53008,
DCA,2013-12-28 00:52,42.98,23.00,44.83,190.00,4.00,0.00,30.37,1028.30,10.00,M,FEW,None,None,None,8000.00,M,M,M,M,KDCA 280052Z 19004KT 10SM FEW080 06/M05 A3037 RMK AO2 SLP283 T00611050,
DCA,2013-12-28 01:52,41.00,30.02,64.68,200.00,3.00,0.00,30.37,1028.50,10.00,M,FEW,None,None,None,8000.00,M,M,M,M,KDCA 280152Z 20003KT 10SM FEW080 05/M01 A3037 RMK AO2 SLP285 T00501011,
DCA,2013-12-28 02:52,39.02,28.04,64.43,210.00,3.00,0.00,30.37,1028.40,10.00,M,CLR,None,None,None,M,M,M,M,M,KDCA 280252Z 21003KT 10SM CLR 04/M02 A3037 RMK AO2 SLP284 T00391022 50004,
DCA,2013-12-28 03:52,35.96,28.04,72.66,210.00,5.00,0.00,30.36,1028.00,10.00,M,CLR,None,None,None,M,M,M,M,M,KDCA 280352Z 21005KT 10SM CLR 02/M02 A3036 RMK AO2 SLP280 T00221022,
DCA,2013-12-28 04:52,35.06,24.98,66.36,210.00,5.00,0.00,30.35,1027.70,10.00,M,CLR,None,None,None,M,M,M,M,M,KDCA 280452Z 21005KT 10SM CLR 02/M04 A3035 RMK AO2 SLP277 T00171039 401001011,
DCA,2013-12-28 05:52,33.98,26.06,72.45,210.00,5.00,0.00,30.35,1027.60,10.00,M,CLR,None,None,None,M,M,M,M,M,KDCA 280552Z 21005KT 10SM CLR 01/M03 A3035 RMK AO2 SLP276 T00111033 10067 20011 56008,
DCA,2013-12-28 06:52,35.96,26.96,69.51,0.00,0.00,0.00,30.33,1027.10,10.00,M,CLR,None,None,None,M,M,M,M,M,KDCA 280652Z 00000KT 10SM CLR 02/M03 A3033 RMK AO2 SLP271 T00221028,
DCA,2013-12-28 07:52,35.06,26.06,69.40,240.00,3.00,0.00,30.33,1027.10,10.00,M,CLR,None,None,None,M,M,M,M,M,KDCA 280752Z 24003KT 10SM CLR 02/M03 A3033 RMK AO2 SLP271 T00171033,
DCA,2013-12-28 08:52,30.92,24.98,78.35,200.00,6.00,0.00,30.31,1026.40,10.00,M,CLR,None,None,None,M,M,M,M,M,KDCA 280852Z 20006KT 10SM CLR M01/M04 A3031 RMK AO2 SLP264 T10061039 58012,
DCA,2013-12-28 09:52,32.00,24.08,72.24,190.00,7.00,0.00,30.31,1026.40,10.00,M,CLR,None,None,None,M,M,M,M,M,KDCA 280952Z 19007KT 10SM CLR 00/M04 A3031 RMK AO2 SLP264 T00001044,
DCA,2013-12-28 10:52,33.08,24.08,69.17,220.00,5.00,0.00,30.32,1026.60,10.00,M,CLR,None,None,None,M,M,M,M,M,KDCA 281052Z 22005KT 10SM CLR 01/M04 A3032 RMK AO2 SLP266 T00061044,
DCA,2013-12-28 11:52,33.08,23.00,66.11,230.00,4.00,0.00,30.32,1026.70,10.00,M,FEW,None,None,None,20000.00,M,M,M,M,KDCA 281152Z 23004KT 10SM FEW200 01/M05 A3032 RMK AO2 SLP267 T00061050 10022 21011 53003,
DCA,2013-12-28 12:52,33.08,24.08,69.17,210.00,5.00,0.00,30.33,1026.80,10.00,M,FEW,None,None,None,13000.00,M,M,M,M,KDCA 281252Z 21005KT 10SM FEW130 01/M04 A3033 RMK AO2 SLP268 T00061044,
DCA,2013-12-28 13:52,35.96,26.06,66.97,200.00,4.00,0.00,30.33,1027.00,10.00,M,FEW,None,None,None,13000.00,M,M,M,M,KDCA 281352Z 20004KT 10SM FEW130 02/M03 A3033 RMK AO2 SLP270 T00221033,
DCA,2013-12-28 14:52,39.92,28.94,64.54,170.00,7.00,0.00,30.33,1027.00,10.00,M,FEW,None,None,None,15000.00,M,M,M,M,KDCA 281452Z 17007KT 10SM FEW150 04/M02 A3033 RMK AO2 SLP270 T00441017 51003,
DCA,2013-12-28 15:52,42.98,28.94,57.35,180.00,10.00,0.00,30.30,1026.10,10.00,M,FEW,None,None,None,20000.00,M,M,M,M,KDCA 281552Z 18010KT 10SM FEW200 06/M02 A3030 RMK AO2 SLP261 T00611017,
DCA,2013-12-28 16:52,48.02,28.94,47.36,170.00,11.00,0.00,30.26,1024.70,10.00,M,FEW,None,None,None,25000.00,M,M,M,M,KDCA 281652Z 17011KT 10SM FEW250 09/M02 A3026 RMK AO2 SLP247 T00891017,
DCA,2013-12-28 17:52,50.00,28.94,43.99,180.00,10.00,0.00,30.23,1023.60,10.00,M,FEW,SCT,None,None,2500.00,25000.00,M,M,M,KDCA 281752Z 18010KT 10SM FEW025 SCT250 10/M02 A3023 RMK AO2 SLP236 T01001017 10106 21006 58034,
DCA,2013-12-28 18:52,53.06,28.94,39.28,170.00,10.00,0.00,30.21,1022.90,10.00,M,BKN,None,None,None,25000.00,M,M,M,M,KDCA 281852Z 17010KT 10SM BKN250 12/M02 A3021 RMK AO2 SLP229 T01171017,
DCA,2013-12-28 19:52,53.06,30.02,41.05,180.00,7.00,0.00,30.18,1022.10,10.00,M,BKN,None,None,None,25000.00,M,M,M,M,KDCA 281952Z 18007KT 10SM BKN250 12/M01 A3018 RMK AO2 SLP221 T01171011,
DCA,2013-12-28 20:52,57.02,28.04,32.78,200.00,10.00,0.00,30.20,1022.70,10.00,M,BKN,None,None,None,25000.00,M,M,M,M,KDCA 282052Z 20010KT 10SM BKN250 14/M02 A3020 RMK AO2 SLP227 T01391022 55009,
DCA,2013-12-28 21:52,50.00,30.92,47.68,190.00,7.00,0.00,30.20,1022.60,10.00,M,BKN,None,None,None,25000.00,M,M,M,M,KDCA 282152Z 19007KT 10SM BKN250 10/M01 A3020 RMK AO2 SLP226 T01001006,
DCA,2013-12-28 22:52,48.92,30.92,49.64,190.00,8.00,0.00,30.21,1022.80,10.00,M,OVC,None,None,None,25000.00,M,M,M,M,KDCA 282252Z 19008KT 10SM OVC250 09/M01 A3021 RMK AO2 SLP228 T00941006,
DCA,2013-12-28 23:52,50.00,28.04,42.39,190.00,5.00,0.00,30.20,1022.60,10.00,M,OVC,None,None,None,25000.00,M,M,M,M,KDCA 282352Z 19005KT 10SM OVC250 10/M02 A3020 RMK AO2 SLP226 T01001022 10139 20089 58002,
DCA,2013-12-29 00:52,50.00,26.06,39.07,210.00,4.00,0.00,30.19,1022.20,10.00,M,OVC,None,None,None,25000.00,M,M,M,M,KDCA 290052Z 21004KT 10SM OVC250 10/M03 A3019 RMK AO2 SLP222 T01001033,
DCA,2013-12-29 01:52,44.96,30.92,57.63,200.00,6.00,0.00,30.18,1021.80,10.00,M,OVC,None,None,None,24000.00,M,M,M,M,KDCA 290152Z 20006KT 10SM OVC240 07/M01 A3018 RMK AO2 SLP218 T00721006,
DCA,2013-12-29 02:52,44.96,32.00,60.20,190.00,6.00,0.00,30.16,1021.40,10.00,M,OVC,None,None,None,20000.00,M,M,M,M,KDCA 290252Z 19006KT 10SM OVC200 07/00 A3016 RMK AO2 SLP214 T00720000 57012,
DCA,2013-12-29 03:52,48.02,30.02,49.50,200.00,5.00,0.00,30.15,1021.10,10.00,M,OVC,None,None,None,18000.00,M,M,M,M,KDCA 290352Z 20005KT 10SM OVC180 09/M01 A3015 RMK AO2 SLP211 T00891011,
DCA,2013-12-29 04:52,46.94,28.94,49.33,200.00,4.00,0.00,30.14,1020.50,10.00,M,OVC,None,None,None,15000.00,M,M,M,M,KDCA 290452Z 20004KT 10SM OVC150 08/M02 A3014 RMK AO2 SLP205 T00831017 401391011,
DCA,2013-12-29 05:52,46.94,28.94,49.33,210.00,4.00,0.00,30.11,1019.70,10.00,M,OVC,None,None,None,15000.00,M,M,M,M,KDCA 290552Z 21004KT 10SM OVC150 08/M02 A3011 RMK AO2 SLP197 T00831017 10106 20067 58017,
DCA,2013-12-29 06:52,46.94,30.92,53.47,190.00,8.00,0.00,30.10,1019.30,10.00,M,OVC,None,None,None,15000.00,M,M,M,M,KDCA 290652Z 19008KT 10SM OVC150 08/M01 A3010 RMK AO2 SLP193 T00831006,
DCA,2013-12-29 07:52,46.94,28.04,47.54,200.00,6.00,0.00,30.09,1019.00,10.00,M,OVC,None,None,None,11000.00,M,M,M,M,KDCA 290752Z 20006KT 10SM OVC110 08/M02 A3009 RMK AO2 SLP190 T00831022,
DCA,2013-12-29 08:52,48.92,26.96,42.22,220.00,6.00,0.00,30.10,1019.10,10.00,M,FEW,OVC,None,None,6000.00,7500.00,M,M,-RA,KDCA 290852Z 22006KT 10SM -RA FEW060 OVC075 09/M03 A3010 RMK AO2 RAB35 SLP191 P0000 60000 T00941028 55005,
DCA,2013-12-29 09:52,44.96,37.04,73.59,200.00,7.00,0.05,30.08,1018.60,10.00,M,OVC,None,None,None,6500.00,M,M,M,-RA,KDCA 290952Z 20007KT 10SM -RA OVC065 07/03 A3008 RMK AO2 SLP186 P0005 T00720028,
DCA,2013-12-29 10:52,44.06,37.94,78.91,0.00,0.00,0.07,30.04,1017.20,9.00,M,OVC,None,None,None,8000.00,M,M,M,-RA,KDCA 291052Z 00000KT 9SM -RA OVC080 07/03 A3004 RMK AO2 SLP172 P0007 T00670033,
DCA,2013-12-29 11:52,42.98,39.02,85.79,50.00,5.00,0.06,30.00,1015.70,7.00,M,OVC,None,None,None,7000.00,M,M,M,-RA,KDCA 291152Z 05005KT 7SM -RA OVC070 06/04 A3000 RMK AO2 SLP157 P0006 60018 70018 T00610039 10094 20061 58034,
DCA,2013-12-29 12:52,44.06,39.92,85.25,40.00,6.00,0.06,29.95,1014.10,7.00,M,OVC,None,None,None,4300.00,M,M,M,-RA,KDCA 291252Z 04006KT 7SM -RA OVC043 07/04 A2995 RMK AO2 PRESFR SLP141 P0006 T00670044,
DCA,2013-12-29 13:26,44.60,39.20,81.20,40.00,8.00,0.04,29.92,M,2.50,M,BKN,OVC,None,None,2900.00,3600.00,M,M,RA BR,KDCA 291326Z 04008KT 2 1/2SM RA BR BKN029 OVC036 07/04 A2992 RMK AO2 P0004,
DCA,2013-12-29 13:45,44.60,41.00,87.09,30.00,6.00,0.09,29.92,M,1.50,M,BKN,OVC,None,None,2500.00,3500.00,M,M,RA BR,KDCA 291345Z 03006KT 1 1/2SM RA BR BKN025 OVC035 07/05 A2992 RMK AO2 P0009,
DCA,2013-12-29 13:52,44.06,41.00,88.90,30.00,6.00,0.12,29.91,1012.70,1.50,M,BKN,OVC,None,None,2000.00,3500.00,M,M,RA BR,KDCA 291352Z 03006KT 1 1/2SM RA BR BKN020 OVC035 07/05 A2991 RMK AO2 SLP127 P0012 T00670050,
DCA,2013-12-29 14:08,44.60,41.00,87.09,40.00,6.00,0.04,29.90,M,1.75,M,FEW,BKN,OVC,None,500.00,2000.00,3500.00,M,RA BR,KDCA 291408Z 04006KT 1 3/4SM RA BR FEW005 BKN020 OVC035 07/05 A2990 RMK AO2 P0004,
DCA,2013-12-29 14:49,44.60,41.00,87.09,40.00,5.00,0.17,29.86,M,2.00,M,BKN,OVC,None,None,500.00,1500.00,M,M,RA BR,KDCA 291449Z 04005KT 2SM RA BR BKN005 OVC015 07/05 A2986 RMK AO2 P0017,
DCA,2013-12-29 14:52,44.06,42.08,92.69,30.00,5.00,0.18,29.86,1011.10,2.00,M,BKN,OVC,None,None,500.00,1500.00,M,M,RA BR,KDCA 291452Z 03005KT 2SM RA BR BKN005 OVC015 07/06 A2986 RMK AO2 SLP111 P0018 60036 T00670056 57046,
DCA,2013-12-29 15:23,46.40,44.60,93.40,70.00,6.00,0.09,29.81,M,3.00,M,BKN,OVC,None,None,500.00,1500.00,M,M,RA BR,KDCA 291523Z 07006KT 3SM RA BR BKN005 OVC015 08/07 A2981 RMK AO2 P0009,
DCA,2013-12-29 15:52,46.04,42.98,88.99,20.00,6.00,0.19,29.76,1007.80,3.00,M,BKN,OVC,None,None,500.00,1500.00,M,M,RA BR,KDCA 291552Z 02006KT 3SM RA BR BKN005 OVC015 08/06 A2976 RMK AO2 PRESFR SLP078 P0019 T00780061,
DCA,2013-12-29 16:24,46.40,42.80,87.19,50.00,6.00,0.16,29.69,M,1.50,M,OVC,None,None,None,500.00,M,M,M,+RA BR,KDCA 291624Z 05006KT 1 1/2SM R01/5500VP6000FT +RA BR OVC005 08/06 A2969 RMK AO2 PRESFR P0016,
DCA,2013-12-29 16:48,48.20,44.60,87.28,80.00,7.00,0.29,29.64,M,2.00,M,OVC,None,None,None,500.00,M,M,M,+RA BR,KDCA 291648Z 08007KT 2SM +RA BR OVC005 09/07 A2964 RMK AO2 PRESFR P0029,
DCA,2013-12-29 16:52,48.02,44.96,89.08,M,5.00,0.31,29.64,1003.80,2.00,M,OVC,None,None,None,500.00,M,M,M,RA BR,KDCA 291652Z VRB05KT 2SM RA BR OVC005 09/07 A2964 RMK AO2 SLP038 P0031 T00890072,
DCA,2013-12-29 17:13,48.20,46.40,93.45,300.00,7.00,0.10,29.66,M,1.50,M,BKN,OVC,None,None,500.00,1200.00,M,M,RA BR,KDCA 291713Z 30007KT 1 1/2SM R01/5000VP6000FT RA BR BKN005 OVC012 09/08 A2966 RMK AO2 P0010,
DCA,2013-12-29 17:52,48.02,44.96,89.08,340.00,8.00,0.23,29.62,1003.10,1.50,M,BKN,BKN,OVC,None,700.00,1500.00,2000.00,M,-RA BR,KDCA 291752Z 34008KT 1 1/2SM -RA BR BKN007 BKN015 OVC020 09/07 A2962 RMK AO2 PRESFR SLP031 P0023 60109 T00890072 10094 20061 56047,
DCA,2013-12-29 18:35,48.20,44.60,87.28,350.00,6.00,0.04,29.58,M,8.00,M,SCT,BKN,OVC,None,700.00,1800.00,2300.00,M,-RA,KDCA 291835Z 35006KT 8SM -RA SCT007 BKN018 OVC023 09/07 A2958 RMK AO2 P0004,
DCA,2013-12-29 18:52,48.92,44.96,86.13,30.00,4.00,0.04,29.55,1000.50,5.00,M,SCT,BKN,OVC,None,700.00,1800.00,2300.00,M,BR,KDCA 291852Z 03004KT 5SM BR SCT007 BKN018 OVC023 09/07 A2955 RMK AO2 RAE52 PRESFR SLP005 P0004 T00940072,
DCA,2013-12-29 19:50,48.20,44.60,87.28,280.00,4.00,0.00,29.57,M,10.00,M,BKN,OVC,None,None,700.00,2000.00,M,M,M,KDCA 291950Z 28004KT 10SM BKN007 OVC020 09/07 A2957 RMK AO2 BINOVC,
DCA,2013-12-29 19:52,48.92,44.96,86.13,290.00,4.00,0.00,29.56,1001.10,10.00,M,BKN,OVC,None,None,700.00,2000.00,M,M,M,KDCA 291952Z 29004KT 10SM BKN007 OVC020 09/07 A2956 RMK AO2 SLP011 BINOVC T00940072,
DCA,2013-12-29 20:13,50.00,44.60,81.61,290.00,6.00,0.00,29.57,M,10.00,M,SCT,BKN,OVC,None,700.00,1400.00,1900.00,M,M,KDCA 292013Z 29006KT 10SM SCT007 BKN014 OVC019 10/07 A2957 RMK AO2,
DCA,2013-12-29 20:18,50.00,44.60,81.61,260.00,5.00,0.00,29.57,M,10.00,M,BKN,OVC,None,None,900.00,1600.00,M,M,M,KDCA 292018Z 26005KT 10SM BKN009 OVC016 10/07 A2957 RMK AO2,
DCA,2013-12-29 20:52,50.00,44.96,82.73,270.00,7.00,0.00,29.58,1001.70,10.00,M,OVC,None,None,None,900.00,M,M,M,M,KDCA 292052Z 27007KT 10SM OVC009 10/07 A2958 RMK AO2 SLP017 BINOVC 60004 T01000072 52012,
DCA,2013-12-29 21:14,50.00,44.60,81.61,280.00,9.00,0.00,29.60,M,10.00,M,OVC,None,None,None,1100.00,M,M,M,M,KDCA 292114Z 28009KT 10SM OVC011 10/07 A2960 RMK AO2 BINOVC,
DCA,2013-12-29 21:52,48.92,44.06,83.23,270.00,12.00,0.00,29.63,1003.30,10.00,M,OVC,None,None,None,1300.00,M,M,M,M,KDCA 292152Z 27012KT 10SM OVC013 09/07 A2963 RMK AO2 SLP033 BINOVC T00940067,
DCA,2013-12-29 22:13,48.20,42.80,81.47,290.00,9.00,0.00,29.64,M,10.00,M,SCT,None,None,None,1300.00,M,M,M,M,KDCA 292213Z 29009KT 10SM SCT013 09/06 A2964 RMK AO2 $,
DCA,2013-12-29 22:52,48.02,42.98,82.59,230.00,7.00,0.00,29.67,1004.60,10.00,M,FEW,None,None,None,1300.00,M,M,M,M,KDCA 292252Z 23007KT 10SM FEW013 09/06 A2967 RMK AO2 SLP046 T00890061 $,
DCA,2013-12-29 23:52,48.02,44.06,86.08,250.00,6.00,0.00,29.72,1006.30,10.00,M,BKN,None,None,None,4300.00,M,M,M,M,KDCA 292352Z 25006KT 10SM BKN043 09/07 A2972 RMK AO2 SLP063 60004 T00890067 10100 20083 53045 $,
DCA,2013-12-30 00:52,50.00,41.00,71.07,290.00,10.00,0.00,29.76,1007.70,10.00,M,SCT,None,None,None,4300.00,M,M,M,M,KDCA 300052Z 29010KT 10SM SCT043 10/05 A2976 RMK AO2 SLP077 T01000050 $,
DCA,2013-12-30 01:52,50.00,39.02,65.80,M,4.00,0.00,29.79,1008.80,10.00,M,FEW,None,None,None,4300.00,M,M,M,M,KDCA 300152Z VRB04KT 10SM FEW043 10/04 A2979 RMK AO2 SLP088 T01000039 $,
DCA,2013-12-30 02:52,48.02,37.94,67.92,0.00,0.00,0.00,29.83,1010.00,10.00,M,FEW,None,None,None,5000.00,M,M,M,M,KDCA 300252Z 00000KT 10SM FEW050 09/03 A2983 RMK AO2 SLP100 T00890033 51037 $,
DCA,2013-12-30 03:52,46.94,37.94,70.74,220.00,3.00,0.00,29.82,1009.70,10.00,M,CLR,None,None,None,M,M,M,M,M,KDCA 300352Z 22003KT 10SM CLR 08/03 A2982 RMK AO2 SLP097 T00830033 $,
DCA,2013-12-30 04:52,44.06,37.04,76.16,210.00,5.00,0.00,29.84,1010.60,10.00,M,FEW,None,None,None,14000.00,M,M,M,M,KDCA 300452Z 21005KT 10SM FEW140 07/03 A2984 RMK AO2 SLP106 T00670028 401060056 $,
DCA,2013-12-30 05:52,42.08,37.04,82.17,220.00,3.00,0.00,29.84,1010.40,10.00,M,FEW,None,None,None,14000.00,M,M,M,M,KDCA 300552Z 22003KT 10SM FEW140 06/03 A2984 RMK AO2 SLP104 T00560028 10106 20050 53004 $,
DCA,2013-12-30 06:52,39.92,35.96,85.61,220.00,7.00,0.00,29.86,1011.00,10.00,M,SCT,None,None,None,20000.00,M,M,M,M,KDCA 300652Z 22007KT 10SM SCT200 04/02 A2986 RMK AO2 SLP110 T00440022 $,
DCA,2013-12-30 07:52,39.02,35.96,88.66,220.00,4.00,0.00,29.88,1011.70,10.00,M,FEW,SCT,None,None,4000.00,20000.00,M,M,M,KDCA 300752Z 22004KT 10SM FEW040 SCT200 04/02 A2988 RMK AO2 SLP117 T00390022 $,
DCA,2013-12-30 08:52,41.00,37.04,85.67,200.00,4.00,0.00,29.91,1012.60,10.00,M,BKN,BKN,None,None,5000.00,20000.00,M,M,M,KDCA 300852Z 20004KT 10SM BKN050 BKN200 05/03 A2991 RMK AO2 SLP126 T00500028 53022 $,
DCA,2013-12-30 09:52,41.00,37.04,85.67,160.00,5.00,0.00,29.92,1013.00,10.00,M,SCT,BKN,None,None,5500.00,20000.00,M,M,M,KDCA 300952Z 16005KT 10SM SCT055 BKN200 05/03 A2992 RMK AO2 SLP130 T00500028 $,
DCA,2013-12-30 10:52,39.92,35.96,85.61,200.00,5.00,0.00,29.93,1013.50,10.00,M,SCT,BKN,None,None,5500.00,20000.00,M,M,M,KDCA 301052Z 20005KT 10SM SCT055 BKN200 04/02 A2993 RMK AO2 SLP135 T00440022 $,
DCA,2013-12-30 11:52,41.00,37.04,85.67,190.00,5.00,0.00,29.95,1014.20,10.00,M,BKN,BKN,BKN,None,5000.00,14000.00,20000.00,M,M,KDCA 301152Z 19005KT 10SM BKN050 BKN140 BKN200 05/03 A2995 RMK AO2 SLP142 70113 T00500028 10056 20039 53016,
DCA,2013-12-30 12:52,42.98,37.94,82.24,0.00,0.00,0.00,29.98,1015.10,10.00,M,BKN,BKN,OVC,None,5500.00,13000.00,23000.00,M,M,KDCA 301252Z 00000KT 10SM BKN055 BKN130 OVC230 06/03 A2998 RMK AO2 SLP151 T00610033,
DCA,2013-12-30 13:52,42.98,39.92,88.85,0.00,0.00,0.00,30.01,1016.20,10.00,M,FEW,BKN,OVC,None,3000.00,5500.00,15000.00,M,M,KDCA 301352Z 00000KT 10SM FEW030 BKN055 OVC150 06/04 A3001 RMK AO2 SLP162 T00610044,
DCA,2013-12-30 14:52,46.94,37.04,68.28,340.00,8.00,0.00,30.04,1017.00,10.00,M,FEW,BKN,OVC,None,3000.00,5500.00,15000.00,M,M,KDCA 301452Z 34008KT 10SM FEW030 BKN055 OVC150 08/03 A3004 RMK AO2 SLP170 T00830028 51028,
DCA,2013-12-30 15:52,46.94,35.96,65.43,340.00,12.00,0.00,30.06,1017.90,10.00,M,SCT,OVC,None,None,3500.00,5000.00,M,M,M,KDCA 301552Z 34012KT 10SM SCT035 OVC050 08/02 A3006 RMK AO2 SLP179 T00830022,
DCA,2013-12-30 16:52,46.04,32.00,57.78,340.00,15.00,0.00,30.07,1018.40,10.00,21.00,SCT,OVC,None,None,3500.00,6000.00,M,M,M,KDCA 301652Z 34015G21KT 10SM SCT035 OVC060 08/00 A3007 RMK AO2 SLP184 T00780000,
DCA,2013-12-30 17:52,44.96,30.92,57.63,340.00,10.00,0.00,30.06,1017.90,10.00,M,FEW,SCT,OVC,None,3500.00,5500.00,15000.00,M,M,KDCA 301752Z 34010KT 10SM FEW035 SCT055 OVC150 07/M01 A3006 RMK AO2 SLP179 T00721006 10089 20050 50009,
DCA,2013-12-30 18:52,44.06,28.94,55.02,310.00,12.00,0.00,30.09,1018.80,10.00,M,SCT,BKN,OVC,None,6000.00,17000.00,21000.00,M,M,KDCA 301852Z 31012KT 10SM SCT060 BKN170 OVC210 07/M02 A3009 RMK AO2 SLP188 T00671017,
DCA,2013-12-30 19:52,42.08,28.04,57.22,350.00,16.00,0.00,30.10,1019.30,10.00,M,FEW,SCT,OVC,None,6000.00,16000.00,20000.00,M,M,KDCA 301952Z 35016KT 10SM FEW060 SCT160 OVC200 06/M02 A3010 RMK AO2 SLP193 T00561022,
DCA,2013-12-30 20:52,41.00,24.98,52.56,340.00,9.00,0.00,30.12,1020.00,10.00,17.00,FEW,OVC,None,None,6500.00,14000.00,M,M,M,KDCA 302052Z 34009G17KT 10SM FEW065 OVC140 05/M04 A3012 RMK AO2 SLP200 T00501039 51021,
DCA,2013-12-30 21:52,39.02,24.08,54.68,340.00,10.00,0.00,30.13,1020.30,10.00,M,FEW,OVC,None,None,7000.00,20000.00,M,M,M,KDCA 302152Z 34010KT 10SM FEW070 OVC200 04/M04 A3013 RMK AO2 SLP203 T00391044,
DCA,2013-12-30 22:52,37.94,24.08,57.04,360.00,9.00,0.00,30.14,1020.60,10.00,M,BKN,None,None,None,21000.00,M,M,M,M,KDCA 302252Z 36009KT 10SM BKN210 03/M04 A3014 RMK AO2 SLP206 T00331044,
DCA,2013-12-30 23:52,37.94,24.08,57.04,350.00,8.00,0.00,30.15,1020.80,10.00,M,BKN,None,None,None,22000.00,M,M,M,M,KDCA 302352Z 35008KT 10SM BKN220 03/M04 A3015 RMK AO2 SLP208 T00331044 10072 20033 51007,
DCA,2013-12-31 00:52,37.04,23.00,56.48,360.00,9.00,0.00,30.17,1021.70,10.00,M,OVC,None,None,None,25000.00,M,M,M,M,KDCA 310052Z 36009KT 10SM OVC250 03/M05 A3017 RMK AO2 SLP217 T00281050,
DCA,2013-12-31 01:52,37.04,23.00,56.48,20.00,12.00,0.00,30.20,1022.40,10.00,M,OVC,None,None,None,5500.00,M,M,M,M,KDCA 310152Z 02012KT 10SM OVC055 03/M05 A3020 RMK AO2 SLP224 T00281050,
DCA,2013-12-31 02:52,35.96,21.92,56.32,30.00,6.00,0.00,30.20,1022.50,10.00,M,BKN,BKN,None,None,5000.00,6000.00,M,M,M,KDCA 310252Z 03006KT 10SM BKN050 BKN060 02/M06 A3020 RMK AO2 SLP225 T00221056 51017,
DCA,2013-12-31 03:52,35.96,21.02,54.21,30.00,7.00,0.00,30.20,1022.70,10.00,M,OVC,None,None,None,4800.00,M,M,M,M,KDCA 310352Z 03007KT 10SM OVC048 02/M06 A3020 RMK AO2 SLP227 T00221061,
DCA,2013-12-31 04:52,35.96,19.94,51.78,50.00,7.00,0.00,30.20,1022.40,10.00,M,OVC,None,None,None,4600.00,M,M,M,M,KDCA 310452Z 05007KT 10SM OVC046 02/M07 A3020 RMK AO2 SLP224 T00221067 400890017,
DCA,2013-12-31 05:52,35.06,19.94,53.66,40.00,7.00,0.00,30.18,1021.90,10.00,M,BKN,OVC,None,None,4800.00,6000.00,M,M,M,KDCA 310552Z 04007KT 10SM BKN048 OVC060 02/M07 A3018 RMK AO2 SLP219 T00171067 10033 20017 58005,
DCA,2013-12-31 06:52,35.06,19.04,51.64,50.00,7.00,0.00,30.18,1022.00,10.00,M,OVC,None,None,None,4600.00,M,M,M,M,KDCA 310652Z 05007KT 10SM OVC046 02/M07 A3018 RMK AO2 SLP220 T00171072,
DCA,2013-12-31 07:52,35.06,17.96,49.30,70.00,6.00,0.00,30.19,1022.10,10.00,M,OVC,None,None,None,4600.00,M,M,M,M,KDCA 310752Z 07006KT 10SM OVC046 02/M08 A3019 RMK AO2 SLP221 T00171078,
DCA,2013-12-31 08:52,33.98,17.96,51.47,100.00,4.00,0.00,30.18,1021.90,10.00,M,OVC,None,None,None,4000.00,M,M,M,M,KDCA 310852Z 10004KT 10SM OVC040 01/M08 A3018 RMK AO2 SLP219 T00111078 58000,
DCA,2013-12-31 09:52,33.98,17.96,51.47,130.00,4.00,0.00,30.17,1021.50,10.00,M,OVC,None,None,None,3800.00,M,M,M,M,KDCA 310952Z 13004KT 10SM OVC038 01/M08 A3017 RMK AO2 SLP215 T00111078,
DCA,2013-12-31 10:52,33.98,19.04,53.91,160.00,5.00,0.00,30.17,1021.60,10.00,M,OVC,None,None,None,3400.00,M,M,M,M,KDCA 311052Z 16005KT 10SM OVC034 01/M07 A3017 RMK AO2 SLP216 T00111072,
DCA,2013-12-31 11:52,33.98,19.94,56.02,170.00,6.00,0.00,30.19,1022.10,10.00,M,BKN,None,None,None,3600.00,M,M,M,M,KDCA 311152Z 17006KT 10SM BKN036 01/M07 A3019 RMK AO2 SLP221 T00111067 10017 20011 53002,
DCA,2013-12-31 12:26,33.80,21.20,59.53,170.00,7.00,0.00,30.18,M,10.00,M,SCT,SCT,None,None,3500.00,17000.00,M,M,M,KDCA 311226Z 17007KT 10SM SCT035 SCT170 01/M06 A3018 RMK AO2,
DCA,2013-12-31 12:52,33.08,21.92,63.17,180.00,9.00,0.00,30.18,1021.90,10.00,M,SCT,SCT,None,None,3500.00,17000.00,M,M,M,KDCA 311252Z 18009KT 10SM SCT035 SCT170 01/M06 A3018 RMK AO2 SLP219 T00061056,
DCA,2013-12-31 13:52,35.06,21.92,58.37,200.00,8.00,0.00,30.18,1021.80,10.00,M,SCT,SCT,None,None,11000.00,20000.00,M,M,M,KDCA 311352Z 20008KT 10SM SCT110 SCT200 02/M06 A3018 RMK AO2 SLP218 T00171056,
DCA,2013-12-31 14:52,37.04,24.08,59.09,190.00,13.00,0.00,30.18,1021.80,10.00,M,FEW,SCT,None,None,3500.00,12000.00,M,M,M,KDCA 311452Z 19013KT 10SM FEW035 SCT120 03/M04 A3018 RMK AO2 SLP218 T00281044 55002,
DCA,2013-12-31 15:52,39.92,26.96,59.50,200.00,11.00,0.00,30.17,1021.70,10.00,M,SCT,SCT,None,None,2500.00,25000.00,M,M,M,KDCA 311552Z 20011KT 10SM SCT025 SCT250 04/M03 A3017 RMK AO2 SLP217 T00441028,
DCA,2013-12-31 16:52,42.98,28.04,55.27,210.00,12.00,0.00,30.15,1020.80,10.00,18.00,FEW,SCT,SCT,None,2700.00,10000.00,25000.00,M,M,KDCA 311652Z 21012G18KT 10SM FEW027 SCT100 SCT250 06/M02 A3015 RMK AO2 SLP208 T00611022,
DCA,2013-12-31 17:52,46.04,23.00,39.90,250.00,12.00,0.00,30.13,1020.10,10.00,22.00,SCT,BKN,BKN,None,3500.00,7000.00,25000.00,M,M,KDCA 311752Z 25012G22KT 10SM SCT035 BKN070 BKN250 08/M05 A3013 RMK AO2 SLP201 T00781050 10078 20006 58018,
DCA,2013-12-31 18:52,46.94,23.00,38.56,280.00,12.00,0.00,30.14,1020.70,10.00,17.00,FEW,SCT,SCT,SCT,4000.00,6500.00,7500.00,25000.00,M,KDCA 311852Z 28012G17KT 10SM FEW040 SCT065 SCT075 SCT250 08/M05 A3014 RMK AO2 SLP207 VIRGA NE T00831050,
DCA,2013-12-31 19:52,46.04,19.94,35.05,300.00,16.00,0.00,30.16,1021.40,10.00,26.00,FEW,SCT,None,None,6000.00,25000.00,M,M,M,KDCA 311952Z 30016G26KT 10SM FEW060 SCT250 08/M07 A3016 RMK AO2 PK WND 28027/1905 SLP214 T00781067,
DCA,2013-12-31 20:52,44.06,15.98,31.87,310.00,17.00,0.00,30.17,1021.70,10.00,23.00,FEW,SCT,None,None,6500.00,25000.00,M,M,M,KDCA 312052Z 31017G23KT 10SM FEW065 SCT250 07/M09 A3017 RMK AO2 PK WND 29028/2016 SLP217 T00671089 51016,
DCA,2013-12-31 21:52,39.92,17.96,40.72,340.00,11.00,0.00,30.23,1023.80,10.00,M,FEW,SCT,None,None,7000.00,25000.00,M,M,M,KDCA 312152Z 34011KT 10SM FEW070 SCT250 04/M08 A3023 RMK AO2 SLP238 T00441078,
DCA,2013-12-31 22:52,39.02,15.98,38.72,330.00,11.00,0.00,30.26,1024.70,10.00,18.00,FEW,None,None,None,25000.00,M,M,M,M,KDCA 312252Z 33011G18KT 10SM FEW250 04/M09 A3026 RMK AO2 SLP247 T00391089,
DCA,2013-12-31 23:52,37.04,15.08,40.24,320.00,16.00,0.00,30.29,1025.60,10.00,21.00,CLR,None,None,None,M,M,M,M,M,KDCA 312352Z 32016G21KT 10SM CLR 03/M09 A3029 RMK AO2 SLP256 T00281094 10094 20028 51039,
DCA,2014-01-01 00:52,35.96,14.00,40.05,320.00,9.00,0.00,30.31,1026.30,10.00,M,CLR,None,None,None,M,M,M,M,M,KDCA 010052Z 32009KT 10SM CLR 02/M10 A3031 RMK AO2 SLP263 T00221100,
DCA,2014-01-01 01:52,35.06,15.08,43.52,340.00,11.00,0.00,30.32,1026.70,10.00,M,CLR,None,None,None,M,M,M,M,M,KDCA 010152Z 34011KT 10SM CLR 02/M09 A3032 RMK AO2 SLP267 T00171094,
DCA,2014-01-01 02:52,33.98,14.00,43.33,330.00,9.00,0.00,30.33,1027.00,10.00,M,CLR,None,None,None,M,M,M,M,M,KDCA 010252Z 33009KT 10SM CLR 01/M10 A3033 RMK AO2 SLP270 T00111100 51014,
DCA,2014-01-01 03:52,33.08,15.98,48.98,350.00,9.00,0.00,30.34,1027.30,10.00,M,CLR,None,None,None,M,M,M,M,M,KDCA 010352Z 35009KT 10SM CLR 01/M09 A3034 RMK AO2 SLP273 T00061089,
DCA,2014-01-01 04:52,32.00,15.98,51.15,340.00,6.00,0.00,30.35,1027.70,10.00,M,CLR,None,None,None,M,M,M,M,M,KDCA 010452Z 34006KT 10SM CLR 00/M09 A3035 RMK AO2 SLP277 T00001089 400941006,
DCA,2014-01-01 05:52,33.98,15.08,45.43,0.00,0.00,0.00,30.36,1027.80,10.00,M,CLR,None,None,None,M,M,M,M,M,KDCA 010552Z 00000KT 10SM CLR 01/M09 A3036 RMK AO2 SLP278 T00111094 10028 21006 51008,
DCA,2014-01-01 06:52,30.02,17.96,60.38,200.00,7.00,0.00,30.35,1027.70,10.00,M,SCT,None,None,None,5000.00,M,M,M,M,KDCA 010652Z 20007KT 10SM SCT050 M01/M08 A3035 RMK AO2 SLP277 T10111078,
DCA,2014-01-01 07:52,30.92,17.06,55.99,220.00,3.00,0.00,30.38,1028.70,10.00,M,FEW,None,None,None,5500.00,M,M,M,M,KDCA 010752Z 22003KT 10SM FEW055 M01/M08 A3038 RMK AO2 SLP287 T10061083,
DCA,2014-01-01 08:52,33.08,15.98,48.98,0.00,0.00,0.00,30.38,1028.60,10.00,M,FEW,BKN,None,None,16000.00,20000.00,M,M,M,KDCA 010852Z 00000KT 10SM FEW160 BKN200 01/M09 A3038 RMK AO2 SLP286 T00061089 50007,
DCA,2014-01-01 09:52,30.92,19.94,63.36,0.00,0.00,0.00,30.39,1028.90,10.00,M,FEW,OVC,None,None,16000.00,20000.00,M,M,M,KDCA 010952Z 00000KT 10SM FEW160 OVC200 M01/M07 A3039 RMK AO2 SLP289 T10061067,
DCA,2014-01-01 10:52,32.00,21.02,63.51,210.00,3.00,0.00,30.40,1029.40,10.00,M,OVC,None,None,None,18000.00,M,M,M,M,KDCA 011052Z 21003KT 10SM OVC180 00/M06 A3040 RMK AO2 SLP294 T00001061,
DCA,2014-01-01 11:52,33.08,21.02,60.81,0.00,0.00,0.00,30.41,1029.80,10.00,M,BKN,OVC,None,None,16000.00,25000.00,M,M,M,KDCA 011152Z 00000KT 10SM BKN160 OVC250 01/M06 A3041 RMK AO2 SLP298 T00061061 10011 21011 53012,
DCA,2014-01-01 12:52,33.08,19.94,58.08,0.00,0.00,0.00,30.43,1030.20,10.00,M,BKN,OVC,None,None,13000.00,25000.00,M,M,M,KDCA 011252Z 00000KT 10SM BKN130 OVC250 01/M07 A3043 RMK AO2 SLP302 T00061067 $,
DCA,2014-01-01 13:52,33.98,19.94,56.02,180.00,4.00,0.00,30.44,1030.50,10.00,M,FEW,OVC,None,None,11000.00,25000.00,M,M,M,KDCA 011352Z 18004KT 10SM FEW110 OVC250 01/M07 A3044 RMK AO2 SLP305 T00111067 $,
DCA,2014-01-01 14:52,37.04,21.02,51.95,190.00,7.00,0.00,30.44,1030.70,10.00,M,FEW,OVC,None,None,10000.00,25000.00,M,M,M,KDCA 011452Z 19007KT 10SM FEW100 OVC250 03/M06 A3044 RMK AO2 SLP307 T00281061 51009 $,
DCA,2014-01-01 15:52,39.92,24.08,52.79,190.00,9.00,0.00,30.42,1030.10,10.00,M,FEW,SCT,None,None,10000.00,25000.00,M,M,M,KDCA 011552Z 19009KT 10SM FEW100 SCT250 04/M04 A3042 RMK AO2 SLP301 T00441044 $,
DCA,2014-01-01 16:52,41.00,26.06,54.97,170.00,7.00,0.00,30.37,1028.40,10.00,M,SCT,BKN,None,None,12000.00,25000.00,M,M,M,KDCA 011652Z 17007KT 10SM SCT120 BKN250 05/M03 A3037 RMK AO2 SLP284 T00501033 $,
DCA,2014-01-01 17:52,44.06,26.06,48.87,190.00,8.00,0.00,30.34,1027.50,10.00,M,FEW,BKN,None,None,11000.00,19000.00,M,M,M,KDCA 011752Z 19008KT 10SM FEW110 BKN190 07/M03 A3034 RMK AO2 SLP275 T00671033 10067 20000 58032 $,
DCA,2014-01-01 18:52,44.96,26.96,49.02,180.00,6.00,0.00,30.31,1026.30,10.00,M,FEW,BKN,None,None,12000.00,20000.00,M,M,M,KDCA 011852Z 18006KT 10SM FEW120 BKN200 07/M03 A3031 RMK AO2 SLP263 T00721028 $,
DCA,2014-01-01 19:52,48.02,26.96,43.67,190.00,7.00,0.00,30.28,1025.20,10.00,M,BKN,None,None,None,20000.00,M,M,M,M,KDCA 011952Z 19007KT 10SM BKN200 09/M03 A3028 RMK AO2 SLP252 T00891028 $,
DCA,2014-01-01 20:52,48.02,28.94,47.36,180.00,8.00,0.00,30.27,1025.00,10.00,M,FEW,BKN,None,None,15000.00,19000.00,M,M,M,KDCA 012052Z 18008KT 10SM FEW150 BKN190 09/M02 A3027 RMK AO2 SLP250 T00891017 56025 $,
DCA,2014-01-01 21:52,44.06,28.94,55.02,M,M,0.00,30.25,1024.40,10.00,M,SCT,None,None,None,18000.00,M,M,M,M,KDCA 012152Z 10SM SCT180 07/M02 A3025 RMK AO2 SLP244 T00671017 $,
DCA,2014-01-01 22:52,42.98,28.04,55.27,150.00,4.00,0.00,30.25,1024.20,10.00,M,FEW,None,None,None,19000.00,M,M,M,M,KDCA 012252Z 15004KT 10SM FEW190 06/M02 A3025 RMK AO2 SLP242 T00611022 $,
DCA,2014-01-01 23:52,42.98,28.94,57.35,150.00,3.00,0.00,30.24,1023.80,10.00,M,FEW,None,None,None,20000.00,M,M,M,M,KDCA 012352Z 15003KT 10SM FEW200 06/M02 A3024 RMK AO2 SLP238 T00611017 10089 20056 56012 $,
DCA,2014-01-02 00:52,42.98,32.00,64.93,180.00,6.00,0.00,30.22,1023.30,10.00,M,BKN,None,None,None,20000.00,M,M,M,M,KDCA 020052Z 18006KT 10SM BKN200 06/00 A3022 RMK AO2 SLP233 T00610000 $,
DCA,2014-01-02 01:52,42.08,32.00,67.22,140.00,3.00,0.00,30.20,1022.70,10.00,M,BKN,None,None,None,19000.00,M,M,M,M,KDCA 020152Z 14003KT 10SM BKN190 06/00 A3020 RMK AO2 SLP227 T00560000 $,
DCA,2014-01-02 02:52,39.92,32.00,73.08,190.00,5.00,0.00,30.20,1022.50,10.00,M,BKN,None,None,None,20000.00,M,M,M,M,KDCA 020252Z 19005KT 10SM BKN200 04/00 A3020 RMK AO2 SLP225 T00440000 56013 $,
DCA,2014-01-02 03:52,39.92,32.00,73.08,0.00,0.00,0.00,30.18,1021.70,10.00,M,FEW,BKN,None,None,15000.00,20000.00,M,M,M,KDCA 020352Z 00000KT 10SM FEW150 BKN200 04/00 A3018 RMK AO2 SLP217 T00440000 $,
DCA,2014-01-02 04:52,39.02,32.00,75.69,200.00,3.00,0.00,30.16,1021.20,10.00,M,FEW,OVC,None,None,15000.00,21000.00,M,M,M,KDCA 020452Z 20003KT 10SM FEW150 OVC210 04/00 A3016 RMK AO2 SLP212 T00390000 400891011 $,
DCA,2014-01-02 05:52,39.02,30.92,72.46,0.00,0.00,0.00,30.12,1019.90,10.00,M,OVC,None,None,None,19000.00,M,M,M,M,KDCA 020552Z 00000KT 10SM OVC190 04/M01 A3012 RMK AO2 SLP199 T00391006 10061 20033 58026 $,
DCA,2014-01-02 06:52,39.02,30.02,69.86,0.00,0.00,0.00,30.09,1019.00,10.00,M,OVC,None,None,None,19000.00,M,M,M,M,KDCA 020652Z 00000KT 10SM OVC190 04/M01 A3009 RMK AO2 SLP190 T00391011 $,
DCA,2014-01-02 07:52,37.94,28.94,69.73,0.00,0.00,0.00,30.09,1019.00,10.00,M,OVC,None,None,None,19000.00,M,M,M,M,KDCA 020752Z 00000KT 10SM OVC190 03/M02 A3009 RMK AO2 SLP190 T00331017 $,
DCA,2014-01-02 08:52,35.96,30.02,78.79,50.00,4.00,0.00,30.06,1017.80,10.00,M,OVC,None,None,None,20000.00,M,M,M,M,KDCA 020852Z 05004KT 10SM OVC200 02/M01 A3006 RMK AO2 SLP178 T00221011 58021 $,
DCA,2014-01-02 09:52,35.06,30.02,81.65,60.00,4.00,0.00,30.04,1017.00,10.00,M,OVC,None,None,None,24000.00,M,M,M,M,KDCA 020952Z 06004KT 10SM OVC240 02/M01 A3004 RMK AO2 SLP170 T00171011 $,
DCA,2014-01-02 10:52,35.06,30.02,81.65,50.00,4.00,0.00,30.02,1016.30,10.00,M,SCT,OVC,None,None,16000.00,24000.00,M,M,M,KDCA 021052Z 05004KT 10SM SCT160 OVC240 02/M01 A3002 RMK AO2 SLP163 T00171011 $,
DCA,2014-01-02 11:52,33.98,30.02,85.24,60.00,6.00,0.00,30.01,1016.00,10.00,M,FEW,OVC,None,None,15000.00,25000.00,M,M,M,KDCA 021152Z 06006KT 10SM FEW150 OVC250 01/M01 A3001 RMK AO2 SLP160 T00111011 10039 20011 56018,
DCA,2014-01-02 12:52,33.98,30.02,85.24,10.00,5.00,0.00,30.00,1015.60,10.00,M,FEW,OVC,None,None,1200.00,23000.00,M,M,M,KDCA 021252Z 01005KT 10SM FEW012 OVC230 01/M01 A3000 RMK AO2 SLP156 T00111011,
DCA,2014-01-02 13:20,35.60,30.20,80.51,40.00,7.00,0.00,29.99,M,7.00,M,SCT,OVC,None,None,700.00,23000.00,M,M,M,KDCA 021320Z 04007KT 7SM SCT007 OVC230 02/M01 A2999 RMK AO2,
DCA,2014-01-02 13:33,33.80,30.20,86.49,60.00,6.00,0.00,29.98,M,2.50,M,BKN,None,None,None,300.00,M,M,M,BR,KDCA 021333Z 06006KT 2 1/2SM BR BKN003 01/M01 A2998 RMK AO2,
DCA,2014-01-02 13:37,33.80,30.20,86.49,60.00,8.00,0.00,29.98,M,1.50,M,OVC,None,None,None,300.00,M,M,M,BR,KDCA 021337Z 06008KT 1 1/2SM R01/4000VP6000FT BR OVC003 01/M01 A2998 RMK AO2,
DCA,2014-01-02 13:52,33.98,30.92,88.42,30.00,7.00,0.00,29.97,1014.80,1.00,M,OVC,None,None,None,300.00,M,M,M,BR,KDCA 021352Z 03007KT 1SM R01/3500VP6000FT BR OVC003 01/M01 A2997 RMK AO2 SLP148 T00111006,
DCA,2014-01-02 14:27,35.60,32.00,86.59,40.00,6.00,0.00,29.97,M,2.00,M,OVC,None,None,None,300.00,M,M,M,BR,KDCA 021427Z 04006KT 2SM BR OVC003 02/00 A2997 RMK AO2 VIS S 1 1/2,
DCA,2014-01-02 14:52,35.06,32.00,88.47,60.00,5.00,0.00,29.97,1014.70,2.50,M,OVC,None,None,None,300.00,M,M,M,BR,KDCA 021452Z 06005KT 2 1/2SM BR OVC003 02/00 A2997 RMK AO2 SLP147 VIS N3 T00170000 56012,
DCA,2014-01-02 15:01,35.60,32.00,86.59,30.00,5.00,0.00,29.97,M,3.00,M,OVC,None,None,None,500.00,M,M,M,BR,KDCA 021501Z 03005KT 3SM BR OVC005 02/00 A2997 RMK AO2 VIS S 2 1/2,
DCA,2014-01-02 15:52,37.04,32.00,81.80,50.00,5.00,0.00,29.93,1013.60,4.00,M,OVC,None,None,None,500.00,M,M,M,HZ,KDCA 021552Z 05005KT 4SM HZ OVC005 03/00 A2993 RMK AO2 SLP136 T00280000,
DCA,2014-01-02 16:36,37.40,32.00,80.65,60.00,8.00,0.00,29.89,M,5.00,M,OVC,None,None,None,700.00,M,M,M,HZ,KDCA 021636Z 06008KT 5SM HZ OVC007 03/00 A2989 RMK AO2,
DCA,2014-01-02 16:45,37.40,32.00,80.65,60.00,7.00,0.00,29.88,M,5.00,M,OVC,None,None,None,900.00,M,M,M,HZ,KDCA 021645Z 06007KT 5SM HZ OVC009 03/00 A2988 RMK AO2,
DCA,2014-01-02 16:52,37.94,32.00,78.96,30.00,7.00,0.00,29.88,1011.60,5.00,M,OVC,None,None,None,900.00,M,M,M,HZ,KDCA 021652Z 03007KT 5SM HZ OVC009 03/00 A2988 RMK AO2 SLP116 T00330000,
DCA,2014-01-02 17:19,37.40,32.00,80.65,30.00,6.00,0.00,29.86,M,6.00,M,OVC,None,None,None,1100.00,M,M,M,HZ,KDCA 021719Z 03006KT 6SM HZ OVC011 03/00 A2986 RMK AO2,
DCA,2014-01-02 17:52,39.02,32.00,75.69,30.00,8.00,0.00,29.82,1009.80,6.00,M,BKN,OVC,None,None,1300.00,10000.00,M,M,HZ,KDCA 021752Z 03008KT 6SM HZ BKN013 OVC100 04/00 A2982 RMK AO2 SLP098 T00390000 10039 20011 58049,
DCA,2014-01-02 18:52,39.02,32.00,75.69,360.00,10.00,0.00,29.81,1009.40,7.00,M,OVC,None,None,None,1300.00,M,M,M,M,KDCA 021852Z 36010KT 7SM OVC013 04/00 A2981 RMK AO2 SLP094 T00390000,
DCA,2014-01-02 19:15,39.20,32.00,75.16,50.00,6.00,0.00,29.80,M,7.00,M,OVC,None,None,None,1500.00,M,M,M,M,KDCA 021915Z 05006KT 7SM OVC015 04/00 A2980 RMK AO2,
DCA,2014-01-02 19:52,39.02,32.00,75.69,60.00,7.00,0.00,29.78,1008.40,6.00,M,OVC,None,None,None,1500.00,M,M,M,HZ,KDCA 021952Z 06007KT 6SM HZ OVC015 04/00 A2978 RMK AO2 SLP084 T00390000,
DCA,2014-01-02 20:52,37.94,32.00,78.96,70.00,9.00,0.00,29.73,1006.80,6.00,M,BKN,OVC,None,None,1500.00,6000.00,M,M,-RA,KDCA 022052Z 07009KT 6SM -RA BKN015 OVC060 03/00 A2973 RMK AO2 RAB49 SLP068 P0000 60000 T00330000 58029,
DCA,2014-01-02 20:59,37.40,32.00,80.65,70.00,11.00,0.00,29.73,M,6.00,M,BKN,OVC,None,None,1300.00,6000.00,M,M,-RA,KDCA 022059Z 07011KT 6SM -RA BKN013 OVC060 03/00 A2973 RMK AO2 P0000,
DCA,2014-01-02 21:29,37.40,32.00,80.65,80.00,8.00,0.00,29.73,M,4.00,M,OVC,None,None,None,1100.00,M,M,M,-RA,KDCA 022129Z 08008KT 4SM -RA OVC011 03/00 A2973 RMK AO2 P0000,
DCA,2014-01-02 21:52,37.94,33.08,82.46,70.00,6.00,0.01,29.71,1006.00,4.00,M,OVC,None,None,None,900.00,M,M,M,-RASN,KDCA 022152Z 07006KT 4SM -RASN OVC009 03/01 A2971 RMK AO2 SNB52 SLP060 P0001 T00330006,
DCA,2014-01-02 22:40,37.40,33.80,86.69,30.00,7.00,0.01,29.69,M,4.00,M,OVC,None,None,None,700.00,M,M,M,-RASN BR,KDCA 022240Z 03007KT 4SM -RASN BR OVC007 03/01 A2969 RMK AO2 P0001,
DCA,2014-01-02 22:52,37.04,33.08,85.43,30.00,6.00,0.01,29.70,1005.60,4.00,M,OVC,None,None,None,700.00,M,M,M,-RASN BR,KDCA 022252Z 03006KT 4SM -RASN BR OVC007 03/01 A2970 RMK AO2 SLP056 P0001 T00280006,
DCA,2014-01-02 23:11,35.60,32.00,86.59,20.00,8.00,0.01,29.69,M,3.00,M,OVC,None,None,None,700.00,M,M,M,-SN BR,KDCA 022311Z 02008KT 3SM -SN BR OVC007 02/00 A2969 RMK AO2 RAE11 P0001,
DCA,2014-01-02 23:19,35.60,32.00,86.59,10.00,6.00,0.02,29.69,M,2.50,M,OVC,None,None,None,700.00,M,M,M,-SN BR,KDCA 022319Z 01006KT 2 1/2SM -SN BR OVC007 02/00 A2969 RMK AO2 RAE11 P0002,
DCA,2014-01-02 23:30,35.60,30.20,80.51,20.00,8.00,0.03,29.69,M,1.75,M,OVC,None,None,None,700.00,M,M,M,-SN BR,KDCA 022330Z 02008KT 1 3/4SM -SN BR OVC007 02/M01 A2969 RMK AO2 RAE11 P0003,
DCA,2014-01-02 23:52,33.98,30.92,88.42,20.00,6.00,0.06,29.68,1005.00,1.00,M,OVC,None,None,None,700.00,M,M,M,-SN BR,KDCA 022352Z 02006KT 1SM R01/P6000FT -SN BR OVC007 01/M01 A2968 RMK AO2 RAE11 SLP050 P0006 60008 T00111006 10039 20011 56019,
DCA,2014-01-03 00:17,33.80,30.20,86.49,360.00,4.00,0.04,29.69,M,1.00,M,OVC,None,None,None,500.00,M,M,M,-SN BR,KDCA 030017Z 36004KT 1SM R01/5500VP6000FT -SN BR OVC005 01/M01 A2969 RMK AO2 P0004,
DCA,2014-01-03 00:43,33.80,30.20,86.49,10.00,6.00,0.07,29.68,M,0.50,M,OVC,None,None,None,500.00,M,M,M,SN FG,KDCA 030043Z 01006KT 1/2SM R01/5500VP6000FT SN FG OVC005 01/M01 A2968 RMK AO2 P0007,
DCA,2014-01-03 00:52,33.98,30.92,88.42,20.00,8.00,0.09,29.67,1004.70,0.50,M,OVC,None,None,None,500.00,M,M,M,SN FG,KDCA 030052Z 02008KT 1/2SM R01/P6000FT SN FG OVC005 01/M01 A2967 RMK AO2 SLP047 P0009 T00111006,
DCA,2014-01-03 01:13,33.80,30.20,86.49,20.00,6.00,0.02,29.67,M,0.50,M,BKN,OVC,None,None,500.00,1000.00,M,M,SN FG,KDCA 030113Z 02006KT 1/2SM R01/P6000FT SN FG BKN005 OVC010 01/M01 A2967 RMK AO2 P0002,
DCA,2014-01-03 01:22,33.80,30.20,86.49,20.00,6.00,0.03,29.66,M,1.00,M,BKN,BKN,OVC,None,500.00,1000.00,2100.00,M,-SN BR,KDCA 030122Z 02006KT 1SM R01/P6000FT -SN BR BKN005 BKN010 OVC021 01/M01 A2966 RMK AO2 P0003,
DCA,2014-01-03 01:39,33.80,30.20,86.49,10.00,8.00,0.04,29.66,M,0.75,M,BKN,OVC,None,None,500.00,1200.00,M,M,-SN BR,KDCA 030139Z 01008KT 3/4SM R01/P6000FT -SN BR BKN005 OVC012 01/M01 A2966 RMK AO2 P0004,
DCA,2014-01-03 01:52,33.98,30.92,88.42,20.00,8.00,0.05,29.66,1004.40,0.75,M,BKN,OVC,None,None,500.00,1200.00,M,M,-SN BR,KDCA 030152Z 02008KT 3/4SM R01/P6000FT -SN BR BKN005 OVC012 01/M01 A2966 RMK AO2 SLP044 P0005 T00111006,
DCA,2014-01-03 02:35,33.80,30.20,86.49,30.00,10.00,0.04,29.64,M,1.25,M,SCT,OVC,None,None,500.00,1400.00,M,M,-SN BR,KDCA 030235Z 03010KT 1 1/4SM -SN BR SCT005 OVC014 01/M01 A2964 RMK AO2 P0004,
DCA,2014-01-03 02:46,33.80,30.20,86.49,40.00,11.00,0.05,29.64,M,1.25,M,BKN,OVC,None,None,500.00,1400.00,M,M,-SN BR,KDCA 030246Z 04011KT 1 1/4SM -SN BR BKN005 OVC014 01/M01 A2964 RMK AO2 P0005,
DCA,2014-01-03 02:52,33.08,30.02,88.37,30.00,8.00,0.05,29.64,1003.60,1.00,M,BKN,OVC,None,None,500.00,1400.00,M,M,-SN BR,KDCA 030252Z 03008KT 1SM R01/P6000FT -SN BR BKN005 OVC014 01/M01 A2964 RMK AO2 SLP036 P0005 60019 T00061011 56011,
DCA,2014-01-03 03:23,33.80,28.40,80.36,30.00,10.00,0.02,29.64,M,1.25,M,SCT,OVC,None,None,700.00,1400.00,M,M,-SN BR,KDCA 030323Z 03010KT 1 1/4SM -SN BR SCT007 OVC014 01/M02 A2964 RMK AO2 P0002,
DCA,2014-01-03 03:52,33.08,28.94,84.56,10.00,8.00,0.05,29.65,1003.90,1.00,M,SCT,OVC,None,None,700.00,1200.00,M,M,-SN BR,KDCA 030352Z 01008KT 1SM R01/P6000FT -SN BR SCT007 OVC012 01/M02 A2965 RMK AO2 SLP039 P0005 T00061017,
DCA,2014-01-03 04:10,33.80,28.40,80.36,10.00,10.00,0.00,29.65,M,2.00,M,BKN,OVC,None,None,700.00,1200.00,M,M,-SN BR,KDCA 030410Z 01010KT 2SM -SN BR BKN007 OVC012 01/M02 A2965 RMK AO2 P0000,
DCA,2014-01-03 04:23,33.80,28.40,80.36,360.00,8.00,0.01,29.64,M,1.50,M,BKN,OVC,None,None,700.00,1200.00,M,M,-SN BR,KDCA 030423Z 36008KT 1 1/2SM -SN BR BKN007 OVC012 01/M02 A2964 RMK AO2 P0001,
DCA,2014-01-03 04:44,33.80,30.20,86.49,350.00,9.00,0.02,29.65,M,2.00,M,BKN,OVC,None,None,700.00,1400.00,M,M,-SN BR,KDCA 030444Z 35009KT 2SM -SN BR BKN007 OVC014 01/M01 A2965 RMK AO2 P0002,
DCA,2014-01-03 04:52,33.08,30.02,88.37,340.00,9.00,0.02,29.65,1004.10,4.00,M,BKN,OVC,None,None,700.00,1200.00,M,M,-SN BR,KDCA 030452Z 34009KT 4SM -SN BR BKN007 OVC012 01/M01 A2965 RMK AO2 SLP041 P0002 T00061011 400390006,
DCA,2014-01-03 04:58,33.80,28.40,80.36,350.00,13.00,0.00,29.65,M,7.00,19.00,FEW,BKN,OVC,None,500.00,1000.00,3200.00,M,M,KDCA 030458Z 35013G19KT 7SM FEW005 BKN010 OVC032 01/M02 A2965 RMK AO2 SNE56 P0000,
DCA,2014-01-03 05:09,33.80,28.40,80.36,350.00,13.00,0.00,29.65,M,8.00,M,SCT,BKN,OVC,None,1000.00,1700.00,3000.00,M,M,KDCA 030509Z 35013KT 8SM SCT010 BKN017 OVC030 01/M02 A2965 RMK AO2 SNE0456 P0000,
DCA,2014-01-03 05:21,33.80,26.60,74.63,350.00,12.00,0.00,29.65,M,8.00,M,FEW,BKN,OVC,None,800.00,2500.00,3000.00,M,-SN,KDCA 030521Z 35012KT 8SM -SN FEW008 BKN025 OVC030 01/M03 A2965 RMK AO2 SNE0456B19 P0000,
DCA,2014-01-03 05:33,32.00,28.40,86.39,340.00,13.00,0.00,29.65,M,7.00,M,BKN,BKN,OVC,None,1200.00,1900.00,2300.00,M,-SN,KDCA 030533Z 34013KT 7SM -SN BKN012 BKN019 OVC023 00/M02 A2965 RMK AO2 SNE0456B19 P0000,
DCA,2014-01-03 05:52,30.92,26.06,81.95,330.00,16.00,0.00,29.65,1004.00,6.00,M,BKN,OVC,None,None,1200.00,2400.00,M,M,-SN,KDCA 030552Z 33016KT 6SM -SN BKN012 OVC024 M01/M03 A2965 RMK AO2 SNE0456B19 SLP040 4/002 P0000 60026 T10061033 10011 21006 51004,
DCA,2014-01-03 06:13,30.20,24.80,80.07,330.00,13.00,0.00,29.67,M,7.00,21.00,SCT,BKN,OVC,None,1400.00,1900.00,2500.00,M,-SN,KDCA 030613Z 33013G21KT 7SM -SN SCT014 BKN019 OVC025 M01/M04 A2967 RMK AO2 P0000,
DCA,2014-01-03 06:31,28.40,23.00,79.92,350.00,17.00,0.00,29.70,M,2.00,26.00,FEW,BKN,OVC,None,1600.00,2500.00,3100.00,M,-SN,KDCA 030631Z 35017G26KT 2SM -SN FEW016 BKN025 OVC031 M02/M05 A2970 RMK AO2 PK WND 33026/0622 PRESRR P0000,
DCA,2014-01-03 06:34,28.40,23.00,79.92,340.00,17.00,0.00,29.70,M,1.75,M,FEW,BKN,OVC,None,1400.00,2500.00,3100.00,M,-SN,KDCA 030634Z 34017KT 1 3/4SM -SN FEW014 BKN025 OVC031 M02/M05 A2970 RMK AO2 PK WND 33026/0622 P0000,
DCA,2014-01-03 06:52,28.94,23.00,78.18,350.00,18.00,0.00,29.72,1006.30,4.00,26.00,FEW,SCT,OVC,None,1000.00,1500.00,2900.00,M,-SN,KDCA 030652Z 35018G26KT 4SM -SN FEW010 SCT015 OVC029 M02/M05 A2972 RMK AO2 PK WND 34026/0645 PRESRR SLP063 P0000 T10171050,
DCA,2014-01-03 07:52,28.04,21.92,77.50,330.00,13.00,0.00,29.76,1007.60,4.00,M,SCT,OVC,None,None,2100.00,2900.00,M,M,-SN,KDCA 030752Z 33013KT 4SM -SN SCT021 OVC029 M02/M06 A2976 RMK AO2 PK WND 35027/0658 SLP076 P0000 T10221056,
DCA,2014-01-03 08:21,26.60,19.40,73.89,330.00,27.00,0.00,29.78,M,5.00,37.00,FEW,SCT,OVC,None,1500.00,2000.00,2600.00,M,BLSN,KDCA 030821Z 33027G37KT 5SM R01/6000FT BLSN FEW015 SCT020 OVC026 M03/M07 A2978 RMK AO2 PK WND 32037/0817 SNE18 P0000,
DCA,2014-01-03 08:45,24.80,17.60,73.70,330.00,24.00,0.00,29.81,M,6.00,40.00,BKN,OVC,None,None,3000.00,3800.00,M,M,BLSN,KDCA 030845Z 33024G40KT 6SM BLSN BKN030 OVC038 M04/M08 A2981 RMK AO2 PK WND 33040/0836 SNE18 PRESRR P0000,
DCA,2014-01-03 08:52,24.98,15.98,68.20,330.00,27.00,0.00,29.82,1009.60,7.00,36.00,BKN,OVC,None,None,3300.00,4200.00,M,M,M,KDCA 030852Z 33027G36KT 7SM BKN033 OVC042 M04/M09 A2982 RMK AO2 PK WND 33040/0836 SNE18 PRESRR SLP096 LCL DRSN P0000 60000 T10391089 51055,
DCA,2014-01-03 09:52,21.92,12.92,67.82,320.00,23.00,0.00,29.90,1012.30,5.00,29.00,BKN,OVC,None,None,3000.00,4400.00,M,M,-SN,KDCA 030952Z 32023G29KT 5SM -SN BKN030 OVC044 M06/M11 A2990 RMK AO2 PK WND 32033/0930 SNB39 PRESRR SLP123 LCL DRSN P0000 T10561106,
DCA,2014-01-03 10:52,19.94,8.96,61.85,330.00,22.00,0.00,29.99,1015.30,9.00,36.00,OVC,None,None,None,3500.00,M,M,M,M,KDCA 031052Z 33022G36KT 9SM OVC035 M07/M13 A2999 RMK AO2 PK WND 32037/1039 SNE36 SLP153 LCL DRSN P0000 T10671128,
DCA,2014-01-03 11:17,19.40,6.80,57.41,330.00,20.00,0.00,30.01,M,10.00,39.00,SCT,SCT,None,None,3700.00,10000.00,M,M,M,KDCA 031117Z 33020G39KT 10SM SCT037 SCT100 M07/M14 A3001 RMK AO2 PK WND 34039/1109 LCL DRSN,
DCA,2014-01-03 11:52,19.04,6.08,56.43,340.00,23.00,0.00,30.05,1017.60,10.00,35.00,SCT,SCT,None,None,3500.00,10000.00,M,M,M,KDCA 031152Z 34023G35KT 10SM SCT035 SCT100 M07/M14 A3005 RMK AO2 PK WND 34039/1109 SLP176 4/002 LCL DRSN 60000 70034 T10721144 11006 21072 51080,
DCA,2014-01-03 12:52,17.96,6.08,59.10,330.00,16.00,0.00,30.12,1019.80,10.00,22.00,FEW,SCT,None,None,2500.00,9000.00,M,M,M,KDCA 031252Z 33016G22KT 10SM FEW025 SCT090 M08/M14 A3012 RMK AO2 PK WND 34029/1154 SLP198 T10781144,
DCA,2014-01-03 13:52,19.04,5.00,53.71,330.00,16.00,0.00,30.19,1022.10,10.00,26.00,FEW,SCT,None,None,2800.00,11000.00,M,M,M,KDCA 031352Z 33016G26KT 10SM FEW028 SCT110 M07/M15 A3019 RMK AO2 PK WND 34033/1322 PRESRR SLP221 T10721150,
DCA,2014-01-03 14:52,19.04,3.02,49.03,320.00,22.00,0.00,30.24,1024.00,10.00,35.00,FEW,None,None,None,3000.00,M,M,M,M,KDCA 031452Z 32022G35KT 10SM FEW030 M07/M16 A3024 RMK AO2 PK WND 34035/1448 SLP240 T10721161 51064,
DCA,2014-01-03 15:52,19.94,5.00,51.68,320.00,20.00,0.00,30.27,1024.80,10.00,27.00,FEW,None,None,None,3500.00,M,M,M,M,KDCA 031552Z 32020G27KT 10SM FEW035 M07/M15 A3027 RMK AO2 PK WND 34033/1507 SLP248 T10671150,
DCA,2014-01-03 16:52,21.92,3.92,45.22,330.00,21.00,0.00,30.28,1025.30,10.00,27.00,FEW,None,None,None,3500.00,M,M,M,M,KDCA 031652Z 33021G27KT 10SM FEW035 M06/M16 A3028 RMK AO2 PK WND 32029/1618 SLP253 T10561156,
DCA,2014-01-03 17:52,23.00,3.02,41.45,330.00,16.00,0.00,30.28,1025.40,10.00,25.00,FEW,None,None,None,4000.00,M,M,M,M,KDCA 031752Z 33016G25KT 10SM FEW040 M05/M16 A3028 RMK AO2 PK WND 32029/1737 SLP254 4/002 933002 T10501161 11050 21078 51014 $,
DCA,2014-01-03 18:52,23.00,1.94,39.43,320.00,17.00,0.00,30.31,1026.40,10.00,25.00,CLR,None,None,None,M,M,M,M,M,KDCA 031852Z 32017G25KT 10SM CLR M05/M17 A3031 RMK AO2 PK WND 34031/1840 SLP264 T10501167,
DCA,2014-01-03 19:52,24.08,1.04,36.14,320.00,13.00,0.00,30.35,1027.60,10.00,25.00,CLR,None,None,None,M,M,M,M,M,KDCA 031952Z 32013G25KT 10SM CLR M04/M17 A3035 RMK AO2 PK WND 34028/1912 SLP276 T10441172,
DCA,2014-01-03 20:52,23.00,1.94,39.43,330.00,11.00,0.00,30.37,1028.40,10.00,M,CLR,None,None,None,M,M,M,M,M,KDCA 032052Z 33011KT 10SM CLR M05/M17 A3037 RMK AO2 SLP284 T10501167 51030,
DCA,2014-01-03 21:52,23.00,1.04,37.81,330.00,6.00,0.00,30.41,1029.70,10.00,M,CLR,None,None,None,M,M,M,M,M,KDCA 032152Z 33006KT 10SM CLR M05/M17 A3041 RMK AO2 SLP297 T10501172,
DCA,2014-01-03 22:52,23.00,-0.04,35.95,330.00,8.00,0.00,30.44,1030.70,10.00,M,CLR,None,None,None,M,M,M,M,M,KDCA 032252Z 33008KT 10SM CLR M05/M18 A3044 RMK AO2 SLP307 T10501178,
DCA,2014-01-03 23:52,21.02,3.02,45.07,360.00,9.00,0.00,30.46,1031.40,10.00,M,CLR,None,None,None,M,M,M,M,M,KDCA 032352Z 36009KT 10SM CLR M06/M16 A3046 RMK AO2 SLP314 4/001 T10611161 11044 21061 51030,
DCA,2014-01-04 00:52,21.02,1.04,41.11,340.00,9.00,0.00,30.49,1032.40,10.00,M,SCT,None,None,None,25000.00,M,M,M,M,KDCA 040052Z 34009KT 10SM SCT250 M06/M17 A3049 RMK AO2 SLP324 T10611172,
DCA,2014-01-04 01:52,21.02,1.04,41.11,330.00,7.00,0.00,30.50,1032.70,10.00,M,CLR,None,None,None,M,M,M,M,M,KDCA 040152Z 33007KT 10SM CLR M06/M17 A3050 RMK AO2 SLP327 T10611172,
DCA,2014-01-04 02:52,19.94,1.04,43.04,340.00,7.00,0.00,30.51,1033.10,10.00,M,CLR,None,None,None,M,M,M,M,M,KDCA 040252Z 34007KT 10SM CLR M07/M17 A3051 RMK AO2 SLP331 T10671172 51017,
DCA,2014-01-04 03:52,19.94,1.04,43.04,340.00,5.00,0.00,30.52,1033.30,10.00,M,CLR,None,None,None,M,M,M,M,M,KDCA 040352Z 34005KT 10SM CLR M07/M17 A3052 RMK AO2 SLP333 T10671172,
DCA,2014-01-04 04:52,19.94,3.02,47.19,340.00,5.00,0.00,30.52,1033.30,10.00,M,CLR,None,None,None,M,M,M,M,M,KDCA 040452Z 34005KT 10SM CLR M07/M16 A3052 RMK AO2 SLP333 T10671161 400061078,
DCA,2014-01-04 05:52,19.94,1.04,43.04,0.00,0.00,0.00,30.51,1032.90,10.00,M,CLR,None,None,None,M,M,M,M,M,KDCA 040552Z 00000KT 10SM CLR M07/M17 A3051 RMK AO2 SLP329 4/001 T10671172 11056 21072 58002,
DCA,2014-01-04 06:52,19.04,3.02,49.03,0.00,0.00,0.00,30.52,1033.30,10.00,M,CLR,None,None,None,M,M,M,M,M,KDCA 040652Z 00000KT 10SM CLR M07/M16 A3052 RMK AO2 SLP333 T10721161,
DCA,2014-01-04 07:52,19.04,3.92,51.11,130.00,6.00,0.00,30.51,1032.90,10.00,M,CLR,None,None,None,M,M,M,M,M,KDCA 040752Z 13006KT 10SM CLR M07/M16 A3051 RMK AO2 SLP329 T10721156,
DCA,2014-01-04 08:52,19.94,1.94,44.88,140.00,5.00,0.00,30.51,1032.90,10.00,M,CLR,None,None,None,M,M,M,M,M,KDCA 040852Z 14005KT 10SM CLR M07/M17 A3051 RMK AO2 SLP329 T10671167 51000,
DCA,2014-01-04 09:52,17.06,6.08,61.44,0.00,0.00,0.00,30.51,1032.90,10.00,M,CLR,None,None,None,M,M,M,M,M,KDCA 040952Z 00000KT 10SM CLR M08/M14 A3051 RMK AO2 SLP329 T10831144,
DCA,2014-01-04 10:52,17.06,6.08,61.44,230.00,4.00,0.00,30.53,1033.60,10.00,M,CLR,None,None,None,M,M,M,M,M,KDCA 041052Z 23004KT 10SM CLR M08/M14 A3053 RMK AO2 SLP336 T10831144,
DCA,2014-01-04 11:52,17.96,6.98,61.57,210.00,4.00,0.00,30.54,1034.00,10.00,M,FEW,None,None,None,25000.00,M,M,M,M,KDCA 041152Z 21004KT 10SM FEW250 M08/M14 A3054 RMK AO2 SLP340 4/001 T10781139 11061 21083 53010,
DCA,2014-01-04 12:52,19.04,5.00,53.71,240.00,5.00,0.00,30.55,1034.40,10.00,M,CLR,None,None,None,M,M,M,M,M,KDCA 041252Z 24005KT 10SM CLR M07/M15 A3055 RMK AO2 SLP344 T10721150,
DCA,2014-01-04 13:52,19.94,8.06,59.40,220.00,6.00,0.00,30.55,1034.30,10.00,M,CLR,None,None,None,M,M,M,M,M,KDCA 041352Z 22006KT 10SM CLR M07/M13 A3055 RMK AO2 SLP343 T10671133,
DCA,2014-01-04 14:52,24.08,10.04,54.51,190.00,8.00,0.00,30.54,1033.90,10.00,M,CLR,None,None,None,M,M,M,M,M,KDCA 041452Z 19008KT 10SM CLR M04/M12 A3054 RMK AO2 SLP339 T10441122 58001,
DCA,2014-01-04 15:52,26.06,12.02,54.82,200.00,9.00,0.00,30.50,1032.80,10.00,M,CLR,None,None,None,M,M,M,M,M,KDCA 041552Z 20009KT 10SM CLR M03/M11 A3050 RMK AO2 SLP328 T10331111,
DCA,2014-01-04 16:52,28.04,12.02,50.52,210.00,12.00,0.00,30.46,1031.20,10.00,M,FEW,None,None,None,25000.00,M,M,M,M,KDCA 041652Z 21012KT 10SM FEW250 M02/M11 A3046 RMK AO2 SLP312 T10221111,
DCA,2014-01-04 17:52,30.02,12.92,48.48,200.00,11.00,0.00,30.42,1029.90,10.00,M,FEW,None,None,None,25000.00,M,M,M,M,KDCA 041752Z 20011KT 10SM FEW250 M01/M11 A3042 RMK AO2 SLP299 4/001 933002 T10111106 11011 21083 58040,
DCA,2014-01-04 18:52,32.00,12.20,43.34,210.00,11.00,0.00,30.42,M,10.00,M,SCT,None,None,None,25000.00,M,M,M,M,KDCA 041852Z 21011KT 10SM SCT250 00/M11 A3042,
DCA,2014-01-04 19:06,32.00,12.20,43.34,190.00,8.00,0.00,30.40,M,10.00,M,SCT,None,None,None,25000.00,M,M,M,M,KDCA 041906Z 19008KT 10SM SCT250 00/M11 A3040 RMK AO2 $,
DCA,2014-01-04 19:52,33.08,15.08,47.10,180.00,9.00,0.00,30.38,1028.60,10.00,M,SCT,None,None,None,25000.00,M,M,M,M,KDCA 041952Z 18009KT 10SM SCT250 01/M09 A3038 RMK AO2 SLP286 T00061094 $,
DCA,2014-01-04 20:52,33.98,15.08,45.43,180.00,11.00,0.00,30.38,1028.60,10.00,M,SCT,None,None,None,25000.00,M,M,M,M,KDCA 042052Z 18011KT 10SM SCT250 01/M09 A3038 RMK AO2 SLP286 T00111094,
DCA,2014-01-04 21:52,33.98,15.98,47.25,180.00,10.00,0.00,30.36,1027.90,10.00,M,SCT,None,None,None,25000.00,M,M,M,M,KDCA 042152Z 18010KT 10SM SCT250 01/M09 A3036 RMK AO2 SLP279 T00111089,
DCA,2014-01-04 22:52,33.08,17.06,51.33,170.00,8.00,0.00,30.34,1027.20,10.00,M,SCT,None,None,None,25000.00,M,M,M,M,KDCA 042252Z 17008KT 10SM SCT250 01/M08 A3034 RMK AO2 SLP272 T00061083,
DCA,2014-01-04 23:52,33.08,17.06,51.33,190.00,7.00,0.00,30.34,1027.20,10.00,M,FEW,None,None,None,25000.00,M,M,M,M,KDCA 042352Z 19007KT 10SM FEW250 01/M08 A3034 RMK AO2 SLP272 4/001 T00061083 10011 21022 56014,
DCA,2014-01-05 00:52,30.02,17.06,58.08,200.00,6.00,0.00,30.33,1027.10,10.00,M,FEW,None,None,None,25000.00,M,M,M,M,KDCA 050052Z 20006KT 10SM FEW250 M01/M08 A3033 RMK AO2 SLP271 T10111083,
DCA,2014-01-05 01:52,32.00,14.00,46.92,230.00,4.00,0.00,30.33,1027.00,10.00,M,SCT,None,None,None,25000.00,M,M,M,M,KDCA 050152Z 23004KT 10SM SCT250 00/M10 A3033 RMK AO2 SLP270 T00001100,
DCA,2014-01-05 02:52,32.00,15.98,51.15,200.00,9.00,0.00,30.32,1026.50,10.00,M,CLR,None,None,None,M,M,M,M,M,KDCA 050252Z 20009KT 10SM CLR 00/M09 A3032 RMK AO2 SLP265 T00001089 58007,
DCA,2014-01-05 03:52,32.00,15.98,51.15,0.00,0.00,0.00,30.29,1025.80,10.00,M,FEW,None,None,None,20000.00,M,M,M,M,KDCA 050352Z 00000KT 10SM FEW200 00/M09 A3029 RMK AO2 SLP258 T00001089,
DCA,2014-01-05 04:52,32.00,17.96,55.72,200.00,8.00,0.00,30.28,1025.30,10.00,M,SCT,None,None,None,4000.00,M,M,M,M,KDCA 050452Z 20008KT 10SM SCT040 00/M08 A3028 RMK AO2 SLP253 T00001078 400111083,
DCA,2014-01-05 05:34,32.00,19.40,59.27,200.00,7.00,0.00,30.28,M,10.00,M,SCT,BKN,BKN,None,2600.00,3100.00,22000.00,M,M,KDCA 050534Z 20007KT 10SM SCT026 BKN031 BKN220 00/M07 A3028 RMK AO2,
DCA,2014-01-05 05:40,33.80,19.40,55.14,200.00,9.00,0.00,30.28,M,10.00,M,BKN,BKN,None,None,2600.00,4200.00,M,M,M,KDCA 050540Z 20009KT 10SM BKN026 BKN042 01/M07 A3028 RMK AO2,
DCA,2014-01-05 05:52,33.98,19.94,56.02,190.00,10.00,0.00,30.27,1025.00,10.00,M,BKN,BKN,None,None,2600.00,4200.00,M,M,M,KDCA 050552Z 19010KT 10SM BKN026 BKN042 01/M07 A3027 RMK AO2 SLP250 4/001 T00111067 10011 21017 56015,
DCA,2014-01-05 06:52,35.06,21.92,58.37,210.00,5.00,0.00,30.28,M,10.00,M,OVC,None,None,None,2300.00,M,M,M,M,KDCA 050652Z 21005KT 10SM OVC023 02/M06 A3028 RMK AO2 SLPNO T00171056,
DCA,2014-01-05 07:52,35.96,24.08,61.67,190.00,6.00,0.00,30.28,1025.30,10.00,M,OVC,None,None,None,2100.00,M,M,M,M,KDCA 050752Z 19006KT 10SM OVC021 02/M04 A3028 RMK AO2 SLP253 T00221044,
DCA,2014-01-05 08:52,35.96,24.08,61.67,230.00,3.00,0.00,30.27,1025.00,10.00,M,OVC,None,None,None,2100.00,M,M,M,M,KDCA 050852Z 23003KT 10SM OVC021 02/M04 A3027 RMK AO2 SLP250 T00221044 50000,
DCA,2014-01-05 09:29,37.40,24.80,60.04,170.00,5.00,0.00,30.26,M,10.00,M,SCT,OVC,None,None,2300.00,3200.00,M,M,M,KDCA 050929Z 17005KT 10SM SCT023 OVC032 03/M04 A3026 RMK AO2,
DCA,2014-01-05 09:52,35.96,24.98,64.03,230.00,5.00,0.00,30.27,1025.00,10.00,M,SCT,OVC,None,None,2300.00,3400.00,M,M,M,KDCA 050952Z 23005KT 10SM SCT023 OVC034 02/M04 A3027 RMK AO2 SLP250 T00221039,
DCA,2014-01-05 10:00,37.40,24.80,60.04,240.00,3.00,0.00,30.27,M,10.00,M,BKN,OVC,None,None,2500.00,3400.00,M,M,M,KDCA 051000Z 24003KT 10SM BKN025 OVC034 03/M04 A3027 RMK AO2,
DCA,2014-01-05 10:52,35.96,26.96,69.51,200.00,3.00,0.00,30.25,1024.30,10.00,M,SCT,OVC,None,None,2300.00,3000.00,M,M,M,KDCA 051052Z 20003KT 10SM SCT023 OVC030 02/M03 A3025 RMK AO2 SLP243 T00221028,
DCA,2014-01-05 11:52,35.96,28.04,72.66,210.00,3.00,0.00,30.25,1024.30,10.00,M,FEW,OVC,None,None,2500.00,3200.00,M,M,M,KDCA 051152Z 21003KT 10SM FEW025 OVC032 02/M02 A3025 RMK AO2 SLP243 4/001 T00221022 10028 20011 58007,
DCA,2014-01-05 12:52,37.04,28.04,69.63,0.00,0.00,0.00,30.26,1024.60,10.00,M,SCT,OVC,None,None,2000.00,3500.00,M,M,-RA,KDCA 051252Z 00000KT 10SM -RA SCT020 OVC035 03/M02 A3026 RMK AO2 RAB04E14B42 SLP246 P0000 T00281022 $,
DCA,2014-01-05 13:52,35.96,30.02,78.79,0.00,0.00,0.03,30.26,1024.60,10.00,M,FEW,BKN,OVC,None,2000.00,3500.00,5500.00,M,-RA,KDCA 051352Z 00000KT 10SM -RA FEW020 BKN035 OVC055 02/M01 A3026 RMK AO2 SLP246 P0003 T00221011,
DCA,2014-01-05 14:52,37.04,32.00,81.80,0.00,0.00,0.04,30.24,1024.10,4.00,M,SCT,OVC,None,None,2000.00,3500.00,M,M,-RA,KDCA 051452Z 00000KT 4SM -RA SCT020 OVC035 03/00 A3024 RMK AO2 SLP241 P0004 60007 T00280000 58002,
DCA,2014-01-05 15:43,37.40,32.00,80.65,0.00,0.00,0.00,30.22,M,6.00,M,OVC,None,None,None,1600.00,M,M,M,-RA,KDCA 051543Z 00000KT 6SM -RA OVC016 03/00 A3022 RMK AO2 RAE01B22 P0000,
DCA,2014-01-05 15:52,37.04,33.08,85.43,0.00,0.00,0.00,30.22,1023.10,6.00,M,OVC,None,None,None,1600.00,M,M,M,-RA BR,KDCA 051552Z 00000KT 6SM -RA BR OVC016 03/01 A3022 RMK AO2 RAE01B22 SLP231 P0000 T00280006,
DCA,2014-01-05 16:52,37.94,33.98,85.49,30.00,4.00,0.00,30.16,1021.20,7.00,M,OVC,None,None,None,1600.00,M,M,M,M,KDCA 051652Z 03004KT 7SM OVC016 03/01 A3016 RMK AO2 RAE09 SLP212 P0000 T00330011,
DCA,2014-01-05 17:38,37.40,33.80,86.69,350.00,4.00,0.00,30.14,M,6.00,M,SCT,OVC,None,None,700.00,2000.00,M,M,-RA BR,KDCA 051738Z 35004KT 6SM -RA BR SCT007 OVC020 03/01 A3014 RMK AO2 RAB38 P0000,
DCA,2014-01-05 17:52,37.94,33.98,85.49,360.00,3.00,0.00,30.14,1020.40,6.00,M,SCT,OVC,None,None,700.00,2000.00,M,M,-RA BR,KDCA 051752Z 36003KT 6SM -RA BR SCT007 OVC020 03/01 A3014 RMK AO2 RAB38 SLP204 P0000 60007 T00330011 10033 20022 56037,
DCA,2014-01-05 18:40,39.20,35.60,86.79,40.00,4.00,0.00,30.11,M,6.00,M,BKN,OVC,None,None,700.00,2000.00,M,M,BR,KDCA 051840Z 04004KT 6SM BR BKN007 OVC020 04/02 A3011 RMK AO2 RAE40 P0000,
DCA,2014-01-05 18:52,39.92,35.06,82.60,20.00,3.00,0.00,30.10,1019.30,6.00,M,BKN,OVC,None,None,700.00,2000.00,M,M,HZ,KDCA 051852Z 02003KT 6SM HZ BKN007 OVC020 04/02 A3010 RMK AO2 RAE40 SLP193 P0000 T00440017,
DCA,2014-01-05 19:22,39.20,35.60,86.79,30.00,4.00,0.00,30.09,M,5.00,M,SCT,OVC,None,None,800.00,2200.00,M,M,HZ,KDCA 051922Z 03004KT 5SM HZ SCT008 OVC022 04/02 A3009,
DCA,2014-01-05 19:37,39.20,35.60,86.79,10.00,5.00,0.00,30.09,M,4.00,M,BKN,OVC,None,None,800.00,2200.00,M,M,-DZ,KDCA 051937Z 01005KT 4SM -DZ BKN008 OVC022 04/02 A3009 RMK AO2 DZB37 P0000,
DCA,2014-01-05 19:40,39.20,35.60,86.79,360.00,4.00,0.00,30.10,M,4.00,M,SCT,OVC,None,None,800.00,2200.00,M,M,-DZ,KDCA 051940Z 36004KT 4SM -DZ SCT008 OVC022 04/02 A3010 RMK AO2 DZB37 P0000,
DCA,2014-01-05 19:52,39.92,35.06,82.60,30.00,5.00,0.00,30.08,1018.50,4.00,M,SCT,OVC,None,None,800.00,2200.00,M,M,-DZ,KDCA 051952Z 03005KT 4SM -DZ SCT008 OVC022 04/02 A3008 RMK AO2 DZB37 SLP185 P0000 T00440017,
DCA,2014-01-05 20:11,39.20,35.60,86.79,50.00,6.00,0.00,30.07,M,4.00,M,SCT,SCT,OVC,None,600.00,2200.00,4500.00,M,-DZ BR,KDCA 052011Z 05006KT 4SM -DZ BR SCT006 SCT022 OVC045 04/02 A3007 RMK AO2 P0000,
DCA,2014-01-05 20:52,39.92,35.96,85.61,20.00,4.00,0.00,30.06,1017.80,4.00,M,FEW,BKN,OVC,None,600.00,4900.00,6000.00,M,BR,KDCA 052052Z 02004KT 4SM BR FEW006 BKN049 OVC060 04/02 A3006 RMK AO2 DZE50 SLP178 P0000 60000 T00440022 56026,
DCA,2014-01-05 21:52,37.94,33.98,85.49,40.00,8.00,0.00,30.02,1016.40,3.00,M,BKN,BKN,OVC,None,600.00,6500.00,10000.00,M,BR,KDCA 052152Z 04008KT 3SM BR BKN006 BKN065 OVC100 03/01 A3002 RMK AO2 PRESFR SLP164 T00330011 $,
DCA,2014-01-05 22:52,37.94,33.98,85.49,50.00,7.00,0.00,29.98,1015.20,3.00,M,SCT,OVC,None,None,600.00,5500.00,M,M,BR,KDCA 052252Z 05007KT 3SM BR SCT006 OVC055 03/01 A2998 RMK AO2 SLP152 T00330011 $,
DCA,2014-01-05 23:11,37.40,33.80,86.69,50.00,8.00,0.01,29.96,M,2.50,M,SCT,BKN,OVC,None,600.00,4500.00,5000.00,M,-RA BR,KDCA 052311Z 05008KT 2 1/2SM -RA BR SCT006 BKN045 OVC050 03/01 A2996 RMK AO2 RAB06 P0001 $,
DCA,2014-01-05 23:18,37.40,33.80,86.69,40.00,7.00,0.01,29.95,M,3.00,M,SCT,BKN,OVC,None,3000.00,3600.00,5000.00,M,-RA BR,KDCA 052318Z 04007KT 3SM -RA BR SCT030 BKN036 OVC050 03/01 A2995 RMK AO2 RAB06 P0001 $,
DCA,2014-01-05 23:32,37.40,35.60,93.14,40.00,5.00,0.01,29.94,M,3.00,M,BKN,BKN,OVC,None,2600.00,3400.00,4400.00,M,-RA BR,KDCA 052332Z 04005KT 3SM -RA BR BKN026 BKN034 OVC044 03/02 A2994 RMK AO2 RAB06 P0001 $,
DCA,2014-01-05 23:37,37.40,35.60,93.14,30.00,6.00,0.01,29.94,M,2.50,M,FEW,BKN,OVC,None,600.00,2600.00,3400.00,M,-RA BR,KDCA 052337Z 03006KT 2 1/2SM -RA BR FEW006 BKN026 OVC034 03/02 A2994 RMK AO2 RAB06 P0001 $,
DCA,2014-01-05 23:46,37.40,35.60,93.14,20.00,6.00,0.01,29.94,M,3.00,M,SCT,OVC,None,None,900.00,2600.00,M,M,-RA BR,KDCA 052346Z 02006KT 3SM -RA BR SCT009 OVC026 03/02 A2994 RMK AO2 RAB06 P0001 $,
DCA,2014-01-05 23:52,37.94,35.06,89.25,20.00,6.00,0.01,29.93,1013.60,3.00,M,BKN,OVC,None,None,900.00,2600.00,M,M,-RA BR,KDCA 052352Z 02006KT 3SM -RA BR BKN009 OVC026 03/02 A2993 RMK AO2 RAB06 SLP136 P0001 60001 T00330017 10044 20028 56028 $,
DCA,2014-01-06 00:00,37.40,35.60,93.14,30.00,6.00,0.01,29.93,M,4.00,M,BKN,OVC,None,None,700.00,2400.00,M,M,-RA BR,KDCA 060000Z 03006KT 4SM -RA BR BKN007 OVC024 03/02 A2993 RMK AO2 CIG 005V011 P0001 $,
DCA,2014-01-06 00:52,37.94,35.06,89.25,30.00,4.00,0.01,29.89,1012.00,4.00,M,OVC,None,None,None,500.00,M,M,M,BR,KDCA 060052Z 03004KT 4SM BR OVC005 03/02 A2989 RMK AO2 RAE02B38E50 SLP120 P0001 T00330017 $,
DCA,2014-01-06 01:52,41.00,37.94,88.76,330.00,3.00,0.00,29.84,1010.30,3.00,M,OVC,None,None,None,500.00,M,M,M,BR,KDCA 060152Z 33003KT 3SM BR OVC005 05/03 A2984 RMK AO2 SLP103 T00500033,
DCA,2014-01-06 02:06,41.00,37.40,86.89,20.00,3.00,0.00,29.82,M,2.50,M,OVC,None,None,None,500.00,M,M,M,-RA BR,KDCA 060206Z 02003KT 2 1/2SM -RA BR OVC005 05/03 A2982 RMK AO2 RAB05 P0000,
DCA,2014-01-06 02:20,41.00,37.40,86.89,290.00,9.00,0.01,29.82,M,3.00,M,OVC,None,None,None,500.00,M,M,M,BR,KDCA 060220Z 29009KT 3SM BR OVC005 05/03 A2982 RMK AO2 RAB05E17 P0001,
DCA,2014-01-06 02:52,41.00,39.02,92.59,0.00,0.00,0.01,29.80,1009.00,2.50,M,OVC,None,None,None,500.00,M,M,M,BR,KDCA 060252Z 00000KT 2 1/2SM BR OVC005 05/04 A2980 RMK AO2 RAB05E39 SLP090 P0001 60002 T00500039 56045,
DCA,2014-01-06 03:06,39.20,37.40,93.19,0.00,0.00,0.00,29.79,M,1.75,M,OVC,None,None,None,500.00,M,M,M,BR,KDCA 060306Z 00000KT 1 3/4SM BR OVC005 04/03 A2979 RMK AO2,
DCA,2014-01-06 03:42,39.20,37.40,93.19,0.00,0.00,0.01,29.76,M,0.75,M,OVC,None,None,None,300.00,M,M,M,BR,KDCA 060342Z 00000KT 3/4SM R01/3500VP6000FT BR OVC003 04/03 A2976 RMK AO2 RAB20E32 P0001,
DCA,2014-01-06 03:52,39.92,37.94,92.56,0.00,0.00,0.01,29.76,1007.60,1.00,M,VV ,None,None,None,300.00,M,M,M,BR,KDCA 060352Z 00000KT 1SM R01/4500VP6000FT BR VV003 04/03 A2976 RMK AO2 RAB20E32 SLP076 P0001 T00440033,
DCA,2014-01-06 04:19,41.00,39.20,93.24,240.00,8.00,0.00,29.76,M,0.50,M,VV ,None,None,None,200.00,M,M,M,-DZ FG,KDCA 060419Z 24008KT 1/2SM R01/3000VP6000FT -DZ FG VV002 05/04 A2976 RMK AO2 DZB19 P0000,
DCA,2014-01-06 04:52,41.00,39.02,92.59,180.00,7.00,0.00,29.73,1006.60,0.50,M,VV ,None,None,None,200.00,M,M,M,-DZ FG,KDCA 060452Z 18007KT 1/2SM R01/4000VP6000FT -DZ FG VV002 05/04 A2973 RMK AO2 DZB19 SLP066 P0000 T00500039 400561006,
DCA,2014-01-06 04:56,41.00,39.20,93.24,200.00,6.00,0.00,29.73,M,1.00,M,VV ,None,None,None,300.00,M,M,M,-DZ BR,KDCA 060456Z 20006KT 1SM R01/4000VP6000FT -DZ BR VV003 05/04 A2973 RMK AO2 VIS NE 1/2 P0000,
DCA,2014-01-06 05:25,39.20,37.40,93.19,200.00,7.00,0.00,29.72,M,0.25,M,VV ,None,None,None,200.00,M,M,M,FG,KDCA 060525Z 20007KT 1/4SM R01/3000V3500FT FG VV002 04/03 A2972 RMK AO2 DZE24 P0000,
DCA,2014-01-06 05:30,39.20,37.40,93.19,190.00,6.00,0.00,29.71,M,0.12,M,VV ,None,None,None,200.00,M,M,M,FG,KDCA 060530Z 19006KT 1/8SM R01/3000V4000FT FG VV002 04/03 A2971 RMK AO2 DZE24 P0000,
DCA,2014-01-06 05:52,39.92,37.94,92.56,170.00,8.00,0.00,29.69,1005.30,0.12,M,VV ,None,None,None,200.00,M,M,M,FG,KDCA 060552Z 17008KT 1/8SM R01/2400V3500FT FG VV002 04/03 A2969 RMK AO2 DZE24 SLP053 P0000 60003 T00440033 10056 20033 56037,
DCA,2014-01-06 06:07,42.80,39.20,86.99,180.00,8.00,0.00,29.67,M,0.12,M,VV ,None,None,None,200.00,M,M,M,FG,KDCA 060607Z 18008KT 1/8SM R01/1800V2200FT FG VV002 06/04 A2967 RMK AO2 PRESFR,
DCA,2014-01-06 06:21,42.80,39.20,86.99,190.00,7.00,0.00,29.66,M,0.12,M,VV ,None,None,None,200.00,M,M,M,FG,KDCA 060621Z 19007KT 1/8SM R01/1800V2400FT FG VV002 06/04 A2966 RMK AO2,
DCA,2014-01-06 06:44,44.60,42.80,93.35,210.00,8.00,0.00,29.66,M,5.00,M,OVC,None,None,None,400.00,M,M,M,BR,KDCA 060644Z 21008KT 5SM BR OVC004 07/06 A2966 RMK AO2,
DCA,2014-01-06 06:52,44.96,42.08,89.56,220.00,7.00,0.00,29.66,1004.40,7.00,M,OVC,None,None,None,400.00,M,M,M,M,KDCA 060652Z 22007KT 7SM OVC004 07/06 A2966 RMK AO2 SLP044 T00720056,
DCA,2014-01-06 07:02,44.60,42.80,93.35,200.00,8.00,0.00,29.66,M,7.00,M,BKN,OVC,None,None,600.00,1200.00,M,M,M,KDCA 060702Z 20008KT 7SM BKN006 OVC012 07/06 A2966 RMK AO2 CIG 003V008,
DCA,2014-01-06 07:26,44.60,41.00,87.09,170.00,7.00,0.00,29.63,M,6.00,M,SCT,OVC,None,None,600.00,1000.00,M,M,BR,KDCA 060726Z 17007KT 6SM BR SCT006 OVC010 07/05 A2963 RMK AO2 PRESFR $,
DCA,2014-01-06 07:52,42.98,41.00,92.65,180.00,8.00,0.00,29.61,1002.50,6.00,M,OVC,None,None,None,1000.00,M,M,M,BR,KDCA 060752Z 18008KT 6SM BR OVC010 06/05 A2961 RMK AO2 PRESFR SLP025 T00610050 $,
DCA,2014-01-06 08:43,44.60,42.80,93.35,190.00,5.00,0.00,29.56,M,6.00,M,BKN,OVC,None,None,500.00,1000.00,M,M,BR,KDCA 060843Z 19005KT 6SM BR BKN005 OVC010 07/06 A2956 RMK AO2 $,
DCA,2014-01-06 08:52,44.06,42.08,92.69,220.00,3.00,0.00,29.56,1001.00,6.00,M,OVC,None,None,None,500.00,M,M,M,BR,KDCA 060852Z 22003KT 6SM BR OVC005 07/06 A2956 RMK AO2 SLP010 T00670056 58043 $,
DCA,2014-01-06 09:29,46.40,42.80,87.19,180.00,3.00,0.00,29.54,M,2.50,M,VV ,None,None,None,300.00,M,M,M,-RA BR,KDCA 060929Z 18003KT 2 1/2SM -RA BR VV003 08/06 A2954 RMK AO2 RAB27 P0000 $,
DCA,2014-01-06 09:43,44.60,42.80,93.35,170.00,4.00,0.01,29.52,M,0.50,M,VV ,None,None,None,300.00,M,M,M,-RA FG,KDCA 060943Z 17004KT 1/2SM R01/2200VP6000FT -RA FG VV003 07/06 A2952 RMK AO2 RAB27 P0001 $,
DCA,2014-01-06 09:52,44.96,42.08,89.56,210.00,3.00,0.03,29.51,999.40,0.50,M,VV ,None,None,None,300.00,M,M,M,-RA FG,KDCA 060952Z 21003KT 1/2SM R01/2600V5000FT -RA FG VV003 07/06 A2951 RMK AO2 RAB27 SLP994 P0003 T00720056 $,
DCA,2014-01-06 09:58,44.60,42.80,93.35,M,6.00,0.00,29.51,M,1.25,M,VV ,None,None,None,300.00,M,M,M,-RA BR,KDCA 060958Z VRB06KT 1 1/4SM R01/4000VP6000FT -RA BR VV003 07/06 A2951 RMK AO2 P0000 $,
DCA,2014-01-06 10:05,44.60,42.80,93.35,M,4.00,0.04,29.51,M,3.00,M,BKN,OVC,None,None,300.00,1000.00,M,M,-RA BR,KDCA 061005Z VRB04KT 3SM R01/4500VP6000FT -RA BR BKN003 OVC010 07/06 A2951 RMK AO2 P0004 $,
DCA,2014-01-06 10:26,44.60,42.80,93.35,160.00,7.00,0.04,29.52,M,2.50,M,BKN,OVC,None,None,500.00,1000.00,M,M,-RA BR,KDCA 061026Z 16007KT 2 1/2SM R01/3000VP6000FT -RA BR BKN005 OVC010 07/06 A2952 RMK AO2 P0004 $,
DCA,2014-01-06 10:28,44.60,42.80,93.35,160.00,7.00,0.04,29.52,M,3.00,M,BKN,OVC,None,None,500.00,1000.00,M,M,-RA BR,KDCA 061028Z 16007KT 3SM R01/3000VP6000FT -RA BR BKN005 OVC010 07/06 A2952 RMK AO2 P0004 $,
DCA,2014-01-06 10:52,44.06,42.08,92.69,230.00,5.00,0.05,29.53,999.70,4.00,M,BKN,OVC,None,None,500.00,1200.00,M,M,-RA BR,KDCA 061052Z 23005KT 4SM -RA BR BKN005 OVC012 07/06 A2953 RMK AO2 SLP997 P0005 T00670056 $,
DCA,2014-01-06 11:11,46.40,44.60,93.40,220.00,5.00,0.01,29.53,M,4.00,M,SCT,OVC,None,None,700.00,1400.00,M,M,-RA BR,KDCA 061111Z 22005KT 4SM -RA BR SCT007 OVC014 08/07 A2953 RMK AO2 P0001 $,
DCA,2014-01-06 11:29,46.40,44.60,93.40,200.00,5.00,0.01,29.53,M,10.00,M,FEW,BKN,OVC,None,900.00,1600.00,6500.00,M,M,KDCA 061129Z 20005KT 10SM FEW009 BKN016 OVC065 08/07 A2953 RMK AO2 RAE18 P0001 $,
DCA,2014-01-06 11:52,46.94,44.06,89.65,210.00,5.00,0.01,29.54,1000.20,10.00,M,BKN,OVC,None,None,1500.00,6000.00,M,M,-RA,KDCA 061152Z 21005KT 10SM -RA BKN015 OVC060 08/07 A2954 RMK AO2 RAE18B47 SLP002 P0001 60009 70020 T00830067 10083 20044 55007,
DCA,2014-01-06 11:59,46.40,44.60,93.40,250.00,3.00,0.00,29.55,M,10.00,M,SCT,OVC,None,None,1500.00,5500.00,M,M,M,KDCA 061159Z 25003KT 10SM SCT015 OVC055 08/07 A2955 RMK AO2 RAE59 P0000,
DCA,2014-01-06 12:11,48.20,44.60,87.28,280.00,10.00,0.00,29.57,M,9.00,15.00,BKN,OVC,None,None,1500.00,5500.00,M,M,-RA,KDCA 061211Z 28010G15KT 9SM -RA BKN015 OVC055 09/07 A2957 RMK AO2 P0000,
DCA,2014-01-06 12:19,48.20,44.60,87.28,270.00,9.00,0.03,29.57,M,4.00,15.00,BKN,OVC,None,None,1300.00,5500.00,M,M,RA BR,KDCA 061219Z 27009G15KT 4SM RA BR BKN013 OVC055 09/07 A2957 RMK AO2 P0003,
DCA,2014-01-06 12:40,48.20,44.60,87.28,270.00,7.00,0.04,29.57,M,10.00,M,SCT,BKN,OVC,None,1300.00,2500.00,4500.00,M,M,KDCA 061240Z 27007KT 10SM SCT013 BKN025 OVC045 09/07 A2957 RMK AO2 RAE39 P0004,
DCA,2014-01-06 12:52,48.92,44.96,86.13,280.00,5.00,0.04,29.58,1001.50,10.00,M,BKN,BKN,OVC,None,1500.00,3300.00,5500.00,M,M,KDCA 061252Z 28005KT 10SM BKN015 BKN033 OVC055 09/07 A2958 RMK AO2 RAE39 SLP015 P0004 T00940072,
DCA,2014-01-06 13:07,48.20,44.60,87.28,300.00,4.00,0.00,29.58,M,10.00,M,BKN,BKN,OVC,None,1000.00,1500.00,5500.00,M,M,KDCA 061307Z 30004KT 10SM BKN010 BKN015 OVC055 09/07 A2958 RMK AO2 CIG 009V013,
DCA,2014-01-06 13:29,48.20,44.60,87.28,260.00,6.00,0.00,29.59,M,10.00,M,FEW,SCT,OVC,None,1000.00,1400.00,6000.00,M,M,KDCA 061329Z 26006KT 10SM FEW010 SCT014 OVC060 09/07 A2959 RMK AO2,
DCA,2014-01-06 13:52,48.02,44.06,86.08,290.00,5.00,0.00,29.61,1002.60,10.00,M,SCT,SCT,OVC,None,1200.00,1600.00,6000.00,M,M,KDCA 061352Z 29005KT 10SM SCT012 SCT016 OVC060 09/07 A2961 RMK AO2 SLP026 T00890067,
DCA,2014-01-06 14:35,42.80,33.80,70.28,300.00,21.00,0.00,29.66,M,8.00,27.00,FEW,BKN,OVC,None,1700.00,3500.00,6500.00,M,-RA,KDCA 061435Z 30021G27KT 8SM -RA FEW017 BKN035 OVC065 06/01 A2966 RMK AO2 PK WND 30027/1434 RAB15 PRESRR P0000,
DCA,2014-01-06 14:52,42.08,30.02,62.04,300.00,13.00,0.00,29.66,1004.40,8.00,22.00,FEW,BKN,OVC,None,1700.00,3500.00,5500.00,M,-RA,KDCA 061452Z 30013G22KT 8SM -RA FEW017 BKN035 OVC055 06/M01 A2966 RMK AO2 PK WND 29029/1440 RAB15 SLP044 P0000 60004 T00561011 53042,
DCA,2014-01-06 15:37,41.00,26.60,56.22,310.00,22.00,0.00,29.67,M,10.00,32.00,FEW,BKN,OVC,None,2500.00,4500.00,6000.00,M,M,KDCA 061537Z 31022G32KT 10SM FEW025 BKN045 OVC060 05/M03 A2967 RMK AO2 PK WND 30035/1503 RAE29 BINOVC W-N P0000,
DCA,2014-01-06 15:52,39.92,24.98,54.81,320.00,18.00,0.00,29.67,1004.70,10.00,35.00,FEW,BKN,OVC,None,2500.00,4500.00,6000.00,M,M,KDCA 061552Z 32018G35KT 10SM FEW025 BKN045 OVC060 04/M04 A2967 RMK AO2 PK WND 32035/1544 RAE29 SLP047 BINOVC W-N P0000 T00441039,
DCA,2014-01-06 16:52,39.92,24.08,52.79,290.00,13.00,0.00,29.67,1004.70,10.00,27.00,FEW,SCT,BKN,BKN,3000.00,6000.00,12000.00,25000.00,M,KDCA 061652Z 29013G27KT 10SM FEW030 SCT060 BKN120 BKN250 04/M04 A2967 RMK AO2 PK WND 31030/1611 SLP047 T00441044,
DCA,2014-01-06 17:52,39.92,21.92,48.21,320.00,18.00,0.00,29.67,1004.50,10.00,25.00,FEW,SCT,SCT,BKN,3500.00,6000.00,13000.00,25000.00,M,KDCA 061752Z 32018G25KT 10SM FEW035 SCT060 SCT130 BKN250 04/M06 A2967 RMK AO2 PK WND 30032/1701 SLP045 60004 T00441056 10094 20044 50001,
DCA,2014-01-06 18:52,39.02,19.04,44.18,290.00,15.00,0.00,29.69,1005.40,10.00,24.00,FEW,SCT,BKN,None,4000.00,9000.00,25000.00,M,M,KDCA 061852Z 29015G24KT 10SM FEW040 SCT090 BKN250 04/M07 A2969 RMK AO2 PK WND 32033/1820 SLP054 T00391072,
DCA,2014-01-06 19:52,39.02,15.08,37.23,310.00,22.00,0.00,29.71,1006.10,10.00,33.00,SCT,BKN,None,None,5000.00,25000.00,M,M,M,KDCA 061952Z 31022G33KT 10SM SCT050 BKN250 04/M09 A2971 RMK AO2 PK WND 33033/1952 SLP061 T00391094,
DCA,2014-01-06 20:52,37.04,14.00,38.38,320.00,15.00,0.00,29.74,1007.00,10.00,28.00,FEW,BKN,None,None,5000.00,25000.00,M,M,M,KDCA 062052Z 32015G28KT 10SM FEW050 BKN250 03/M10 A2974 RMK AO2 PK WND 32030/2015 SLP070 T00281100 51025,
DCA,2014-01-06 21:52,33.98,12.02,39.72,330.00,17.00,0.00,29.78,1008.30,10.00,23.00,SCT,BKN,BKN,None,4500.00,6000.00,25000.00,M,M,KDCA 062152Z 33017G23KT 10SM SCT045 BKN060 BKN250 01/M11 A2978 RMK AO2 PK WND 32032/2127 SLP083 T00111111,
DCA,2014-01-06 22:52,32.00,12.02,43.00,310.00,18.00,0.00,29.81,1009.30,10.00,27.00,FEW,BKN,BKN,None,4500.00,7000.00,25000.00,M,M,KDCA 062252Z 31018G27KT 10SM FEW045 BKN070 BKN250 00/M11 A2981 RMK AO2 PK WND 32027/2252 SLP093 T00001111,
DCA,2014-01-06 23:52,26.06,5.00,39.96,320.00,17.00,0.00,29.87,1011.20,10.00,35.00,SCT,BKN,None,None,8000.00,25000.00,M,M,M,KDCA 062352Z 32017G35KT 10SM SCT080 BKN250 M03/M15 A2987 RMK AO2 PK WND 31035/2346 PRESRR SLP112 T10331150 10044 21033 53043,
DCA,2014-01-07 00:52,21.92,-0.04,37.62,310.00,16.00,0.00,29.94,1013.60,10.00,33.00,SCT,SCT,None,None,7000.00,25000.00,M,M,M,KDCA 070052Z 31016G33KT 10SM SCT070 SCT250 M06/M18 A2994 RMK AO2 PK WND 30038/0040 PRESRR SLP136 T10561178,
DCA,2014-01-07 01:52,17.96,-7.06,31.85,310.00,21.00,0.00,30.00,1015.90,10.00,32.00,FEW,SCT,None,None,8000.00,25000.00,M,M,M,KDCA 070152Z 31021G32KT 10SM FEW080 SCT250 M08/M22 A3000 RMK AO2 PK WND 32035/0128 PRESRR SLP159 T10781217,
DCA,2014-01-07 02:52,15.08,-7.96,34.54,300.00,20.00,0.00,30.06,1017.70,10.00,28.00,FEW,None,None,None,25000.00,M,M,M,M,KDCA 070252Z 30020G28KT 10SM FEW250 M09/M22 A3006 RMK AO2 PK WND 32032/0217 PRESRR SLP177 T10941222 51065,
DCA,2014-01-07 03:52,12.02,-11.92,32.50,300.00,19.00,0.00,30.09,1018.90,10.00,30.00,CLR,None,None,None,M,M,M,M,M,KDCA 070352Z 30019G30KT 10SM CLR M11/M24 A3009 RMK AO2 PK WND 32034/0316 SLP189 T11111244,
DCA,2014-01-07 04:52,12.02,-11.02,33.99,300.00,11.00,0.00,30.12,1019.80,10.00,18.00,CLR,None,None,None,M,M,M,M,M,KDCA 070452Z 30011G18KT 10SM CLR M11/M24 A3012 RMK AO2 PK WND 32029/0400 SLP198 T11111239 400941111,
DCA,2014-01-07 05:52,10.04,-14.08,31.86,310.00,16.00,0.00,30.14,1020.50,10.00,25.00,CLR,None,None,None,M,M,M,M,M,KDCA 070552Z 31016G25KT 10SM CLR M12/M26 A3014 RMK AO2 PK WND 29029/0502 SLP205 T11221256 11033 21122 51028,
DCA,2014-01-07 06:52,8.96,-14.08,33.43,300.00,12.00,0.00,30.17,1021.40,10.00,23.00,CLR,None,None,None,M,M,M,M,M,KDCA 070652Z 30012G23KT 280V340 10SM CLR M13/M26 A3017 RMK AO2 PK WND 30028/0558 SLP214 T11281256,
DCA,2014-01-07 07:52,8.06,-14.08,34.82,300.00,12.00,0.00,30.21,1022.90,10.00,19.00,CLR,None,None,None,M,M,M,M,M,KDCA 070752Z 30012G19KT 10SM CLR M13/M26 A3021 RMK AO2 SLP229 T11331256,
DCA,2014-01-07 08:52,8.06,-14.08,34.82,310.00,11.00,0.00,30.24,1023.90,10.00,17.00,CLR,None,None,None,M,M,M,M,M,KDCA 070852Z 31011G17KT 10SM CLR M13/M26 A3024 RMK AO2 SLP239 T11331256 53034,
DCA,2014-01-07 09:52,6.98,-11.92,40.74,300.00,14.00,0.00,30.28,1025.00,10.00,19.00,CLR,None,None,None,M,M,M,M,M,KDCA 070952Z 30014G19KT 10SM CLR M14/M24 A3028 RMK AO2 SLP250 T11391244,
DCA,2014-01-07 10:52,6.98,-14.08,36.56,290.00,13.00,0.00,30.30,1025.90,10.00,20.00,FEW,None,None,None,3000.00,M,M,M,M,KDCA 071052Z 29013G20KT 10SM FEW030 M14/M26 A3030 RMK AO2 SLP259 T11391256,
DCA,2014-01-07 11:52,6.98,-14.08,36.56,300.00,11.00,0.00,30.34,1027.30,10.00,19.00,FEW,None,None,None,3000.00,M,M,M,M,KDCA 071152Z 30011G19KT 280V340 10SM FEW030 M14/M26 A3034 RMK AO2 SLP273 70004 T11391256 11122 21139 53033,
DCA,2014-01-07 12:52,6.98,-14.08,36.56,320.00,10.00,0.00,30.35,1027.80,10.00,M,FEW,None,None,None,3000.00,M,M,M,M,KDCA 071252Z 32010KT 10SM FEW030 M14/M26 A3035 RMK AO2 SLP278 T11391256 $,
DCA,2014-01-07 13:52,8.96,-13.00,35.30,280.00,11.00,0.00,30.41,1029.50,10.00,M,FEW,None,None,None,3000.00,M,M,M,M,KDCA 071352Z 28011KT 10SM FEW030 M13/M25 A3041 RMK AO2 SLP295 T11281250,
DCA,2014-01-07 14:52,10.94,-11.92,34.10,270.00,10.00,0.00,30.39,1029.00,10.00,17.00,FEW,None,None,None,3500.00,M,M,M,M,KDCA 071452Z 27010G17KT 10SM FEW035 M12/M24 A3039 RMK AO2 SLP290 T11171244 50017,
DCA,2014-01-07 15:52,12.92,-11.02,32.66,260.00,14.00,0.00,30.41,1029.60,10.00,25.00,FEW,None,None,None,3800.00,M,M,M,M,KDCA 071552Z 26014G25KT 10SM FEW038 M11/M24 A3041 RMK AO2 SLP296 T11061239,
DCA,2014-01-07 16:52,15.08,-11.02,29.71,270.00,15.00,0.00,30.39,1028.90,10.00,24.00,FEW,None,None,None,4000.00,M,M,M,M,KDCA 071652Z 27015G24KT 10SM FEW040 M09/M24 A3039 RMK AO2 SLP289 T10941239,
DCA,2014-01-07 17:52,17.06,-9.94,28.76,260.00,9.00,0.00,30.37,1028.40,10.00,19.00,FEW,None,None,None,4500.00,M,M,M,M,KDCA 071752Z 26009G19KT 10SM FEW045 M08/M23 A3037 RMK AO2 SLP284 T10831233 11083 21144 58005,
DCA,2014-01-07 18:52,19.04,-9.04,27.61,290.00,9.00,0.00,30.34,1027.30,10.00,M,FEW,None,None,None,4500.00,M,M,M,M,KDCA 071852Z 29009KT 10SM FEW045 M07/M23 A3034 RMK AO2 SLP273 T10721228,
DCA,2014-01-07 19:52,19.94,-9.94,25.42,M,3.00,0.00,30.35,1027.70,10.00,M,CLR,None,None,None,M,M,M,M,M,KDCA 071952Z VRB03KT 10SM CLR M07/M23 A3035 RMK AO2 SLP277 T10671233,
DCA,2014-01-07 20:52,19.94,-9.04,26.57,310.00,7.00,0.00,30.34,1027.50,10.00,15.00,CLR,None,None,None,M,M,M,M,M,KDCA 072052Z 31007G15KT 10SM CLR M07/M23 A3034 RMK AO2 SLP275 T10671228 56010,
DCA,2014-01-07 21:52,19.04,-7.96,29.11,290.00,4.00,0.00,30.36,1027.90,10.00,M,CLR,None,None,None,M,M,M,M,M,KDCA 072152Z 29004KT 10SM CLR M07/M22 A3036 RMK AO2 SLP279 T10721222,
DCA,2014-01-07 22:52,17.96,-7.06,31.85,340.00,9.00,0.00,30.39,1029.20,10.00,M,CLR,None,None,None,M,M,M,M,M,KDCA 072252Z 34009KT 10SM CLR M08/M22 A3039 RMK AO2 SLP292 T10781217,
DCA,2014-01-07 23:52,17.06,-7.96,31.69,330.00,8.00,0.00,30.43,1030.40,10.00,M,CLR,None,None,None,M,M,M,M,M,KDCA 072352Z 33008KT 10SM CLR M08/M22 A3043 RMK AO2 SLP304 T10831222 11061 21083 53029,
DCA,2014-01-08 00:52,15.98,-7.96,33.21,320.00,11.00,0.00,30.45,1031.00,10.00,M,CLR,None,None,None,M,M,M,M,M,KDCA 080052Z 32011KT 10SM CLR M09/M22 A3045 RMK AO2 SLP310 T10891222,
DCA,2014-01-08 01:52,15.98,-7.96,33.21,320.00,6.00,0.00,30.45,1031.20,10.00,M,CLR,None,None,None,M,M,M,M,M,KDCA 080152Z 32006KT 10SM CLR M09/M22 A3045 RMK AO2 SLP312 T10891222,
DCA,2014-01-08 02:52,15.08,-5.98,38.03,350.00,6.00,0.00,30.47,1031.80,10.00,M,CLR,None,None,None,M,M,M,M,M,KDCA 080252Z 35006KT 10SM CLR M09/M21 A3047 RMK AO2 SLP318 T10941211 52014,
DCA,2014-01-08 03:52,15.08,-7.06,36.09,330.00,6.00,0.00,30.47,1031.90,10.00,M,CLR,None,None,None,M,M,M,M,M,KDCA 080352Z 33006KT 10SM CLR M09/M22 A3047 RMK AO2 SLP319 T10941217,
DCA,2014-01-08 04:52,15.08,-5.08,39.71,350.00,6.00,0.00,30.48,1032.00,10.00,M,CLR,None,None,None,M,M,M,M,M,KDCA 080452Z 35006KT 10SM CLR M09/M21 A3048 RMK AO2 SLP320 T10941206 410611144,
DCA,2014-01-08 05:52,14.00,-5.08,41.63,350.00,5.00,0.00,30.49,1032.30,10.00,M,CLR,None,None,None,M,M,M,M,M,KDCA 080552Z 35005KT 10SM CLR M10/M21 A3049 RMK AO2 SLP323 T11001206 11083 21100 53005,
DCA,2014-01-08 06:52,14.00,-4.00,43.85,340.00,5.00,0.00,30.50,1032.70,10.00,M,CLR,None,None,None,M,M,M,M,M,KDCA 080652Z 34005KT 10SM CLR M10/M20 A3050 RMK AO2 SLP327 T11001200,
DCA,2014-01-08 07:52,14.00,-4.00,43.85,350.00,4.00,0.00,30.53,1033.80,10.00,M,CLR,None,None,None,M,M,M,M,M,KDCA 080752Z 35004KT 10SM CLR M10/M20 A3053 RMK AO2 SLP338 T11001200,
DCA,2014-01-08 08:52,14.00,-2.02,48.18,0.00,0.00,0.00,30.53,1033.70,10.00,M,CLR,None,None,None,M,M,M,M,M,KDCA 080852Z 00000KT 10SM CLR M10/M19 A3053 RMK AO2 SLP337 T11001189 50014,
DCA,2014-01-08 09:52,15.08,-4.00,41.82,290.00,5.00,0.00,30.54,1034.00,10.00,M,CLR,None,None,None,M,M,M,M,M,KDCA 080952Z 29005KT 10SM CLR M09/M20 A3054 RMK AO2 SLP340 T10941200,
DCA,2014-01-08 10:52,14.00,-2.92,46.17,340.00,6.00,0.00,30.55,1034.50,10.00,M,CLR,None,None,None,M,M,M,M,M,KDCA 081052Z 34006KT 10SM CLR M10/M19 A3055 RMK AO2 SLP345 T11001194,
DCA,2014-01-08 11:52,15.98,-2.92,42.34,350.00,6.00,0.00,30.57,1035.30,10.00,M,BKN,None,None,None,9000.00,M,M,M,M,KDCA 081152Z 35006KT 10SM BKN090 M09/M19 A3057 RMK AO2 SLP353 T10891194 11089 21106 53016,
DCA,2014-01-08 12:52,17.96,-0.94,42.69,10.00,5.00,0.00,30.58,1035.40,10.00,M,BKN,BKN,None,None,8500.00,20000.00,M,M,M,KDCA 081252Z 01005KT 10SM BKN085 BKN200 M08/M18 A3058 RMK AO2 SLP354 T10781183,
DCA,2014-01-08 13:52,21.02,-4.00,32.39,290.00,4.00,0.00,30.62,1036.80,10.00,M,FEW,SCT,None,None,8500.00,20000.00,M,M,M,KDCA 081352Z 29004KT 10SM FEW085 SCT200 M06/M20 A3062 RMK AO2 SLP368 T10611200,
DCA,2014-01-08 14:52,21.02,3.02,45.07,160.00,5.00,0.00,30.63,1037.20,10.00,M,FEW,SCT,None,None,9000.00,20000.00,M,M,M,KDCA 081452Z 16005KT 10SM FEW090 SCT200 M06/M16 A3063 RMK AO2 SLP372 T10611161 53020,
DCA,2014-01-08 15:52,23.00,-0.04,35.95,170.00,7.00,0.00,30.62,1036.90,10.00,M,FEW,SCT,None,None,10000.00,20000.00,M,M,M,KDCA 081552Z 17007KT 10SM FEW100 SCT200 M05/M18 A3062 RMK AO2 SLP369 T10501178,
DCA,2014-01-08 16:52,24.98,-0.04,33.09,170.00,7.00,0.00,30.58,1035.30,10.00,M,SCT,None,None,None,25000.00,M,M,M,M,KDCA 081652Z 17007KT 10SM SCT250 M04/M18 A3058 RMK AO2 PRESFR SLP353 T10391178,
DCA,2014-01-08 17:52,26.96,-0.04,30.48,170.00,6.00,0.00,30.55,1034.30,10.00,M,BKN,None,None,None,18000.00,M,M,M,M,KDCA 081752Z 17006KT 10SM BKN180 M03/M18 A3055 RMK AO2 SLP343 T10281178 11028 21089 58028,
DCA,2014-01-08 18:52,28.94,-0.94,26.94,210.00,5.00,0.00,30.53,1033.60,10.00,M,FEW,BKN,None,None,8000.00,16000.00,M,M,M,KDCA 081852Z 21005KT 10SM FEW080 BKN160 M02/M18 A3053 RMK AO2 SLP336 T10171183,
DCA,2014-01-08 19:52,30.02,-0.04,26.89,220.00,5.00,0.00,30.52,1033.40,10.00,M,FEW,BKN,None,None,8000.00,18000.00,M,M,M,KDCA 081952Z 22005KT 10SM FEW080 BKN180 M01/M18 A3052 RMK AO2 SLP334 T10111178,
DCA,2014-01-08 20:52,30.02,1.94,29.50,200.00,5.00,0.00,30.52,1033.20,10.00,M,SCT,BKN,None,None,8000.00,18000.00,M,M,M,KDCA 082052Z 20005KT 10SM SCT080 BKN180 M01/M17 A3052 RMK AO2 SLP332 T10111167 56010,
DCA,2014-01-08 21:52,30.02,3.02,31.01,210.00,5.00,0.00,30.53,1033.60,10.00,M,FEW,BKN,BKN,None,8000.00,18000.00,25000.00,M,M,KDCA 082152Z 21005KT 10SM FEW080 BKN180 BKN250 M01/M16 A3053 RMK AO2 SLP336 T10111161,
DCA,2014-01-08 22:52,30.02,3.02,31.01,210.00,3.00,0.00,30.53,1033.80,10.00,M,BKN,BKN,None,None,18000.00,25000.00,M,M,M,KDCA 082252Z 21003KT 10SM BKN180 BKN250 M01/M16 A3053 RMK AO2 SLP338 T10111161,
DCA,2014-01-08 23:52,30.02,6.98,37.17,150.00,3.00,0.00,30.55,1034.20,10.00,M,FEW,SCT,None,None,18000.00,25000.00,M,M,M,KDCA 082352Z 15003KT 10SM FEW180 SCT250 M01/M14 A3055 RMK AO2 SLP342 T10111139 11006 21028 53010,
DCA,2014-01-09 00:52,28.94,6.98,38.85,0.00,0.00,0.00,30.54,1034.10,10.00,M,SCT,None,None,None,25000.00,M,M,M,M,KDCA 090052Z 00000KT 10SM SCT250 M02/M14 A3054 RMK AO2 SLP341 T10171139,
DCA,2014-01-09 01:52,28.94,10.04,44.58,170.00,4.00,0.00,30.54,1034.00,10.00,M,BKN,None,None,None,20000.00,M,M,M,M,KDCA 090152Z 17004KT 10SM BKN200 M02/M12 A3054 RMK AO2 SLP340 T10171122,
DCA,2014-01-09 02:52,28.94,12.02,48.69,160.00,3.00,0.00,30.54,1034.10,10.00,M,BKN,None,None,None,15000.00,M,M,M,M,KDCA 090252Z 16003KT 10SM BKN150 M02/M11 A3054 RMK AO2 SLP341 T10171111 55002,
DCA,2014-01-09 03:14,30.20,14.00,50.47,0.00,0.00,0.00,30.54,M,10.00,M,OVC,None,None,None,11000.00,M,M,M,M,KDCA 090314Z 00000KT 10SM OVC110 M01/M10 A3054 RMK AO2,
DCA,2014-01-09 03:52,28.94,15.08,55.69,0.00,0.00,0.00,30.52,1033.40,10.00,M,BKN,OVC,None,None,11000.00,15000.00,M,M,M,KDCA 090352Z 00000KT 10SM BKN110 OVC150 M02/M09 A3052 RMK AO2 SLP334 T10171094,
DCA,2014-01-09 04:52,30.02,15.08,53.29,0.00,0.00,0.00,30.51,1033.00,10.00,M,BKN,OVC,None,None,11000.00,15000.00,M,M,M,KDCA 090452Z 00000KT 10SM BKN110 OVC150 M01/M09 A3051 RMK AO2 SLP330 T10111094 410061106,
DCA,2014-01-09 05:52,30.02,15.98,55.42,0.00,0.00,0.00,30.51,1033.00,10.00,M,OVC,None,None,None,11000.00,M,M,M,M,KDCA 090552Z 00000KT 10SM OVC110 M01/M09 A3051 RMK AO2 SLP330 T10111089 11011 21022 56011,
DCA,2014-01-09 06:52,30.02,15.98,55.42,60.00,4.00,0.00,30.52,1033.30,10.00,M,SCT,OVC,None,None,9500.00,14000.00,M,M,M,KDCA 090652Z 06004KT 10SM SCT095 OVC140 M01/M09 A3052 RMK AO2 SLP333 T10111089,
DCA,2014-01-09 07:52,30.02,17.06,58.08,50.00,7.00,0.00,30.53,1033.80,10.00,M,BKN,OVC,None,None,10000.00,14000.00,M,M,M,KDCA 090752Z 05007KT 10SM BKN100 OVC140 M01/M08 A3053 RMK AO2 SLP338 T10111083,
DCA,2014-01-09 08:52,30.02,17.96,60.38,50.00,4.00,0.00,30.55,1034.30,10.00,M,SCT,OVC,None,None,10000.00,15000.00,M,M,M,KDCA 090852Z 05004KT 10SM SCT100 OVC150 M01/M08 A3055 RMK AO2 SLP343 T10111078 53013,
DCA,2014-01-09 09:52,30.02,17.96,60.38,40.00,4.00,0.00,30.55,1034.40,10.00,M,SCT,BKN,None,None,11000.00,15000.00,M,M,M,KDCA 090952Z 04004KT 10SM SCT110 BKN150 M01/M08 A3055 RMK AO2 SLP344 T10111078,
DCA,2014-01-09 10:52,28.94,19.04,66.09,50.00,5.00,0.00,30.56,1034.80,10.00,M,BKN,BKN,BKN,None,11000.00,15000.00,18000.00,M,M,KDCA 091052Z 05005KT 10SM BKN110 BKN150 BKN180 M02/M07 A3056 RMK AO2 SLP348 T10171072,
DCA,2014-01-09 11:11,28.40,19.40,68.61,40.00,5.00,0.00,30.56,M,10.00,M,BKN,BKN,BKN,None,13000.00,16000.00,18000.00,M,M,KDCA 091111Z 04005KT 10SM BKN130 BKN160 BKN180 M02/M07 A3056 RMK AO2,
DCA,2014-01-09 11:52,30.02,19.04,63.24,40.00,5.00,0.00,30.57,1035.20,10.00,M,SCT,SCT,BKN,None,12000.00,16000.00,20000.00,M,M,KDCA 091152Z 04005KT 10SM SCT120 SCT160 BKN200 M01/M07 A3057 RMK AO2 SLP352 T10111072 11011 21017 53009,
DCA,2014-01-09 12:52,30.02,19.04,63.24,40.00,6.00,0.00,30.61,1036.50,10.00,M,SCT,BKN,None,None,12000.00,20000.00,M,M,M,KDCA 091252Z 04006KT 10SM SCT120 BKN200 M01/M07 A3061 RMK AO2 SLP365 T10111072,
DCA,2014-01-09 13:52,32.00,19.94,60.66,50.00,4.00,0.00,30.65,1037.70,10.00,M,BKN,BKN,None,None,12000.00,23000.00,M,M,M,KDCA 091352Z 05004KT 10SM BKN120 BKN230 00/M07 A3065 RMK AO2 SLP377 T00001067,
DCA,2014-01-09 14:52,35.06,19.94,53.66,50.00,7.00,0.00,30.66,1038.10,10.00,M,BKN,BKN,None,None,11000.00,23000.00,M,M,M,KDCA 091452Z 05007KT 10SM BKN110 BKN230 02/M07 A3066 RMK AO2 SLP381 T00171067 51028,
DCA,2014-01-09 15:52,35.96,19.04,49.83,50.00,7.00,0.00,30.66,1038.10,10.00,M,BKN,None,None,None,10000.00,M,M,M,M,KDCA 091552Z 05007KT 10SM BKN100 02/M07 A3066 RMK AO2 SLP381 T00221072,
DCA,2014-01-09 16:52,37.04,19.04,47.75,50.00,5.00,0.00,30.63,1037.20,10.00,M,SCT,BKN,None,None,10000.00,14000.00,M,M,M,KDCA 091652Z 05005KT 10SM SCT100 BKN140 03/M07 A3063 RMK AO2 SLP372 T00281072,
DCA,2014-01-09 17:52,39.02,17.96,42.18,30.00,5.00,0.00,30.61,1036.30,10.00,M,SCT,None,None,None,12000.00,M,M,M,M,KDCA 091752Z 03005KT 10SM SCT120 04/M08 A3061 RMK AO2 SLP363 T00391078 10044 21011 58018,
DCA,2014-01-09 18:52,39.02,17.96,42.18,120.00,3.00,0.00,30.60,1036.00,10.00,M,BKN,None,None,None,10000.00,M,M,M,M,KDCA 091852Z 12003KT 10SM BKN100 04/M08 A3060 RMK AO2 SLP360 T00391078,
DCA,2014-01-09 19:52,39.92,19.04,42.65,100.00,4.00,0.00,30.59,1035.90,10.00,M,BKN,OVC,None,None,10000.00,25000.00,M,M,M,KDCA 091952Z 10004KT 10SM BKN100 OVC250 04/M07 A3059 RMK AO2 SLP359 T00441072,
DCA,2014-01-09 20:52,39.02,21.02,48.07,110.00,6.00,0.00,30.61,1036.40,10.00,M,BKN,BKN,None,None,9500.00,25000.00,M,M,M,KDCA 092052Z 11006KT 10SM BKN095 BKN250 04/M06 A3061 RMK AO2 SLP364 T00391061 53001,
DCA,2014-01-09 21:52,37.04,19.04,47.75,110.00,7.00,0.00,30.62,1036.70,10.00,M,BKN,BKN,None,None,9500.00,25000.00,M,M,M,KDCA 092152Z 11007KT 10SM BKN095 BKN250 03/M07 A3062 RMK AO2 SLP367 T00281072 $,
DCA,2014-01-09 22:52,35.06,19.94,53.66,100.00,3.00,0.00,30.61,1036.30,10.00,M,SCT,SCT,None,None,10000.00,25000.00,M,M,M,KDCA 092252Z 10003KT 10SM SCT100 SCT250 02/M07 A3061 RMK AO2 SLP363 T00171067,
DCA,2014-01-09 23:52,33.98,21.02,58.66,70.00,3.00,0.00,30.60,1036.00,10.00,M,BKN,None,None,None,18000.00,M,M,M,M,KDCA 092352Z 07003KT 10SM BKN180 01/M06 A3060 RMK AO2 SLP360 T00111061 10050 20011 58004,
DCA,2014-01-10 00:52,33.98,19.94,56.02,0.00,0.00,0.00,30.61,1036.40,10.00,M,SCT,None,None,None,18000.00,M,M,M,M,KDCA 100052Z 00000KT 10SM SCT180 01/M07 A3061 RMK AO2 SLP364 T00111067,
DCA,2014-01-10 01:52,33.08,21.92,63.17,0.00,0.00,0.00,30.62,1036.70,10.00,M,OVC,None,None,None,16000.00,M,M,M,M,KDCA 100152Z 00000KT 10SM OVC160 01/M06 A3062 RMK AO2 SLP367 T00061056,
DCA,2014-01-10 02:52,33.08,19.94,58.08,0.00,0.00,0.00,30.62,1036.70,10.00,M,BKN,None,None,None,19000.00,M,M,M,M,KDCA 100252Z 00000KT 10SM BKN190 01/M07 A3062 RMK AO2 SLP367 T00061067 51007,
DCA,2014-01-10 03:52,33.98,21.02,58.66,0.00,0.00,0.00,30.59,1035.80,10.00,M,OVC,None,None,None,14000.00,M,M,M,M,KDCA 100352Z 00000KT 10SM OVC140 01/M06 A3059 RMK AO2 SLP358 T00111061,
DCA,2014-01-10 04:52,33.98,21.92,60.93,0.00,0.00,0.00,30.57,1034.90,10.00,M,FEW,BKN,OVC,None,12000.00,16000.00,18000.00,M,M,KDCA 100452Z 00000KT 10SM FEW120 BKN160 OVC180 01/M06 A3057 RMK AO2 SLP349 T00111056 400501017,
DCA,2014-01-10 05:35,33.80,23.00,64.23,0.00,0.00,0.00,30.56,M,10.00,M,SCT,SCT,BKN,OVC,1900.00,11000.00,13000.00,16000.00,M,KDCA 100535Z 00000KT 10SM SCT019 SCT110 BKN130 OVC160 01/M05 A3056 RMK AO2,
DCA,2014-01-10 05:52,33.98,23.00,63.77,0.00,0.00,0.00,30.55,1034.60,10.00,M,SCT,SCT,BKN,OVC,1900.00,5000.00,11000.00,16000.00,M,KDCA 100552Z 00000KT 10SM SCT019 SCT050 BKN110 OVC160 01/M05 A3055 RMK AO2 SLP346 T00111050 10011 20006 56021,
DCA,2014-01-10 06:52,33.08,23.00,66.11,50.00,3.00,0.00,30.52,1033.60,10.00,M,SCT,OVC,None,None,1600.00,6000.00,M,M,M,KDCA 100652Z 05003KT 10SM SCT016 OVC060 01/M05 A3052 RMK AO2 SLP336 T00061050 $,
DCA,2014-01-10 07:52,32.90,23.00,66.59,0.00,0.00,0.00,30.52,1033.50,10.00,M,SCT,OVC,None,None,1600.00,6000.00,M,M,M,KDCA 100752Z 00000KT 10SM SCT016 OVC060 01/M05 A3052 RMK AO2 SLP335 T00051050 PNO $,
DCA,2014-01-10 08:52,28.94,13.10,51.07,0.00,0.00,0.00,30.50,1032.60,10.00,M,SCT,OVC,None,None,1600.00,5000.00,M,M,M,KDCA 100852Z 00000KT 10SM SCT016 OVC050 M02/M10 A3050 RMK AO2 SLP326 T10171105 56020 PNO $,
DCA,2014-01-10 09:52,28.94,13.10,51.07,0.00,0.00,0.00,30.48,1031.90,10.00,M,SCT,OVC,None,None,1600.00,5000.00,M,M,M,KDCA 100952Z 00000KT 10SM SCT016 OVC050 M02/M10 A3048 RMK AO2 SLP319 T10171105 PNO $,
DCA,2014-01-10 09:56,28.40,6.80,39.39,50.00,3.00,0.00,30.47,M,10.00,M,BKN,OVC,None,None,1600.00,3000.00,M,M,-RA,KDCA 100956Z 05003KT 10SM -RA BKN016 OVC030 M02/M14 A3047 RMK AO2 RAB56 PNO $,
DCA,2014-01-10 10:37,28.40,26.60,92.86,50.00,3.00,0.00,30.46,M,5.00,M,BKN,OVC,None,None,1600.00,3000.00,M,M,-FZRA BR,KDCA 101037Z 05003KT 5SM -FZRA BR BKN016 OVC030 M02/M03 A3046 RMK AO2 FZRAB0954 P0000 PNO $,
DCA,2014-01-10 10:52,28.04,26.06,92.16,30.00,3.00,0.01,30.46,1031.30,5.00,M,BKN,OVC,None,None,1500.00,3000.00,M,M,-FZRA BR,KDCA 101052Z 03003KT 5SM -FZRA BR BKN015 OVC030 M02/M03 A3046 RMK AO2 SLP313 FZRAB0954 P0001 T10221033 PNO $,
DCA,2014-01-10 11:07,30.20,28.40,92.92,360.00,3.00,0.00,30.47,M,5.00,M,BKN,OVC,None,None,1600.00,3500.00,M,M,-FZRA BR,KDCA 101107Z 36003KT 5SM -FZRA BR BKN016 OVC035 M01/M02 A3047 RMK AO2 P0000 PNO $,
DCA,2014-01-10 11:24,30.20,28.40,92.92,10.00,8.00,0.01,30.47,M,5.00,M,SCT,OVC,None,None,1600.00,3500.00,M,M,-FZRA BR,KDCA 101124Z 01008KT 5SM -FZRA BR SCT016 OVC035 M01/M02 A3047 RMK AO2 P0001 PNO $,
DCA,2014-01-10 11:40,28.40,26.60,92.86,360.00,8.00,0.01,30.47,M,6.00,M,SCT,OVC,None,None,1600.00,3500.00,M,M,-FZRA BR,KDCA 101140Z 36008KT 6SM -FZRA BR SCT016 OVC035 M02/M03 A3047 RMK AO2 P0001 PNO $,
DCA,2014-01-10 11:52,28.94,26.96,92.19,360.00,3.00,0.05,30.47,1031.80,5.00,M,SCT,OVC,None,None,1600.00,3500.00,M,M,-FZRA BR,KDCA 101152Z 36003KT 5SM -FZRA BR SCT016 OVC035 M02/M03 A3047 RMK AO2 SLP318 P0005 60006 70006 T10171028 10011 21022 55008 PNO $,
DCA,2014-01-10 12:19,30.20,28.40,92.92,60.00,5.00,0.00,30.47,M,4.00,M,SCT,OVC,None,None,1600.00,3500.00,M,M,-FZRA BR,KDCA 101219Z 06005KT 4SM -FZRA BR SCT016 OVC035 M01/M02 A3047 RMK AO2 SCT V BKN PNO $,
DCA,2014-01-10 12:29,32.00,30.20,92.97,60.00,5.00,0.00,30.47,M,4.00,M,SCT,OVC,None,None,1500.00,3200.00,M,M,-FZRA BR,KDCA 101229Z 06005KT 4SM -FZRA BR SCT015 OVC032 M00/M01 A3047 RMK AO2 PNO $,
DCA,2014-01-10 12:52,31.10,30.02,95.71,50.00,4.00,0.00,30.48,1031.90,3.00,M,SCT,OVC,None,None,1500.00,3500.00,M,M,-FZRA BR,KDCA 101252Z 05004KT 3SM -FZRA BR SCT015 OVC035 M00/M01 A3048 RMK AO2 SLP319 T10051011 PNO $,
DCA,2014-01-10 13:06,32.00,32.00,100.00,50.00,4.00,0.00,30.47,M,2.50,M,FEW,OVC,None,None,1500.00,3500.00,M,M,-RA BR,KDCA 101306Z 05004KT 2 1/2SM -RA BR FEW015 OVC035 00/M00 A3047 RMK AO2 RAB06FZRAE06 PNO,
DCA,2014-01-10 13:44,32.00,32.00,100.00,50.00,4.00,0.00,30.48,M,1.50,M,SCT,OVC,None,None,1600.00,2800.00,M,M,-RA BR,KDCA 101344Z 05004KT 1 1/2SM -RA BR SCT016 OVC028 00/00 A3048 RMK AO2 RAB06FZRAE06 PNO $,
DCA,2014-01-10 13:52,32.00,32.00,100.00,70.00,4.00,0.00,30.47,1031.70,1.50,M,SCT,OVC,None,None,1600.00,2800.00,M,M,-RA BR,KDCA 101352Z 07004KT 1 1/2SM -RA BR SCT016 OVC028 00/00 A3047 RMK AO2 RAB06FZRAE06 SLP317 SCT V BKN T00000000 PNO $,
DCA,2014-01-10 14:52,32.00,32.00,100.00,0.00,0.00,0.00,30.46,1031.50,1.50,M,SCT,BKN,OVC,None,1600.00,2600.00,4500.00,M,-RA BR,KDCA 101452Z 00000KT 1 1/2SM R01/5500VP6000FT -RA BR SCT016 BKN026 OVC045 00/00 A3046 RMK AO2 SLP315 60019 T00000000 58003 PNO $,
DCA,2014-01-10 15:52,35.06,33.98,95.79,40.00,3.00,0.00,30.44,1030.60,1.50,M,FEW,BKN,OVC,None,500.00,2600.00,5000.00,M,-RA BR,KDCA 101552Z 04003KT 1 1/2SM R01/6000FT -RA BR FEW005 BKN026 OVC050 02/01 A3044 RMK AO2 SLP306 BKN V SCT T00170011 $,
DCA,2014-01-10 16:14,37.40,33.80,86.69,0.00,0.00,0.01,30.42,M,1.50,M,FEW,SCT,OVC,None,700.00,2500.00,5000.00,M,-RA BR,KDCA 101614Z 00000KT 1 1/2SM R01/2400VP6000FT -RA BR FEW007 SCT025 OVC050 03/01 A3042 RMK AO2 SCT V BKN P0001,
DCA,2014-01-10 16:23,37.40,35.60,93.14,0.00,0.00,0.01,30.42,M,1.75,M,BKN,OVC,None,None,500.00,4700.00,M,M,-RA BR,KDCA 101623Z 00000KT 1 3/4SM -RA BR BKN005 OVC047 03/02 A3042 RMK AO2 P0001,
DCA,2014-01-10 16:36,37.40,33.80,86.69,0.00,0.00,0.01,30.42,M,2.00,M,BKN,OVC,None,None,500.00,5000.00,M,M,-RA BR,KDCA 101636Z 00000KT 2SM -RA BR BKN005 OVC050 03/01 A3042 RMK AO2 P0001,
DCA,2014-01-10 16:52,37.94,33.98,85.49,0.00,0.00,0.01,30.41,1029.50,2.00,M,OVC,None,None,None,500.00,M,M,M,-RA BR,KDCA 101652Z 00000KT 2SM -RA BR OVC005 03/01 A3041 RMK AO2 SLP295 P0001 T00330011,
DCA,2014-01-10 17:52,39.02,35.06,85.55,0.00,0.00,0.01,30.37,1028.50,2.00,M,OVC,None,None,None,500.00,M,M,M,-RA BR,KDCA 101752Z 00000KT 2SM -RA BR OVC005 04/02 A3037 RMK AO2 SLP285 P0001 60024 T00390017 10039 21006 58029,
DCA,2014-01-10 18:19,39.20,35.60,86.79,50.00,3.00,0.01,30.36,M,1.75,M,OVC,None,None,None,500.00,M,M,M,-RA BR,KDCA 101819Z 05003KT 1 3/4SM -RA BR OVC005 04/02 A3036 RMK AO2 P0001,
DCA,2014-01-10 18:40,39.20,35.60,86.79,60.00,3.00,0.02,30.35,M,2.00,M,OVC,None,None,None,700.00,M,M,M,-RA BR,KDCA 101840Z 06003KT 2SM -RA BR OVC007 04/02 A3035 RMK AO2 P0002,
DCA,2014-01-10 18:49,39.20,35.60,86.79,80.00,3.00,0.02,30.35,M,1.25,M,OVC,None,None,None,600.00,M,M,M,-DZ BR,KDCA 101849Z 08003KT 1 1/4SM R01/4500VP6000FT -DZ BR OVC006 04/02 A3035 RMK AO2 RAE48DZB48 P0002,
DCA,2014-01-10 18:52,39.02,35.96,88.66,80.00,3.00,0.02,30.35,1027.70,1.00,M,OVC,None,None,None,600.00,M,M,M,-DZ BR,KDCA 101852Z 08003KT 1SM R01/4500VP6000FT -DZ BR OVC006 04/02 A3035 RMK AO2 RAE48DZB48 SLP277 P0002 T00390022,
DCA,2014-01-10 19:12,39.20,35.60,86.79,50.00,3.00,0.01,30.34,M,0.75,M,OVC,None,None,None,600.00,M,M,M,-RA BR,KDCA 101912Z 05003KT 3/4SM R01/4000V4500FT -RA BR OVC006 04/02 A3034 RMK AO2 DZE09RAB09 P0001,
DCA,2014-01-10 19:26,37.40,35.60,93.14,50.00,3.00,0.02,30.34,M,1.00,M,OVC,None,None,None,600.00,M,M,M,-DZ BR,KDCA 101926Z 05003KT 1SM R01/4000V5000FT -DZ BR OVC006 03/02 A3034 RMK AO2 DZE09B26RAB09E26 P0002,
DCA,2014-01-10 19:52,39.02,35.96,88.66,20.00,3.00,0.03,30.34,1027.30,1.50,M,OVC,None,None,None,600.00,M,M,M,-DZ BR,KDCA 101952Z 02003KT 1 1/2SM R01/5500VP6000FT -DZ BR OVC006 04/02 A3034 RMK AO2 DZE09B26RAB09E26 SLP273 P0003 T00390022,
DCA,2014-01-10 20:02,39.20,35.60,86.79,0.00,0.00,0.00,30.34,M,2.00,M,OVC,None,None,None,600.00,M,M,M,BR,KDCA 102002Z 00000KT 2SM BR OVC006 04/02 A3034 RMK AO2 DZE02 P0000,
DCA,2014-01-10 20:29,39.20,35.60,86.79,40.00,3.00,0.00,30.33,M,1.75,M,OVC,None,None,None,600.00,M,M,M,-RA BR,KDCA 102029Z 04003KT 1 3/4SM -RA BR OVC006 04/02 A3033 RMK AO2 DZE02RAB14 VIS N 3 P0000,
DCA,2014-01-10 20:47,39.20,35.60,86.79,60.00,5.00,0.00,30.33,M,2.50,M,OVC,None,None,None,600.00,M,M,M,-RA BR,KDCA 102047Z 06005KT 2 1/2SM -RA BR OVC006 04/02 A3033 RMK AO2 DZE02RAB14 P0000,
DCA,2014-01-10 20:52,39.02,35.06,85.55,50.00,5.00,0.00,30.32,1026.80,2.50,M,OVC,None,None,None,600.00,M,M,M,-RA BR,KDCA 102052Z 05005KT 2 1/2SM -RA BR OVC006 04/02 A3032 RMK AO2 DZE02RAB14 SLP268 P0000 60005 T00390017 56009,
DCA,2014-01-10 21:17,37.40,35.60,93.14,50.00,6.00,0.02,30.32,M,1.50,M,OVC,None,None,None,600.00,M,M,M,-RA BR,KDCA 102117Z 05006KT 1 1/2SM R01/6000FT -RA BR OVC006 03/02 A3032 RMK AO2 P0002,
DCA,2014-01-10 21:52,37.94,35.06,89.25,50.00,5.00,0.06,30.31,1026.30,1.00,M,OVC,None,None,None,600.00,M,M,M,-RA BR,KDCA 102152Z 05005KT 1SM R01/6000VP6000FT -RA BR OVC006 03/02 A3031 RMK AO2 SLP263 P0006 T00330017,
DCA,2014-01-10 22:10,37.40,35.60,93.14,50.00,4.00,0.03,30.31,M,1.50,M,BKN,OVC,None,None,600.00,1000.00,M,M,-RA BR,KDCA 102210Z 05004KT 1 1/2SM R01/6000VP6000FT -RA BR BKN006 OVC010 03/02 A3031 RMK AO2 P0003,
DCA,2014-01-10 22:52,39.02,35.96,88.66,20.00,3.00,0.05,30.31,1026.30,1.50,M,OVC,None,None,None,600.00,M,M,M,-RA BR,KDCA 102252Z 02003KT 1 1/2SM -RA BR OVC006 04/02 A3031 RMK AO2 SLP263 P0005 T00390022,
DCA,2014-01-10 23:11,37.40,35.60,93.14,60.00,4.00,0.01,30.30,M,1.25,M,OVC,None,None,None,800.00,M,M,M,-RA BR,KDCA 102311Z 06004KT 1 1/4SM R01/5500VP6000FT -RA BR OVC008 03/02 A3030 RMK AO2 P0001,
DCA,2014-01-10 23:15,37.40,35.60,93.14,60.00,3.00,0.01,30.31,M,0.75,M,OVC,None,None,None,800.00,M,M,M,-RA BR,KDCA 102315Z 06003KT 3/4SM R01/2800VP6000FT -RA BR OVC008 03/02 A3031 RMK AO2 VIS E 1 1/2 P0001,
DCA,2014-01-10 23:22,37.40,35.60,93.14,60.00,4.00,0.02,30.30,M,1.25,M,OVC,None,None,None,1000.00,M,M,M,-RA BR BCFG,KDCA 102322Z 06004KT 1 1/4SM R01/2800VP6000FT -RA BR BCFG OVC010 03/02 A3030 RMK AO2 BCFG E-SE ALG RIVER P0002,
DCA,2014-01-10 23:31,37.40,35.60,93.14,60.00,5.00,0.02,30.30,M,1.50,M,OVC,None,None,None,1000.00,M,M,M,-RA BR BCFG,KDCA 102331Z 06005KT 1 1/2SM -RA BR BCFG OVC010 03/02 A3030 RMK AO2 BCFG NE P0002,
DCA,2014-01-10 23:52,37.04,35.06,92.46,60.00,5.00,0.02,30.30,1026.00,1.50,M,OVC,None,None,None,1000.00,M,M,M,-DZ BR,KDCA 102352Z 06005KT 1 1/2SM -DZ BR OVC010 03/02 A3030 RMK AO2 RAE40DZB44 SLP260 P0002 60018 T00280017 10039 20028 56008,
DCA,2014-01-11 00:09,37.40,35.60,93.14,60.00,5.00,0.02,30.30,M,1.75,M,OVC,None,None,None,800.00,M,M,M,-RA BR,KDCA 110009Z 06005KT 1 3/4SM -RA BR OVC008 03/02 A3030 RMK AO2 DZE2358RAB2358 P0002,
DCA,2014-01-11 00:17,37.40,35.60,93.14,50.00,4.00,0.04,30.30,M,2.00,M,OVC,None,None,None,800.00,M,M,M,-RA BR,KDCA 110017Z 05004KT 2SM -RA BR OVC008 03/02 A3030 RMK AO2 DZE2358RAB2358 P0004,
DCA,2014-01-11 00:43,37.40,33.80,86.69,50.00,6.00,0.05,30.28,M,1.75,M,OVC,None,None,None,600.00,M,M,M,-RA BR,KDCA 110043Z 05006KT 1 3/4SM -RA BR OVC006 03/01 A3028 RMK AO2 DZE2358RAB2358 P0005,
DCA,2014-01-11 00:52,37.04,33.98,88.57,50.00,6.00,0.06,30.27,1025.10,2.00,M,OVC,None,None,None,600.00,M,M,M,-RA BR,KDCA 110052Z 05006KT 2SM -RA BR OVC006 03/01 A3027 RMK AO2 DZE2358RAB2358 SLP251 P0006 T00280011,
DCA,2014-01-11 01:07,37.40,35.60,93.14,60.00,4.00,0.01,30.27,M,3.00,M,OVC,None,None,None,600.00,M,M,M,-DZ BR,KDCA 110107Z 06004KT 3SM -DZ BR OVC006 03/02 A3027 RMK AO2 RAE03DZB03 P0001,
DCA,2014-01-11 01:14,37.40,35.60,93.14,0.00,0.00,0.01,30.27,M,4.00,M,OVC,None,None,None,800.00,M,M,M,-DZ BR,KDCA 110114Z 00000KT 4SM -DZ BR OVC008 03/02 A3027 RMK AO2 RAE03DZB03 P0001,
DCA,2014-01-11 01:52,37.04,35.06,92.46,30.00,4.00,0.02,30.25,1024.40,2.50,M,OVC,None,None,None,800.00,M,M,M,-RA BR,KDCA 110152Z 03004KT 2 1/2SM -RA BR OVC008 03/02 A3025 RMK AO2 RAE03B32DZB03E32 SLP244 P0002 T00280017,
DCA,2014-01-11 02:28,37.40,35.60,93.14,30.00,3.00,0.01,30.23,M,3.00,M,OVC,None,None,None,800.00,M,M,M,-RA BR,KDCA 110228Z 03003KT 3SM -RA BR OVC008 03/02 A3023 RMK AO2 P0001,
DCA,2014-01-11 02:52,37.94,35.06,89.25,40.00,5.00,0.01,30.21,1023.10,5.00,M,OVC,None,None,None,800.00,M,M,M,BR,KDCA 110252Z 04005KT 5SM BR OVC008 03/02 A3021 RMK AO2 RAE33 SLP231 P0001 60009 T00330017 58029,
DCA,2014-01-11 03:03,37.40,35.60,93.14,30.00,3.00,0.00,30.21,M,5.00,M,OVC,None,None,None,600.00,M,M,M,BR,KDCA 110303Z 03003KT 5SM BR OVC006 03/02 A3021 RMK AO2,
DCA,2014-01-11 03:52,37.94,35.06,89.25,70.00,4.00,0.00,30.18,1021.80,3.00,M,OVC,None,None,None,600.00,M,M,M,-RA BR,KDCA 110352Z 07004KT 3SM -RA BR OVC006 03/02 A3018 RMK AO2 RAB39 SLP218 P0000 T00330017,
DCA,2014-01-11 04:09,37.40,35.60,93.14,0.00,0.00,0.00,30.18,M,2.50,M,OVC,None,None,None,400.00,M,M,M,BR,KDCA 110409Z 00000KT 2 1/2SM BR OVC004 03/02 A3018 RMK AO2 RAE02 P0000,
DCA,2014-01-11 04:52,37.04,35.06,92.46,0.00,0.00,0.00,30.16,1021.20,2.50,M,OVC,None,None,None,400.00,M,M,M,BR,KDCA 110452Z 00000KT 2 1/2SM BR OVC004 03/02 A3016 RMK AO2 RAE02 SLP212 P0000 T00280017 400391022,
DCA,2014-01-11 05:52,39.02,35.96,88.66,350.00,5.00,0.00,30.12,1019.90,0.25,M,OVC,None,None,None,400.00,M,M,M,FG,KDCA 110552Z 35005KT 1/4SM R01/4500V5500FT FG OVC004 04/02 A3012 RMK AO2 SLP199 60009 T00390022 10039 20028 58032,
DCA,2014-01-11 06:36,37.40,35.60,93.14,350.00,6.00,0.00,30.08,M,0.50,M,OVC,None,None,None,300.00,M,M,M,FG,KDCA 110636Z 35006KT 1/2SM R01/P6000FT FG OVC003 03/02 A3008 RMK AO2,
DCA,2014-01-11 06:52,37.94,35.96,92.49,350.00,3.00,0.00,30.08,1018.50,1.00,M,OVC,None,None,None,300.00,M,M,M,BR,KDCA 110652Z 35003KT 1SM R01/6000VP6000FT BR OVC003 03/02 A3008 RMK AO2 SLP185 T00330022,
DCA,2014-01-11 07:06,37.40,35.60,93.14,30.00,4.00,0.00,30.05,M,0.75,M,OVC,None,None,None,300.00,M,M,M,BR,KDCA 110706Z 03004KT 3/4SM R01/3500VP6000FT BR OVC003 03/02 A3005,
DCA,2014-01-11 07:17,37.40,35.60,93.14,340.00,4.00,0.00,30.06,M,0.50,M,VV ,None,None,None,200.00,M,M,M,FG,KDCA 110717Z 34004KT 1/2SM R01/2400V3000FT FG VV002 03/02 A3006 RMK AO2,
DCA,2014-01-11 07:38,37.40,35.60,93.14,20.00,4.00,0.03,30.04,M,0.75,M,OVC,None,None,None,200.00,M,M,M,RA BR,KDCA 110738Z 02004KT 3/4SM R01/4500VP6000FT RA BR OVC002 03/02 A3004 RMK AO2 RAB26 P0003,
DCA,2014-01-11 07:52,39.02,35.96,88.66,270.00,8.00,0.08,30.06,1017.70,1.00,M,OVC,None,None,None,200.00,M,M,M,-RA BR,KDCA 110752Z 27008KT 1SM R01/5000VP6000FT -RA BR OVC002 04/02 A3006 RMK AO2 RAB26 SLP177 P0008 T00390022,
DCA,2014-01-11 08:03,39.20,37.40,93.19,0.00,0.00,0.02,30.05,M,3.00,M,SCT,OVC,None,None,200.00,1000.00,M,M,-RA BR,KDCA 110803Z 00000KT 3SM -RA BR SCT002 OVC010 04/03 A3005 RMK AO2 P0002,
DCA,2014-01-11 08:23,37.40,35.60,93.14,70.00,3.00,0.02,30.03,M,1.50,M,OVC,None,None,None,1200.00,M,M,M,BR,KDCA 110823Z 07003KT 1 1/2SM BR OVC012 03/02 A3003 RMK AO2 RAE16 PRESFR P0002,
DCA,2014-01-11 08:28,37.40,35.60,93.14,100.00,3.00,0.02,30.02,M,0.75,M,OVC,None,None,None,100.00,M,M,M,BR,KDCA 110828Z 10003KT 3/4SM R01/4000VP6000FT BR OVC001 03/02 A3002 RMK AO2 RAE16 PRESFR P0002,
DCA,2014-01-11 08:40,39.20,37.40,93.19,0.00,0.00,0.02,30.02,M,1.50,M,BKN,OVC,None,None,100.00,1200.00,M,M,BR,KDCA 110840Z 00000KT 1 1/2SM BR BKN001 OVC012 04/03 A3002 RMK AO2 RAE16 P0002,
DCA,2014-01-11 08:52,39.02,35.96,88.66,0.00,0.00,0.02,30.01,1016.10,1.25,M,BKN,OVC,None,None,100.00,1200.00,M,M,BR,KDCA 110852Z 00000KT 1 1/4SM R01/5000VP6000FT BR BKN001 OVC012 04/02 A3001 RMK AO2 RAE16 SLP161 P0002 60010 T00390022 58038,
DCA,2014-01-11 08:59,39.20,35.60,86.79,200.00,3.00,0.00,30.01,M,1.00,M,OVC,None,None,None,900.00,M,M,M,BR,KDCA 110859Z 20003KT 1SM R01/5500VP6000FT BR OVC009 04/02 A3001 RMK AO2,
DCA,2014-01-11 09:14,39.20,37.40,93.19,0.00,0.00,0.00,29.99,M,0.75,M,OVC,None,None,None,700.00,M,M,M,BR,KDCA 110914Z 00000KT 3/4SM R01/4500V5500FT BR OVC007 04/03 A2999 RMK AO2 CIG 003V009,
DCA,2014-01-11 09:29,39.20,37.40,93.19,0.00,0.00,0.00,29.99,M,1.00,M,OVC,None,None,None,700.00,M,M,M,BR,KDCA 110929Z 00000KT 1SM R01/5000VP6000FT BR OVC007 04/03 A2999 RMK AO2,
DCA,2014-01-11 09:40,39.20,37.40,93.19,0.00,0.00,0.01,29.97,M,0.75,M,SCT,OVC,None,None,400.00,900.00,M,M,BR,KDCA 110940Z 00000KT 3/4SM R01/3000V6000FT BR SCT004 OVC009 04/03 A2997 RMK AO2 P0001,
DCA,2014-01-11 09:52,39.02,37.04,92.53,0.00,0.00,0.01,29.97,1014.70,0.50,M,FEW,OVC,None,None,400.00,900.00,M,M,FG,KDCA 110952Z 00000KT 1/2SM R01/2400V4000FT FG FEW004 OVC009 04/03 A2997 RMK AO2 SLP147 P0001 T00390028,
DCA,2014-01-11 10:00,39.20,35.60,86.79,0.00,0.00,0.00,29.96,M,0.25,M,BKN,OVC,None,None,200.00,900.00,M,M,-DZ FG,KDCA 111000Z 00000KT 1/4SM R01/3000V6000FT -DZ FG BKN002 OVC009 04/02 A2996 RMK AO2 DZB0956 VIS W 1/2 P0000,
DCA,2014-01-11 10:52,39.02,35.96,88.66,50.00,5.00,0.00,29.93,1013.30,0.25,M,BKN,OVC,None,None,200.00,500.00,M,M,-DZ FG,KDCA 111052Z 05005KT 1/4SM R01/3500VP6000FT -DZ FG BKN002 OVC005 04/02 A2993 RMK AO2 DZB0956 SLP133 VIS W 1/2 P0000 T00390022,
DCA,2014-01-11 11:49,39.20,37.40,93.19,0.00,0.00,0.03,29.89,M,2.00,M,OVC,None,None,None,500.00,M,M,M,-DZ BR,KDCA 111149Z 00000KT 2SM -DZ BR OVC005 04/03 A2989 RMK AO2 P0003,
DCA,2014-01-11 11:52,39.92,37.04,89.34,0.00,0.00,0.03,29.89,1012.00,1.75,M,OVC,None,None,None,500.00,M,M,M,BR,KDCA 111152Z 00000KT 1 3/4SM BR OVC005 04/03 A2989 RMK AO2 DZE51 SLP120 P0003 60014 70065 T00440028 10044 20033 56041,
DCA,2014-01-11 12:06,39.20,37.40,93.19,0.00,0.00,0.01,29.88,M,0.75,M,OVC,None,None,None,500.00,M,M,M,BR,KDCA 111206Z 00000KT 3/4SM R01/4000V6000FT BR OVC005 04/03 A2988 RMK AO2 RAB1153E03 P0001,
DCA,2014-01-11 12:19,37.40,35.60,93.14,0.00,0.00,0.01,29.87,M,0.50,M,OVC,None,None,None,300.00,M,M,M,FG,KDCA 111219Z 00000KT 1/2SM R01/2800V3000FT FG OVC003 03/02 A2987 RMK AO2 RAB1153E03 P0001,
DCA,2014-01-11 12:41,39.20,37.40,93.19,80.00,3.00,0.02,29.85,M,0.75,M,OVC,None,None,None,300.00,M,M,M,RA BR,KDCA 111241Z 08003KT 3/4SM R01/2800V4000FT RA BR OVC003 04/03 A2985 RMK AO2 RAB1153E03B41DZB20E41 P0002,
DCA,2014-01-11 12:52,37.94,35.96,92.49,0.00,0.00,0.05,29.86,1011.00,0.50,M,VV ,None,None,None,300.00,M,M,M,-RA FG,KDCA 111252Z 00000KT 1/2SM R01/2000V2800FT -RA FG VV003 03/02 A2986 RMK AO2 RAB1153E03B41DZB20E41 SLP110 P0005 T00330022,
DCA,2014-01-11 13:52,39.02,37.04,92.53,0.00,0.00,0.01,29.81,1009.50,0.25,M,OVC,None,None,None,300.00,M,M,M,-DZ FG,KDCA 111352Z 00000KT 1/4SM R01/2000V2800FT -DZ FG OVC003 04/03 A2981 RMK AO2 RAE05DZB52 SLP095 P0001 T00390028,
DCA,2014-01-11 14:37,39.20,37.40,93.19,0.00,0.00,0.01,29.78,M,0.25,M,OVC,None,None,None,300.00,M,M,M,-DZ FG,KDCA 111437Z 00000KT 1/4SM R01/1400V2000FT -DZ FG OVC003 04/03 A2978 RMK AO2 P0001,
DCA,2014-01-11 14:52,39.92,37.94,92.56,0.00,0.00,0.01,29.78,1008.40,0.25,M,OVC,None,None,None,300.00,M,M,M,-DZ FG,KDCA 111452Z 00000KT 1/4SM R01/2000V4500FT -DZ FG OVC003 04/03 A2978 RMK AO2 SLP084 P0001 60007 T00440033 58036,
DCA,2014-01-11 15:27,42.80,39.20,86.99,230.00,5.00,0.02,29.77,M,1.00,19.00,OVC,None,None,None,300.00,M,M,M,-RA BR,KDCA 111527Z 23005G19KT 1SM R01/6000VP6000FT -RA BR OVC003 06/04 A2977 RMK AO2 DZE23RAB23 P0002,
DCA,2014-01-11 15:31,44.60,41.00,87.09,210.00,5.00,0.03,29.78,M,1.00,19.00,BKN,OVC,None,None,500.00,900.00,M,M,RA BR,KDCA 111531Z 21005G19KT 1SM R01/2000VP6000FT RA BR BKN005 OVC009 07/05 A2978 RMK AO2 DZE23RAB23 P0003,
DCA,2014-01-11 15:34,44.60,41.00,87.09,200.00,6.00,0.09,29.78,M,0.75,19.00,BKN,OVC,None,None,500.00,1200.00,M,M,+RA BR,KDCA 111534Z 20006G19KT 3/4SM R01/2000VP6000FT +RA BR BKN005 OVC012 07/05 A2978 RMK AO2 DZE23RAB23 P0009,
DCA,2014-01-11 15:40,42.80,41.00,93.30,170.00,7.00,0.14,29.77,M,1.00,M,BKN,OVC,None,None,500.00,1200.00,M,M,RA BR,KDCA 111540Z 17007KT 1SM R01/2000VP6000FT RA BR BKN005 OVC012 06/05 A2977 RMK AO2 DZE23RAB23 P0014,
DCA,2014-01-11 15:46,42.80,41.00,93.30,180.00,7.00,0.16,29.77,M,2.00,M,BKN,BKN,OVC,None,500.00,2500.00,3600.00,M,-RA BR,KDCA 111546Z 18007KT 2SM -RA BR BKN005 BKN025 OVC036 06/05 A2977 RMK AO2 DZE23RAB23 P0016,
DCA,2014-01-11 15:52,42.08,39.92,91.98,160.00,7.00,0.17,29.75,1007.40,2.00,M,BKN,BKN,OVC,None,500.00,2200.00,8000.00,M,-RA BR,KDCA 111552Z 16007KT 2SM R01/6000VP6000FT -RA BR BKN005 BKN022 OVC080 06/04 A2975 RMK AO2 DZE23RAB23 PRESFR SLP074 P0017 T00560044,
DCA,2014-01-11 15:54,42.80,39.20,86.99,150.00,8.00,0.00,29.75,M,1.75,M,SCT,BKN,OVC,None,800.00,2500.00,9000.00,M,RA BR,KDCA 111554Z 15008KT 1 3/4SM R01/4000VP6000FT RA BR SCT008 BKN025 OVC090 06/04 A2975 RMK AO2 PRESFR P0000,
DCA,2014-01-11 15:58,42.80,39.20,86.99,160.00,10.00,0.01,29.75,M,1.50,M,SCT,BKN,OVC,None,800.00,3900.00,7500.00,M,RA BR,KDCA 111558Z 16010KT 1 1/2SM R01/4000VP6000FT RA BR SCT008 BKN039 OVC075 06/04 A2975 RMK AO2 P0001,
DCA,2014-01-11 16:06,42.80,39.20,86.99,180.00,9.00,0.03,29.74,M,2.50,M,SCT,BKN,OVC,None,800.00,7500.00,9500.00,M,RA BR,KDCA 111606Z 18009KT 2 1/2SM RA BR SCT008 BKN075 OVC095 06/04 A2974 RMK AO2 P0003,
DCA,2014-01-11 16:15,42.80,39.20,86.99,180.00,8.00,0.07,29.71,M,2.50,M,BKN,BKN,OVC,None,500.00,4400.00,9000.00,M,RA BR,KDCA 111615Z 18008KT 2 1/2SM RA BR BKN005 BKN044 OVC090 06/04 A2971 RMK AO2 PRESFR P0007,
DCA,2014-01-11 16:24,42.80,41.00,93.30,200.00,7.00,0.11,29.70,M,2.50,M,BKN,OVC,None,None,300.00,7500.00,M,M,RA BR,KDCA 111624Z 20007KT 2 1/2SM RA BR BKN003 OVC075 06/05 A2970 RMK AO2 P0011,
DCA,2014-01-11 16:28,42.80,41.00,93.30,230.00,8.00,0.12,29.69,M,3.00,M,BKN,OVC,None,None,300.00,7500.00,M,M,RA BR,KDCA 111628Z 23008KT 3SM RA BR BKN003 OVC075 06/05 A2969 RMK AO2 PRESFR P0012,
DCA,2014-01-11 16:52,46.04,42.98,88.99,220.00,6.00,0.12,29.65,1004.00,10.00,M,OVC,None,None,None,300.00,M,M,M,M,KDCA 111652Z 22006KT 10SM OVC003 08/06 A2965 RMK AO2 RAE52 SLP040 VIS S-NW 2 P0012 T00780061,
DCA,2014-01-11 17:12,46.40,44.60,93.40,170.00,4.00,0.01,29.63,M,3.00,M,OVC,None,None,None,300.00,M,M,M,-RA BR,KDCA 111712Z 17004KT 3SM R01/3000VP6000FT -RA BR OVC003 08/07 A2963 RMK AO2 RAB09 PRESFR VIS S 3/4 P0001,
DCA,2014-01-11 17:15,44.60,42.80,93.35,0.00,0.00,0.01,29.63,M,0.50,M,OVC,None,None,None,300.00,M,M,M,-RA FG,KDCA 111715Z 00000KT 1/2SM R01/1400VP6000FT -RA FG OVC003 07/06 A2963 RMK AO2 RAB09 PRESFR P0001,
DCA,2014-01-11 17:33,48.20,44.60,87.28,240.00,3.00,0.06,29.61,M,1.00,M,OVC,None,None,None,300.00,M,M,M,RA BR,KDCA 111733Z 24003KT 1SM R01/5000VP6000FT RA BR OVC003 09/07 A2961 RMK AO2 RAB09 P0006,
DCA,2014-01-11 17:52,48.92,46.94,92.84,0.00,0.00,0.15,29.59,1002.00,0.75,M,OVC,None,None,None,300.00,M,M,M,-RA BR,KDCA 111752Z 00000KT 3/4SM R01/3500VP6000FT -RA BR OVC003 09/08 A2959 RMK AO2 VIS 1/4V3 RAB09 SLP020 P0015 60051 T00940083 10106 20033 58059,
DCA,2014-01-11 17:58,48.20,46.40,93.45,0.00,0.00,0.00,29.58,M,1.00,M,OVC,None,None,None,300.00,M,M,M,-RA BR,KDCA 111758Z 00000KT 1SM R01/2600VP6000FT -RA BR OVC003 09/08 A2958 RMK AO2 P0000,
DCA,2014-01-11 18:02,48.20,46.40,93.45,250.00,4.00,0.00,29.58,M,0.75,M,OVC,None,None,None,300.00,M,M,M,-RA BR,KDCA 111802Z 25004KT 3/4SM R01/2600VP6000FT -RA BR OVC003 09/08 A2958 RMK AO2 VIS 1/2V5 VIS NW-NE 4 P0000,
DCA,2014-01-11 18:06,51.80,48.20,87.47,M,3.00,0.00,29.58,M,1.00,M,OVC,None,None,None,300.00,M,M,M,-RA BR,KDCA 111806Z VRB03KT 1SM R01/2600VP6000FT -RA BR OVC003 11/09 A2958 RMK AO2 VIS NW-NE 5 P0000,
DCA,2014-01-11 18:12,51.80,48.20,87.47,260.00,8.00,0.00,29.57,M,7.00,14.00,OVC,None,None,None,300.00,M,M,M,M,KDCA 111812Z 26008G14KT 7SM OVC003 11/09 A2957 RMK AO2 RAE11 MIFG NE-SE P0000,
DCA,2014-01-11 18:46,53.60,50.00,87.56,260.00,12.00,0.01,29.57,M,2.00,30.00,BKN,OVC,None,None,300.00,1500.00,M,M,-RA BR,KDCA 111846Z 26012G30KT 2SM R01/4000VP6000FT -RA BR BKN003 OVC015 12/10 A2957 RMK AO2 PK WND 26030/1843 P0001,
DCA,2014-01-11 18:48,53.60,50.00,87.56,260.00,10.00,0.07,29.57,M,1.75,30.00,BKN,OVC,None,None,300.00,1900.00,M,M,+RA BR,KDCA 111848Z 26010G30KT 1 3/4SM R01/4000VP6000FT +RA BR BKN003 OVC019 12/10 A2957 RMK AO2 PK WND 26030/1843 P0007,
DCA,2014-01-11 18:52,53.96,51.08,89.95,220.00,8.00,0.09,29.57,1001.20,4.00,30.00,BKN,BKN,OVC,None,300.00,1900.00,4700.00,M,RA BR,KDCA 111852Z 22008G30KT 4SM R01/4000VP6000FT RA BR BKN003 BKN019 OVC047 12/11 A2957 RMK AO2 PK WND 26030/1843 SLP012 VIS N-E 1 1/2 BINOVC P0009 T01220106,
DCA,2014-01-11 18:58,53.60,51.80,93.60,260.00,8.00,0.00,29.56,M,6.00,M,SCT,BKN,OVC,None,300.00,1900.00,6000.00,M,-RA BR,KDCA 111858Z 26008KT 6SM -RA BR SCT003 BKN019 OVC060 12/11 A2956 RMK AO2 P0000,
DCA,2014-01-11 19:00,53.60,51.80,93.60,260.00,8.00,0.00,29.56,M,10.00,M,SCT,BKN,OVC,None,300.00,4200.00,6000.00,M,-RA,KDCA 111900Z 26008KT 10SM -RA SCT003 BKN042 OVC060 12/11 A2956 RMK AO2 P0000,
DCA,2014-01-11 19:52,55.04,50.00,83.08,260.00,9.00,0.01,29.54,1000.20,10.00,M,FEW,BKN,OVC,None,1900.00,6500.00,8500.00,M,-RA,KDCA 111952Z 26009KT 10SM -RA FEW019 BKN065 OVC085 13/10 A2954 RMK AO2 RAE02B30 SLP002 P0001 T01280100,
DCA,2014-01-11 20:52,53.96,48.92,83.00,210.00,8.00,0.03,29.58,1001.50,10.00,M,FEW,OVC,None,None,2000.00,8500.00,M,M,-RA,KDCA 112052Z 21008KT 10SM -RA FEW020 OVC085 12/09 A2958 RMK AO2 SLP015 P0003 60013 T01220094 53003,
DCA,2014-01-11 21:20,48.20,46.40,93.45,170.00,7.00,0.05,29.56,M,6.00,M,FEW,OVC,None,None,2000.00,8000.00,M,M,-RA BR BCFG,KDCA 112120Z 17007KT 6SM R01/2600VP6000FT -RA BR BCFG FEW020 OVC080 09/08 A2956 RMK AO2 BCFG E-SE ALG RIVER P0005,
DCA,2014-01-11 21:28,48.20,46.40,93.45,170.00,7.00,0.06,29.55,M,6.00,M,FEW,BKN,OVC,None,2000.00,8000.00,9500.00,M,-RA BR BCFG,KDCA 112128Z 17007KT 6SM R01/2000V3500FT -RA BR BCFG FEW020 BKN080 OVC095 09/08 A2955 RMK AO2 PRESFR BCFG SE-S ON FIELD P0006,
DCA,2014-01-11 21:41,48.20,46.40,93.45,160.00,5.00,0.08,29.51,M,6.00,M,FEW,OVC,None,None,2000.00,9000.00,M,M,-RA BR BCFG,KDCA 112141Z 16005KT 6SM R01/1200V2200FT -RA BR BCFG FEW020 OVC090 09/08 A2951 RMK AO2 PRESFR VIS SW 1 BCFG E-S ALONG RIVER AND ON FIELD P0008,
DCA,2014-01-11 21:48,50.00,46.40,87.37,160.00,7.00,0.08,29.50,M,6.00,M,FEW,OVC,None,None,2000.00,9000.00,M,M,-RA BR BCFG,KDCA 112148Z 16007KT 6SM R01/1200V4000FT -RA BR BCFG FEW020 OVC090 10/08 A2950 RMK AO2 PRESFR VIS S-SW 1 BCFG NE-S ALONG RIVER FG BANK S ON FIELD P0008,
DCA,2014-01-11 21:52,50.00,46.94,89.17,170.00,5.00,0.08,29.49,998.70,6.00,M,FEW,SCT,OVC,None,500.00,2000.00,9000.00,M,-RA BR BCFG,KDCA 112152Z 17005KT 6SM R01/1200V4000FT -RA BR BCFG FEW005 SCT020 OVC090 10/08 A2949 RMK AO2 PRESFR SLP987 VIS S-SW 1 BCFG NE-S ALONG RIVER FG BANK S ON FIELD P0008 T01000083,
DCA,2014-01-11 22:04,48.20,46.40,93.45,210.00,5.00,0.00,29.49,M,8.00,M,FEW,SCT,OVC,None,800.00,3200.00,9000.00,M,-RA BCFG,KDCA 112204Z 21005KT 8SM R01/1800V4500FT -RA BCFG FEW008 SCT032 OVC090 09/08 A2949 RMK AO2 BCFG NE-S ALG RIVER P0000,
DCA,2014-01-11 22:17,51.80,48.20,87.47,190.00,9.00,0.01,29.48,M,8.00,M,FEW,SCT,OVC,None,800.00,4300.00,10000.00,M,-RA BCFG,KDCA 112217Z 19009KT 8SM R01/5000VP6000FT -RA BCFG FEW008 SCT043 OVC100 11/09 A2948 RMK AO2 BCFG NE-SE ALG RIVER BINOVC W P0001,
DCA,2014-01-11 22:33,51.80,50.00,93.55,190.00,13.00,0.01,29.48,M,10.00,M,FEW,SCT,OVC,None,800.00,2800.00,10000.00,M,BCFG,KDCA 112233Z 19013KT 10SM BCFG FEW008 SCT028 OVC100 11/10 A2948 RMK AO2 RAE25 BCFG E-S ALG RIVER P0001,
DCA,2014-01-11 22:42,48.20,46.40,93.45,170.00,13.00,0.01,29.43,M,9.00,M,FEW,OVC,None,None,400.00,10000.00,M,M,-RA BCFG,KDCA 112242Z 17013KT 9SM R01/2000VP6000FT -RA BCFG FEW004 OVC100 09/08 A2943 RMK AO2 PRESFR BCFG E-S ON FIELD P0001,
DCA,2014-01-11 22:52,50.00,48.02,92.87,190.00,11.00,0.01,29.42,996.40,9.00,M,FEW,OVC,None,None,300.00,10000.00,M,M,BCFG,KDCA 112252Z 19011KT 9SM BCFG FEW003 OVC100 10/09 A2942 RMK AO2 RAE47 SLP964 BCFG E-S ALG RIVER P0001 T01000089,
DCA,2014-01-11 23:06,51.80,48.20,87.47,190.00,14.00,0.00,29.43,M,10.00,M,FEW,OVC,None,None,800.00,11000.00,M,M,M,KDCA 112306Z 19014KT 10SM FEW008 OVC110 11/09 A2943 RMK AO2,
DCA,2014-01-11 23:52,53.06,48.92,85.78,220.00,13.00,0.00,29.48,998.30,10.00,19.00,FEW,SCT,OVC,None,1200.00,11000.00,13000.00,M,M,KDCA 112352Z 22013G19KT 10SM FEW012 SCT110 OVC130 12/09 A2948 RMK AO2 SLP983 60022 T01170094 10128 20089 55006,
DCA,2014-01-12 00:52,51.98,48.92,89.26,200.00,11.00,0.00,29.49,998.60,10.00,M,FEW,OVC,None,None,1500.00,18000.00,M,M,M,KDCA 120052Z 20011KT 10SM FEW015 OVC180 11/09 A2949 RMK AO2 SLP986 T01110094,
DCA,2014-01-12 01:52,53.06,48.92,85.78,210.00,10.00,0.00,29.49,998.70,10.00,M,FEW,OVC,None,None,1500.00,19000.00,M,M,M,KDCA 120152Z 21010KT 10SM FEW015 OVC190 12/09 A2949 RMK AO2 SLP987 T01170094,
DCA,2014-01-12 02:52,55.04,50.00,83.08,M,6.00,0.00,29.53,999.80,10.00,M,BKN,OVC,None,None,1600.00,7000.00,M,M,M,KDCA 120252Z VRB06KT 10SM BKN016 OVC070 13/10 A2953 RMK AO2 SLP998 T01280100 53016,
DCA,2014-01-12 03:00,55.40,48.20,76.66,270.00,9.00,0.00,29.53,M,10.00,M,SCT,BKN,OVC,None,1600.00,4000.00,4900.00,M,M,KDCA 120300Z 27009KT 10SM SCT016 BKN040 OVC049 13/09 A2953 RMK AO2,
DCA,2014-01-12 03:52,55.04,44.06,66.41,290.00,8.00,0.00,29.53,1000.10,10.00,M,OVC,None,None,None,7000.00,M,M,M,-RA,KDCA 120352Z 29008KT 10SM -RA OVC070 13/07 A2953 RMK AO2 RAB10 SLP001 P0000 T01280067 $,
DCA,2014-01-12 04:52,53.96,44.06,69.08,270.00,5.00,0.00,29.56,1000.90,10.00,M,FEW,OVC,None,None,7000.00,11000.00,M,M,M,KDCA 120452Z 27005KT 10SM FEW070 OVC110 12/07 A2956 RMK AO2 RAE42 SLP009 P0000 T01220067 401440028 $,
DCA,2014-01-12 05:52,53.06,39.02,58.77,300.00,11.00,0.00,29.59,1002.10,10.00,18.00,BKN,BKN,None,None,6500.00,11000.00,M,M,M,KDCA 120552Z 30011G18KT 10SM BKN065 BKN110 12/04 A2959 RMK AO2 SLP021 60000 T01170039 10144 20094 53022 $,
DCA,2014-01-12 06:52,50.00,33.98,53.92,320.00,12.00,0.00,29.64,1003.60,10.00,17.00,FEW,SCT,None,None,6500.00,11000.00,M,M,M,KDCA 120652Z 32012G17KT 10SM FEW065 SCT110 10/01 A2964 RMK AO2 SLP036 T01000011 $,
DCA,2014-01-12 07:52,48.92,33.08,54.15,330.00,8.00,0.00,29.67,1004.60,10.00,M,FEW,None,None,None,4600.00,M,M,M,M,KDCA 120752Z 33008KT 10SM FEW046 09/01 A2967 RMK AO2 SLP046 T00940006,
DCA,2014-01-12 08:52,46.94,30.92,53.47,310.00,9.00,0.00,29.67,1004.80,10.00,20.00,FEW,None,None,None,4600.00,M,M,M,M,